"StreetName","City","County","LOC_PAGE","LOC_LONG","LOC_LAT","APN","TOMBROBOX","Fault","number"
"TBC","Woodside","San Mateo County",,,,,,,
"TBC","Pacifica",,,,,,,,
"TBC",,,,,,,,,
"TBC",,,,,,,,,
"TBC","Santa Rosa","Sonoma",,,,,,,
"TBC","Larkins Valley","Santa Cruz",,,,"49-101-31",,,"812"
"TBC","Los Fatos","Santa Clara",,,,,,,"19550"
"TBC","Los Gatos","Santa Clara County",,,,,,,
"TBC","Atherton",,,,,,,,
"TBC",,,,,,,,,
"TBC","San Jose","Santa Clara",,,,,,,"3550"
"TBC","Portola Valley",,,,,,,,"119"
"TBC",,,,,,,,,
"TBC",,"Santa Clara",,,,,,,"17601"
"TBC",,"Santa Cruz",,,,,,,
"TBC","Moss Beach",,,,,,,,"150"
"TBC",,,,,,,,,
"TBC","Los Angeles",,"594","D","6",,,,"1519"
"TBC","Los Gatos",,,,,,,,
"TBC",,,,,,,,,
"TBC","San Jose","Santa Clara",,,,,,,"1087"
"TBC","Watsonville",,,,,"049-271-41 & 42",,,"0"
"TBC",,"Santa Cruz",,,,,,,
"TBC","Watsonville",,,,,,,,"481"
"TBC","Los Gatos","Santa Clara",,,,"523-18-041",,,"16227"
"TBC","Hillsborough","San Mateo","28","F","6",,,,"1408"
"TBC","Los Altos Hills","San Mateo","51","C","3",,,,"14560"
"TBC","San Jose","Santa Clara","75","E","1",,,,"1138"
"TBC","Woodland Hills",,,,,,,,"24526"
"TBC","Los Altos Hills",,,,,,,,
"TBC","Menlo Park",,,,,,,,"1025"
"TBC","Woodside",,,,,,,,"215"
"TBC","Los Gatos",,,,,,,,"117"
"TBC",,"Santa Clara",,,,,,,
"TBC",,"Monterey",,,,,,,"14944"
"TBC","Oakland","Alameda",,,,,,,"4387"
"TBC","Monte Sereno",,,,,,,,"15995"
"TBC",,"San Mateo",,,,,,,
"TBC",,,,,,,,,
"TBC","Watsonville",,,,,,,,"142"
"TBC","Woodside",,,,,,,,"490"
"TBC","Salinas",,,,,,,,"242"
"TBC","San Jose",,,,,,,,"3418"
"TBC","Woodside","CA",,,,,,,"22"
"TBC","Los Altos Hills","Santa Clara","51","A","5",,,,"12230"
"TBC","Los Altos","Santa Clara","51","C","6",,,,"25396"
"TBC","Los Banos",,,,,,,,
"TBC",,,,,,,,,
"TBC","Watsonville",,,,,,,,"130"
"TBC","San Carlos",,,,,,,,"50"
"TBC","Redwood City",,,,,,,,"2446"
"TBC","Los Gatos",,,,,,,,"107"
"TBC",,"San Mateo",,,,,,,"350"
"TBC","Scotts Valley","Santa Cruz","42","60","48",,,,"12"
"TBC","Woodland Hills",,"560","E","1",,,,"5913"
"TBC","Morgan Hill",,,,,,,,
"TBC","San Jose","Santa Clara",,,,,,,"3111"
"TBC","Woodside",,,,,,,,"880"
"TBC","San Jose","Santa Clara",,,,,,,"14671"
"TBC",,,,,,,,,
"TBC",,,,,,,,,
"TBC","Santa Clara County","Santa Clara County",,,,,,,
"TBC","Unincorporated","San Bernadino",,,,,,,
"TBC","Milpitas",,,,,,,,"271"
"TBC",,"Santa Clara",,,,,,,"27850"
"TBC",,,,,,,,,
"TBC",,"Santa Clara",,,,,,,
"TBC",,,,,,,,,
"TBC","Antioch",,,,,,,,
"TBC","Los Altos Hills","Santa Clara","51","B","5",,,,"12130"
"TBC","Santa Clara County","Santa Clara County",,,,,,,
"TBC","Saratoga",,,,,,,,
"TBC",,,,,,,,,
"TBC","Sunnyvale","Santa Clara",,,,,,,
"TBC",,"Santa Clara",,,,,,,"4725"
"TBC",,,,,,,,,
"TBC","Millbrae",,,,,,,,"200"
"TBC","San Jose","Santa Clara",,,,,,,"170"
"TBC","Los Gatos","Santa Clara County",,,,,,,
"TBC","Los Altos Hills",,,,,,,,
"TBC","Morgan Hill",,,,,,,,"405"
"TBC",,"Santa Cruz",,,,"076-251-20 & 26",,,
"TBC","San Jose",,,,,,,,
"TBC","Los Gatos","Santa Clara",,,,,,,"168"
"TBC","San Jose","Santa Clara",,,,,,,"6473"
"TBC","E. San Jose","Santa Clara County",,,,,,,"Claitor"
"TBC","Woodside","San Mateo",,,,,,,"122"
"TBC","Palo Alto",,,,,,,,"978"
"TBC",,,,,,,,,
"TBC","San Jose","Santa Clara",,,,,,,
"TBC","Atherton",,,,,,,,"383"
"TBC","Woodside",,,,,,,,"660"
"TBC","San Jose","Santa Clara","63","B","1",,,,"1510"
"TBC","Portola Valley","San Mateo County",,,,,,,
"TBC","Cupertino",,,,,,,,
"TBC","Palo Alto",,,,,,,,"717"
"TBC","San Carlos",,,,,,,,"1710"
"TBC",,,,,,,,,
"TBC","Los Gatos","Santa Clara",,,,,,,"121"
"TBC","Woodside","San Mateo",,,,,,,"660"
"TBC","San Jose","Santa Clara","56","B","2",,,,"15825"
"TBC","Woodside","San Mateo County",,,,,,,
"TBC","Woodland Hills",,"560","E","4",,,,"4850"
"TBC","Lafayette",,,,,,,,
"TBC",,,,,,,,,
"TBC","Saratoga","Santa Clara",,,,,,,"12329"
"TBC","Brisbane",,,,,,,,"276"
"TBC","San Jose","Santa Clara",,,,,,,"3786"
"TBC","Santa Clara","Santa Clara",,,,,,,"531"
"TBC","Los Gatos","Santa Clara",,,,,,,"104"
"TBC","Woodland Hills",,"529","D","1",,,,"6019"
"TBC",,,,,,,,,
"TBC","San Jose","Santa Clara",,,,,,,"730"
"TBC","Mountain View",,,,,,,,"511"
"TBC","San Jose","Santa Clara",,,,"742-02-022",,,"8000"
"TBC","San Carlos",,,,,,,,"223"
"TBC","Redwood City",,,,,,,,
"TBC","San Francisco","San Francisco",,,,,,,"34"
"TBC",,"Santa Clara",,,,,,,"16371"
"TBC","San Jose","Santa Clara",,,,,,,"1514"
"TBC",,,,,,,,,
"TBC","Los Gatos","Santa Clara",,,,,,,"130"
"TBC","Cupertino","Santa Clara County",,,,"357-030-71",,,"10428"
"TBC","Woodside","San Mateo County","46","C","3",,,,"22"
"TBC","San Carlos",,,,,,,,"714"
"TBC",,"Santa Clara",,,,,,,"16371"
"TBC",,,,,,,,,
"TBC",,,,,,,,,
"TBC",,"Santa Clara",,,,,,,"18157"
"TBC","E. San Jose","Santa Clara",,,,,,,"Unit 1, Lo"
"TBC","Cupertino",,,,,,,,
"TBC","San Martin",,,,,,,,
"TBC",,,,,,,,,
"TBC","Salinas",,,,,,,,"704"
"TBC","Los Gatos","Santa Clara",,,,,,,"128"
"TBC","San Jose","Santa Clara",,,,,,,"1265"
"TBC",,,,,,,,,
"TBC","Woodside","San Mateo","42","C","2",,,,"25"
"TBC","Milpitas",,,,,,,,
"TBC","Saratoga","Santa Clara",,,,,,,"14755"
"TBC","Los Gatos","Santa Clara",,,,,,,"18087"
"TBC","Milpitas","Santa Clara",,,,,,,
"TBC",,,,,,,,,
"TBC",,,,,,,,,
"TBC","Woodside",,,,,,,,"132"
"TBC","Campbell","Santa Clara",,,,,,,"1134"
"TBC","San Jose","Santa Clara",,,,,,,"1148"
"TBC","San Jose","Santa Clara",,,,,,,"4654"
"TBC","San Jose",,,,,,,,"744"
"TBC",,"Santa Clara",,,,,,,"18157"
"TBC","La Honda","San Mateo","50","B","5",,,,"171"
"TBC","San Mateo County","San Mateo County",,,,,,,
"TBC","Los Altos Hills",,,,,,,,"16750"
"TBC","Atherton",,,,,,,,"261"
"TBC",,"Santa Clara",,,,,,,"19233"
"TBC","Fremont",,,,,,,,"2400"
"TBC","Cupertino","Santa Clara",,,,,,,"1148"
"TBC",,"Santa Clara",,,,"575-11-020",,,
"TBC","Woodside","San Mateo","36","B","5",,,,"623"
"TBC","Saratoga","Santa Clara",,,,,,,"18929"
"TBC","Los Gatos",,,,,,,,"159"
"TBC","Los Gatos","Santa Clara",,,,,,,"471"
"TBC",,,,,,,,,
"TBC",,,,,,,,,
"TBC",,,,,,,,,
"TBC","Woodside","San Mateo",,,,,,,
"TBC","Woodside","San Mateo",,,,,,,"124"
"TBC","Los Gatos","SANTA CLARA",,,,"000-000-000",,,"19747"
"TBC","Saratoga","Santa Clara",,,,,,,"10875"
"TBC","San Jose","Santa Clara",,,,,,,"1651"
"TBC","Portola Valley","San Mateo",,,,,,,"4"
"TBC","Saratoga","Santa Clara",,,,,,,"22215"
"TBC","Gilroy","Santa Clara",,,,,,,"8861"
"TBC","Santa Clara","Santa Clara",,,,,,,"655"
"TBC","Los Gatos",,,,,,,,"15270"
"TBC","San Jose","Santa Clara",,,,,,,"499"
"TBC",,,,,,,,,
"TBC","Boulder Creek",,,,,,,,
"TBC","San Mateo","San Mateo",,,,,,,"20"
"TBC","Los Altos Hills","Santa Clara","58","E","1",,,,"25707"
"TBC","Menlo Park","San Mateo",,,,,,,"2316"
"TBC","San Carlos",,,,,,,,"2308"
"TBC","Unincorporated","Santa Cruz",,,,,,,"21014"
"TBC",,,,,,,,,
"TBC","San Jose","Santa Clara",,,,,,,"882"
"TBC","San Jose","Santa Clara",,,,"434-31-022, 032, 033",,,"791"
"TBC","Saratoga","Santa Clara","65","B","2",,,,"12151"
"TBC",,,,,,,,,
"TBC","Los Altos Hills",,,,,,,,"26335"
"TBC","Fremont",,,,,,,,"Tract 7298"
"TBC","Unincorporated","Santa Cruz",,,,,,,"101"
"TBC","Monte Sereno",,,,,,,,"17341"
"TBC",,,,,,,,,
"TBC",,,,,,,,,
"TBC","Portola Valley","San Mateo","46","F","3",,,,"1077"
"TBC","Salinas",,,,,,,,
"TBC",,,,,,,,,
"TBC","Santa Cruz","Santa Cruz",,,,,,,"230"
"TBC","Atherton",,,,,,,,"68"
"TBC","San Jose","Santa Clara",,,,,,,"1261"
"TBC","Capitola","Santa Cruz",,,,,,,"405"
"TBC",,,,,,,,,
"TBC",,,,,,,,,
"TBC","Daly City",,,,,,,,"173"
"TBC","Cupertino","Santa Clara",,,,,,,"7554"
"TBC",,,,,,,,,
"TBC","San Jose","Santa Clara",,,,,,,"3255"
"TBC",,"Santa Clara",,,,"654-16-001",,,
"TBC",,"Santa Cruz",,,,,,,"24993"
"TBC","Santa Clara County","Santa Clara County",,,,,,,
"TBC",,,,,,,,,
"TBC","Los Altos",,,,,,,,"2121"
"TBC","Los Altos Hills","Santa Clara",,,,,,,"26060"
"TBC","Los Gatos","Santa Clara",,,,,,,
"TBC","San Francisco","San Francisco",,,,,,,"212"
"TBC","Belmont",,,,,,,,"3852"
"TBC",,,,,,,,,
"TBC","Los Gatos",,,,,,,,"266"
"TBC","Morgan Hill","Santa Clara",,,,,,,"16480"
"TBC",,,,,,,,,
"TBC",,,,,,,,,
"TBC","Watsonville","Santa Cruz",,,,"051-511-35",,,
"TBC","Portola Valley","San Mateo",,,,,,,"15"
"TBC","Palo Alto",,,,,,,,"707"
"TBC",,"Santa Clara",,,,,,,"17770"
"TBC",,"Santa Cruz",,,,,,,"25350"
"TBC","San Carlos",,,,,,,,"2941"
"TBC","Watsonville",,,,,,,,"138"
"TBC",,"Santa Clara",,,,"742-04-020",,,"21290"
"TBC","Woodside","San Mateo",,,,,,,"8"
"TBC","San Jose",,,,,,,,
"TBC",,,,,,,,,
"TBC","Woodside","San Mateo","42",,,,"D3",,"Cedar"
"TBC","Woodside",,,,,,,,
"TBC",,"San Mateo","46","A","3","075-340-270",,,
"TBC",,,,,,,,,
"TBC",,,,,,,,,
"TBC",,,,,,,,,
"TBC","Scotts Valley",,,,,,,,"16"
"TBC","San Jose","CA",,,,,,,"1261"
"TBC","Skyline",,,,,,,,
"TBC","San Ramon",,,,,,,,
"TBC",,,,,,,,,
"TBC","San Jose","Santa Clara",,,,,,,"3994"
"TBC","Woodside",,,,,,,,"447"
"TBC","San Jose","Santa Clara",,,,,,,"1261"
"TBC","Los Gatos","Santa Clara","70",,,,"F5",,"Hyde S"
"TBC","Cupertino","Santa Clara County",,,,,,,
"TBC","San Jose","Santa Clara",,,,,,,"1299"
"TBC","Watsonville","Santa Cruz",,,,,,,"711"
"TBC","Unincorporated","San Mateo",,,,,,,"845"
"TBC","Unincorporated","Contra Costa",,,,,,,
"TBC",,"Santa Clara",,,,,,,"102"
"TBC","Burlingame","San Mateo County",,,,,,,"103"
"TBC","Woodside",,,,,,,,
"TBC","San Jose","Santa Clara",,,,"595-27-36",,,
"TBC","Belmont",,,,,,,,"1239"
"TBC","San Martin","Santa Clara",,,,,,,"13145"
"TBC","Saratoga","Santa Clara",,,,,,,"22040"
"TBC","San Jose","Santa Clara",,,,,,,"8108"
"TBC",,"San Mateo","49","F","6","082-020-010",,,
"TBC",,,,,,,,,
"TBC",,,,,,,,,
"TBC","Menlo Park","San Mateo",,,,,,,"1060"
"TBC","Unincorporated","Santa Clara",,,,,,,"17800"
"TBC","Emerald Hills","San Mateo",,,,,,,"2511"
"TBC",,"Santa Clara",,,,,,,"17986"
"TBC","Santa Clara County","Santa Clara County",,,,,,,
"TBC","Woodside","San Mateo",,,,,,,"140"
"TBC",,,,,,,,,
"TBC","Los Altos Hills",,,,,,,,"13000"
"TBC","San Jose","Santa Clara",,,,,,,"3453"
"TBC","Aptos",,,,,,,,"416"
"TBC",,"Santa Clara",,,,,,,"22525"
"TBC","Los Gatos","Santa Clara",,,,,,,"460"
"TBC","Saratoga","Santa Clara","64","F","5",,,,"20775"
"TBC",,,,,,,,,
"TBC",,,,,,,,,
"TBC","Los Altos Hills",,,,,,,,"13000"
"TBC","Cupertino","Santa Clara",,,,,,,"18977"
"TBC","Unincorporated","Santa Cruz",,,,"080-174-26",,,"8355"
"TBC","Los Gatos","Santa Clara",,,,,,,"23547"
"TBC","San Jose","Santa Clara",,,,,,,"Lot33"
"TBC",,,,,,,,,
"TBC","Mountain View",,,,,,,,"1193"
"TBC",,,,,,,,,
"TBC","San Jose","Santa Clara",,,,,,,"1495"
"TBC","Los Gatos","Santa Clara",,,,,,,"23547"
"TBC",,"San Mateo",,,,,,,"35"
"TBC","Saratoga","Santa Clara","69","F","2",,,,"15175"
"TBC","E. San Jose","Santa Clara County",,,,,,,
"TBC",,,,,,,,,
"TBC","Redwood City",,,,,,,,"365"
"TBC","Portola Valley","San Mateo",,,,,,,"40"
"TBC",,"Santa Clara",,,,"087-081-18",,,"240"
"TBC","Cupertino","Santa Clara",,,,,,,"10387"
"TBC","San Jose","Santa Clara",,,,"595-26-047",,,
"TBC",,,,,,,,,
"TBC","Los Gatos",,,,,,,,
"TBC","Fremont",,,,,,,,
"TBC","San Jose","Santa Clara",,,,,,,
"TBC",,,,,,,,,
"TBC",,"Santa Cruz",,,,"096-251-01",,,
"TBC","Hillsborough","San Mateo",,,,,,,"75"
"TBC",,,,,,,,,
"TBC","Portola Valley",,,,,,,,"136"
"TBC","Menlo Park",,,,,,,,"10"
"TBC","Woodside","San Mateo","42","D","3",,,,"411"
"TBC","San Jose","Santa Clara",,,,,,,"10512"
"TBC","Fremont",,,,,,,,
"TBC","Fremont",,,,,,,,
"TBC",,,,,,,,,
"TBC",,,,,,,,,
"TBC","Brisbane","San Mateo",,,,,,,
"TBC","Ben Lomond",,,,,,,,"274"
"TBC","Fremont","Alameda",,,,,,,"230"
"TBC","San Jose","Santa Clara",,,,,,,"1580"
"TBC","Woodside","San Mateo",,,,,,,
"TBC","Fremont","Alameda",,,,,,,
"TBC",,,,,,,,,
"TBC","Watsonville",,,,,,,,"130, 134,"
"TBC",,,,,,,,,
"TBC","San Jose","Santa Clara",,,,,,,"6574"
"TBC","Saratoga","Santa Clara",,,,,,,"14070"
"TBC",,"San Mateo",,,,,,,"120"
"TBC","Point Carmel","Monterey",,,,"009-404-023",,,
"TBC","San Jose",,,,,,,,
"TBC",,,,,,,,,
"TBC","Unincorporated","Santa Cruz",,,,,,,"26150"
"TBC",,,,,,,,,
"TBC","Brisbane","San Mateo",,,,,,,
"TBC","Los Altos Hills",,,,,,,,"10655"
"TBC","Los Gatos","Santa Clara",,,,,,,"101"
"TBC","Cupertino","Santa Clara",,,,,,,"21660"
"TBC","Cupertino",,,,,,,,
"TBC","Woodside","Woodside",,,,,,,
"TBC","Sonora",,,,,,,,
"TBC",,,,,,,,,
"TBC","Woodside","San Mateo",,,,,,,"123"
"TBC",,,,,,,,,
"TBC",,,,,,,,,
"TBC","Saratoga","Santa Clara",,,,,,,"21780"
"TBC","Los Gatos","Santa Clara",,,,,,,"16245"
"TBC","Belmont",,,,,,,,
"TBC","Santa Clara County","Santa Clara County",,,,,,,
"TBC",,,,,,,,,
"TBC",,"San Mateo","46","A","3","075-340-270",,,
"TBC","Fremont",,,,,,,,
"TBC","Woodside",,,,,,,,"2885"
"TBC","Cupertino","Santa Clara",,,,,,,"19780"
"TBC","Woodside","San Mateo",,,,,,,"163"
"TBC","Campbell","Santa Clara",,,,,,,"1096"
"TBC",,"Santa Clara",,,,"558-17-046",,,"20851"
"TBC",,,,,,,,,
"TBC",,,,,,,,,
"TBC","Los Altos Hills","Santa Clara","58","E","2",,,,"23450"
"TBC",,"San Mateo",,,,,,,"132"
"TBC","Los Altos",,,,,,,,
"TBC","Unincorporated","San Mateo",,,,,,,"234"
"TBC","Morgan Hill","Santa Clara",,,,,,,"17425"
"TBC","Palo Alto",,,,,,,,
"TBC","San Jose","Santa Clara",,,,,,,"406"
"TBC","Santa Cruz","Santa Cruz",,,,,,,"220"
"TBC",,,,,,,,,
"TBC","Santa Cruz Co.","Santa Cruz","52",,,"97-041-07",,,
"TBC","Portola Valley",,,,,,,,
"TBC","Los Altos Hills","San Mateo",,,,,,,
"TBC",,,,,,,,,"Jarvis"
"TBC","Los Gatos",,,,,,,,"20471"
"TBC","San Jose","Santa Clara",,,,,,,"2342"
"TBC","Los Altos Hills",,,,,,,,"24740"
"TBC","Woodside",,,,,,,,
"TBC","Cupertino","Santa Clara",,,,"356-26-023",,,"1197"
"TBC","San Carlos",,,,,,,,
"TBC","Scotts Valley","Santa Cruz","33","55","42",,,,
"TBC","San Mateo County","San Mateo County",,,,,,,
"TBC","Los Altos Hills","Santa Clara","51","B","3",,,,"26346"
"TBC","Monte Sereno",,,,,,,,
"TBC","Woodside","San Mateo",,,,,,,
"TBC","Woodside",,,,,,,,
"TBC",,,,,,,,,
"TBC","Santa Clara","Santa Clara",,,,,,,"2813"
"TBC",,,,,,,,,
"TBC","Aptos","Santa Cruz",,,,,,,"761"
"TBC","Los Gatos","Santa Clara",,,,,,,"14225"
"TBC","Menlo Park",,,,,,,,"231"
"TBC","Monte Sereno",,,,,,,,
"TBC","Saratoga",,,,,,,,
"TBC",,,,,,,,,
"TBC","Santa Clara","Santa Clara",,,,,,,"2316"
"TBC",,,,,,,,,
"TBC",,"Santa Clara",,,,"510-53-018",,,
"TBC","San Jose","Santa Clara",,,,,,,"5501"
"TBC","Los Gatos","Santa Clara",,,,"523-18-038",,,"16179"
"TBC","Los Gatos","CA",,,,,,,"206"
"TBC","Los Altos Hills","Santa Clara","51","D","6",,,,"12200"
"TBC","Palomar Park","San Mateo","36","B","3","051-440-027",,,"210"
"TBC",,,,,,,,,
"TBC","Los Gatos",,,,,,,,"16451"
"TBC","Saratoga","Santa Clara",,,,,,,"15501"
"TBC","Saratoga","Santa Clara",,,,,,,"21225"
"TBC","Los Gatos","Santa Clara",,,,,,,"17545"
"TBC","Moss Beach",,,,,,,,"150"
"TBC","Los Gatos","Santa Clara",,,,,,,"206"
"TBC","San Jose","Santa Clara","60","C","6",,,,"5974"
"TBC","Portola Valley","San Mateo",,,,,,,
"TBC",,,,,,,,,
"TBC",,,,,,,,,
"TBC","San Jose","Santa Clara",,,,,,,"2158"
"TBC","Los Gatos","Santa Clara",,,,,,,"24964"
"TBC",,,,,,,,,
"TBC",,,,,,,,,
"TBC",,"San Mateo",,,,"700-143-110",,,"192"
"TBC","Cupertino","Santa Clara",,,,,,,
"TBC","Woodside","San Mateo","42","A","6",,,,
"TBC","San Jose","Santa Clara County",,,,,,,
"TBC",,,,,,,,,
"TBC",,,,,,,,,
"TBC","Santa Cruz","Santa Cruz",,,,,,,"4350"
"TBC",,,,,,,,,
"TBC",,,,,,,,,
"TBC","Unincorporated","Santa Clara",,,,,,,"15000"
"TBC",,,,,,,,,
"TBC","Redwood Estates",,,,,,,,
"TBC","Belmont","San Mateo","32","D","4","043-191-010",,,"3019"
"TBC","San Jose","Santa Clara",,,,,,,"Lot 33"
"TBC",,,,,,,,,
"TBC","Los Altos",,,,,,,,"450"
"TBC","Palo Alto","Santa Clara",,,,,,,"3845"
"TBC",,,,,,,,,
"TBC","Los Altos Hills","Santa Clara",,,,,,,"12590"
"TBC","Cupertino","Santa Clara",,,,,,,"22263"
"TBC","Marin County",,,,,"170-140-22",,,
"TBC","Portola Valley","San Mateo","46","E","3",,,,"6"
"TBC",,"San Mateo County","59","D","5","085-080-190",,,
"TBC","Campbell","Santa Clara County",,,,,,,
"TBC","Los Angeles",,,,,,,,
"TBC","Sunnyvale",,,,,,,,
"TBC","Felton",,,,,,,,"6621"
"TBC",,,,,,,,,
"TBC",,"Santa Clara",,,,,,,"10195"
"TBC",,"Santa Cruz",,,,"105-202-14",,,
"TBC","Saratoga","Santa Clara",,,,,,,"22641"
"TBC","San Jose","Santa Clara",,,,,,,"1126"
"TBC","Santa Clara Co.","Santa Clara","72K","F","1",,,,
"TBC","Antioch","Contra Costa",,,,,,,
"TBC","Los Altos Hills","Santa Clara","50","F","2",,,,"28168"
"TBC","Menlo Park",,,,,,,,
"TBC","Campbell",,,,,,,,
"TBC",,,,,,,,,
"TBC","Los Altos",,,,,,,,"23130"
"TBC",,"Santa Clara",,,,,,,"22191"
"TBC","Los Gatos","Santa Clara",,,,,,,"Lot 6"
"TBC","Pleasanton","Alameda",,,,,,,"4887"
"TBC","Saratoga","Santa Clara",,,,"503-17-023",,,"21085"
"TBC",,,,,,,,,
"TBC","Los Altos Hills",,"51","B","5",,,,"26946"
"TBC",,,,,,,,,
"TBC",,,,,,,,,
"TBC","Woodside",,,,,,,,"700"
"TBC",,,,,,,,,
"TBC",,,,,,,,,
"TBC","Ben Lomond",,,,,,,,"240"
"TBC",,"Santa Clara",,,,,,,"21293"
"TBC","Woodside","San Mateo","46","D","1",,,,"155"
"TBC","San Jose",,,,,,,,
"TBC",,,,,,,,,
"TBC","San Jose","Santa Clara",,,,,,,"7098"
"TBC","Monte Sereno","Santa Clara",,,,,,,"18400"
"TBC","Moss Beach",,,,,,,,"1"
"TBC","Hillsborough",,,,,,,,"35"
"TBC","Antioch",,,,,,,,"5222"
"TBC","Niles Canyon",,"89","A","3",,,,"38027"
"TBC","San Mateo","San Mateo","51","C","3",,,,"Lot 19"
"TBC","Saratoga",,,,,,,,
"TBC","Palo Alto",,,,,,,,
"TBC","Los Gatos",,,,,,,,
"TBC",,,,,,,,,
"TBC","Los Gatos","Santa Clara",,,,,,,"317"
"TBC",,,,,,,,,
"TBC","Gilroy",,,,,,,,"10605"
"TBC","San Jose","Santa Clara",,,,,,,"170"
"TBC","Portola Valley","San Mateo","47","C","3",,,,"170"
"TBC","San Carlos",,,,,,,,
"TBC","Menlo Park",,,,,,,,
"TBC","Woodside",,,,,,,,"416"
"TBC","San Jose","Santa Clara",,,,,,,"6560"
"TBC",,,,,,,,,
"TBC",,"Santa Cruz",,,,,,,"25017"
"TBC","Woodside",,,,,,,,"150"
"TBC","Santa Clara County","Santa Clara County","78",,,,"F3",,"Trail"
"TBC","Ben Lomond",,,,,,,,
"TBC","San Jose","Santa Clara",,,,,,,"801"
"TBC","Saratoga","Santa Clara",,,,,,,"21127"
"TBC","Los Altos","Santa Clara",,,,,,,"2460"
"TBC","Woodside",,,,,,,,"30"
"TBC","Mendocino","Mendocino",,,,,,,"45520"
"TBC","San Jose","CA",,,,,,,"2033"
"TBC","Cupertino",,,,,,,,
"TBC","Palo Alto","Santa Clara County","44","B","2",,,,"1855"
"TBC","East San Jose",,,,,,,,
"TBC",,,,,,,,,
"TBC",,"Santa Cruz",,,,,,,"24769"
"TBC",,"Santa Clara",,,,"742-03-013",,,"10225"
"TBC","Woodside","CA",,,,,,,"30"
"TBC","Hillsborough",,,,,,,,"726"
"TBC","San Jose",,,,,,,,"1172"
"TBC","San Jose","Santa Clara","67","E","5",,,,"476"
"TBC","Menlo Park",,,,,,,,
"TBC","Monte Sereno","Santa Clara County",,,,,,,
"TBC",,"Monterey",,,,,,,
"TBC",,,,,,,,,
"TBC","Los Gatos","Santa Cruz",,,,,,,"24769"
"TBC",,,,,,,,,
"TBC","Woodside",,,,,,,,"30"
"TBC",,,,,,,,,
"TBC","Santa Clara","Santa Clara",,,,,,,"3250"
"TBC","Los Gatos","Santa Clara","26","61","38",,,,
"TBC","Ladera Heights",,,,,,,,
"TBC",,,,,,,,,
"TBC","La Honda",,,,,,,,"7"
"TBC",,"Santa Clara",,,,"742-31-012",,,
"TBC",,,,,,,,,
"TBC","San Jose","Santa Clara",,,,,,,"1081"
"TBC","San Jose","Santa Clara",,,,,,,"3460"
"TBC","Gilroy",,,,,,,,"1400"
"TBC",,"Santa Clara",,,,,,,"11300"
"TBC","Saratoga","Santa Clara",,,,,,,"14134"
"TBC",,,,,,,,,
"TBC","Woodside",,,,,,,,
"TBC",,,,,,,,,
"TBC",,,,,,,,,
"TBC","Los Gatos","Santa Clara",,,,,,,"19560"
"TBC","Modesto","Stanislaus",,,,,,,
"TBC","San Jose","Santa Clara",,,,,,,"6042"
"TBC","Morgan Hill","Santa Clara",,,,,,,"15175"
"TBC","Santa Cruz Mountains",,,,,,,,
"TBC","Milpitas","Santa Clara",,,,,,,"2671"
"TBC","La Honda","San Mateo",,,,,,,"10591"
"TBC",,,,,,,,,
"TBC","Monte Sereno",,,,,,,,
"TBC",,,,,,,,,
"TBC","Hillsborough",,,,,,,,"610"
"TBC","Daley City",,,,,"002-234-010",,,
"TBC","Upper Oak Flat","Santa Cruz",,,,,,,
"TBC","Unincorporated","Santa Clara",,,,,,,
"TBC","Aptos","Santa Cruz",,,,,,,"131"
"TBC","Sunnyvale","Santa Clara",,,,,,,"1095"
"TBC","Felton","Santa Cruz",,,,,,,
"TBC","San Jose",,,,,,,,
"TBC","Los Trancos Woods",,,,,,,,
"TBC",,,,,,,,,
"TBC","San Jose","Santa Clara",,,,,,,"7056"
"TBC","Redwood City","San Mateo",,,,,,,"1148"
"TBC","San Carlos",,,,,,,,"4"
"TBC","Los Gatos",,,,,,,,"Skyview Te"
"TBC","San Jose","Santa Clara",,,,,,,"15658"
"TBC","Montara","San Mateo","30","D","1",,,,"184"
"TBC","Los Altos Hills","Santa Clara","51","C","6",,,,"12180"
"TBC","Menlo Park","San Mateo",,,,,,,"9"
"TBC","San Jose","Santa Clara",,,,,,,
"TBC",,"San Mateo",,,,,,,
"TBC",,,,,,,,,
"TBC","Santa Cruz",,,,,,,,"1832"
"TBC","San Jose","Santa Clara",,,,,,,"1284"
"TBC",,"Santa Clara",,,,,,,"2418"
"TBC","San Carlos","San Mateo",,,,,,,"1"
"TBC",,,,,,,,,
"TBC","Santa Clara","Santa Clara",,,,,,,"2146"
"TBC","Los Gatos","Santa Clara",,,,,,,"17230"
"TBC","Woodside","San Mateo","42","C","4",,,,"560"
"TBC",,,,,,,,,
"TBC",,,,,,,,,
"TBC","Oakland","Alameda",,,,,,,"4165"
"TBC",,"Santa Clara",,,,,,,"18330"
"TBC",,"Santa Clara",,,,,,,"10161"
"TBC","Los Altos",,,,,,,,"28221"
"TBC","Los Gatos",,,,,,,,
"TBC","Los Gatos","Santa Clara",,,,,,,"261"
"TBC","Portola Valley","San Mateo","46","F","6",,,,"5030"
"TBC","Redwood Estates","Santa Clara",,,,,,,"18054"
"TBC","Los Altos Hills",,,,,,,,
"TBC",,,,,,,,,
"TBC",,,,,,,,,
"TBC","Los Gatos",,,,,,,,"20471"
"TBC",,,,,,,,,
"TBC","Cupertino","Santa Clara",,,,,,,"11244"
"TBC","San Jose","Santa Clara",,,,,,,"643"
"TBC","Watsonville","CA",,,,,,,"201"
"TBC","Half Moon Bay","San Mateo","39","F","2",,,,"417"
"TBC","San Carlos",,,,,,,,
"TBC","Portola Valley","San Mateo","46","E","2",,,,"2"
"TBC","Redwood Estates",,,,,,,,
"TBC",,,,,,,,,
"TBC","Santa Cruz",,,,,,,,"262"
"TBC","San Jose","Santa Clara",,,,,,,"1567"
"TBC",,"Santa Cruz",,,,"099-11-01 and 06",,,
"TBC","Diablo",,,,,,,,"44"
"TBC","Los Gatos","Santa Clara",,,,,,,"57"
"TBC",,"Santa Cruz",,,,,,,"201"
"TBC","Portola Valley","San Mateo","47","B","5",,,,"4680"
"TBC","Los Altos Hills","Santa Clara","50","F","4",,,,"13430"
"TBC","Palo Alto",,,,,,,,
"TBC","Pacifica",,,,,,,,
"TBC","Hillsborough",,,,,,,,"1530"
"TBC",,"Monterey",,,,,,,"1205"
"TBC",,,,,,,,,
"TBC","Los Gatos","Santa Clara",,,,,,,"56"
"TBC","Fremont","Alameda",,,,,,,"48431"
"TBC","Woodside","San Mateo County",,,,,,,"580"
"TBC","Saratoga","Santa Clara","64","E","2",,,,"12106"
"TBC","Danville",,,,,,,,
"TBC","Portola Valley",,,,,,,,
"TBC",,,,,,,,,
"TBC","Monte Sereno","Santa Clara",,,,,,,"16290"
"TBC","Watsonville","Santa Cruz",,,,,,,"95"
"TBC","Los Altos","Santa Clara",,,,,,,"385"
"TBC","Los Gatos","Santa Clara",,,,,,,"193"
"TBC","Santa Clara County",,,,,,,,
"TBC","San Jose","Santa Clara County",,,,,,,
"TBC","Portola Valley",,"46","E","3",,,,
"TBC","Hillsborough",,,,,,,,
"TBC",,"Santa Clara",,,,,,,
"TBC",,,,,,,,,
"TBC",,"Santa Cruz",,,,"93-392-02",,,
"TBC",,"Santa Clara",,,,,,,"1144"
"TBC","La Honda","San Mateo",,,,,,,"526"
"TBC",,,,,,,,,
"TBC","Los Altos Hills",,,,,,,,"27820"
"TBC","Hayward","Alameda",,,,,,,
"TBC","Santa Cruz County","Santa Cruz County",,,,,,,
"TBC","Saratoga","Santa Clara County",,,,,,,
"TBC",,,,,,,,,
"TBC",,"Santa Clara",,,,,,,"15100"
"TBC",,,,,,,,,
"TBC","San Jose","Santa Clara",,,,,,,"5992"
"TBC","Boulder Creek",,,,,,,,"1"
"TBC",,,,,,,,,
"TBC","Saratoga","Santa Clara County",,,,,,,
"TBC","Woodside","San Mateo","42","E","1",,,,"155"
"TBC",,,,,,,,,
"TBC","Daly City",,,,,,,,"98"
"TBC","San Jose",,,,,,,,
"TBC",,"Santa Clara",,,,,,,"17863"
"TBC","Sunnyvale","Santa Clara",,,,,,,"1259"
"TBC",,"Santa Cruz",,,,,,,"24600"
"TBC","Los Gatos","Santa Clara",,,,,,,"Zayant"
"TBC","Santa Cruz County","Santa Cruz County",,,,,,,
"TBC",,,,,,,,,
"TBC",,,,,,,,,
"TBC","Los Gatos","Santa Cruz",,,,,,,"26861"
"TBC","San Jose","Santa Clara",,,,,,,"2809"
"TBC","Los Gatos","Santa Clara",,,,,,,"152"
"TBC","Ben Lomond","Santa Cruz",,,,,,,"240"
"TBC","Cupertino","Santa Clara",,,,,,,"22273"
"TBC",,,,,,,,,
"TBC","Los Gatos",,,,,,,,"88"
"TBC","Fremont","Santa Clara",,,,,,,"48950"
"TBC","San Jose","Santa Clara",,,,,,,"1261"
"TBC","San Jose","Santa Clara",,,,,,,"2786"
"TBC",,,,,,,,,
"TBC","Cupertino","Santa Clara",,,,,,,"11650"
"TBC","San Jose","Santa Clara","72","F","5",,,,"7496"
"TBC","Hillsborough",,,,,,,,
"TBC",,,,,,,,,
"TBC",,,,,,,,,
"TBC",,"Santa Cruz",,,,"082-241-74",,,
"TBC",,"Santa Clara",,,,"503-44-005",,,
"TBC",,"Santa Cruz",,,,"072-181-02",,,"316"
"TBC","La Honda",,,,,,,,"145"
"TBC","Portola Valley","CA",,,,,,,"5"
"TBC","San Jose","Santa Clara",,,,,,,"1430"
"TBC",,"Santa Clara",,,,,,,
"TBC",,,,,,,,,
"TBC","Scotts Valley",,,,,,,,
"TBC","Los Altos Hills",,,,,,,,
"TBC",,"Santa Clara",,,,"708-47-31",,,"22635"
"TBC","Menlo Park",,,,,,,,"15"
"TBC","San Jose","CA",,,,,,,"1836"
"TBC","Woodside","San Mateo","42","E","5",,,,"1"
"TBC","Woodside",,,,,,,,
"TBC",,,,,,,,,
"TBC","Redwood City","San Mateo",,,,,,,"20"
"TBC","San Jose","Santa Clara",,,,,,,"5623"
"TBC","San Jose","Santa Clara",,,,,,,"2311"
"TBC",,,,,,,,,
"TBC","San Jose","Santa Clara",,,,,,,"1836"
"TBC","Woodside",,,,,,,,
"TBC","Atherton",,,,,,,,
"TBC",,,,,,,,,
"TBC","Saratoga","Santa Clara",,,,,,,
"TBC",,,,,,,,,
"TBC","Los Altos Hills",,,,,,,,"Lot 3"
"TBC","Portola Valley",,,,,,,,"10"
"TBC","Los Altos Hills",,,,,,,,"22548"
"TBC","Paloma Park","San Mateo",,,,,,,
"TBC","Los Gatos","Santa Clara",,,,,,,"23489"
"TBC","San Jose","Santa Clara",,,,,,,"1836"
"TBC","Woodside",,,,,,,,
"TBC","Atherton",,,,,,,,
"TBC","Los Altos Hills",,,,,,,,
"TBC",,,,,,,,,
"TBC","San Jose",,,,,,,,"945"
"TBC","Redwood City",,,,,,,,"1587"
"TBC",,,,,,,,,
"TBC","Orinda","Contra Costa",,,,,,,"7"
"TBC",,,,,,,,,
"TBC","Los Altos Hills","Santa Clara",,,,,,,"26776"
"TBC","Los Altos","Santa Clara","52","B","4",,,,"434"
"TBC","Woodside",,,,,,,,
"TBC","Los Altos Hills",,,,,,,,
"TBC",,,,,,,,,
"TBC","Palo Alto",,,,,,,,"3885"
"TBC","San Jose","Santa Clara",,,,,,,"4925"
"TBC","Cupertino","Santa Clara",,,,"342-18-25",,,"22646"
"TBC","Morgan Hill","Santa Clara",,,,,,,
"TBC","Pacifica","San Mateo",,,,,,,"211"
"TBC","San Anselmo","Santa Clara",,,,,,,"183"
"TBC","San Mateo County","San Mateo County",,,,,,,
"TBC","Los Trancos Woods",,,,,,,,
"TBC",,,,,,,,,
"TBC",,,,,,,,,
"TBC","San Jose",,,,,,,,"979"
"TBC",,,,,,,,,
"TBC",,,,,,,,,
"TBC","Woodside",,,,,"069-032-060",,,"240"
"TBC",,,,,,,,,
"TBC","Los Gatos","Santa Clara",,,,"537-11-033",,,"West of"
"TBC","Portola Valley","San Mateo",,,,,,,"290"
"TBC",,"Santa Cruz",,,,,,,"574"
"TBC","Portola Valley",,,,,,,,"118"
"TBC",,,,,,,,,
"TBC",,,,,,"000-000-000",,,
"TBC","San Jose","Santa Clara",,,,,,,"1743"
"TBC","Atherton",,,,,,,,"357"
"TBC","Morgan Hill",,,,,,,,"3420"
"TBC","Los Gatos","Santa Clara",,,,,,,"17650"
"TBC","Portola Valley","San Mateo",,,,,,,"16"
"TBC",,"Santa Cruz","27","69","39",,,,
"TBC","Woodside","San Mateo","42","B","3",,,,"400"
"TBC","Saratoga","Santa Clara",,,,,,,"21247"
"TBC",,,,,,,,,
"TBC","Oakland",,,,,,,,"4548"
"TBC",,,,,,,,,
"TBC","Carmel",,,,,,,,"24936"
"TBC","Lafayette","Contra Costa",,,,,,,"3375"
"TBC",,,,,,,,,
"TBC","East San Jose",,,,,,,,
"TBC",,,,,,,,,
"TBC",,"Santa Cruz",,,,,,,"10206"
"TBC",,,,,,,,,
"TBC","Napa",,,,,,,,"3385"
"TBC","Los Gatos","Santa Clara",,,,,,,"1865"
"TBC","Woodside",,,,,,,,
"TBC","E. San Jose","Santa Clara","56","B","2",,,,
"TBC","San Jose",,,,,,,,
"TBC","Saratoga","Santa Clara",,,,,,,"19836"
"TBC","Woodside","San Mateo",,,,,,,"336"
"TBC","Saratoga","Santa Clara",,,,,,,"14494"
"TBC","Redwood City",,,,,,,,"171"
"TBC","San Jose","Santa Clara",,,,"595-22-030",,,"1623"
"TBC","Los Gatos","Santa Clara","65","D","6",,,,"205"
"TBC","Castro Valley",,,,,,,,
"TBC","Saratoga",,,,,,,,
"TBC",,,,,,,,,
"TBC",,,,,,,,,
"TBC",,"Santa Clara",,,,"742-04-021",,,
"TBC",,"Santa Cruz",,,,,,,"23644"
"TBC","San Jose","Santa Clara",,,,,,,"3628"
"TBC","Los Gatos","Santa Clara",,,,,,,"104"
"TBC","Los Altos Hills","Santa Clara","51",,,,"D5",,"Dianne"
"TBC","San Carlos",,,,,,,,
"TBC","Belmont",,,,,,,,"1711"
"TBC","Redwood City",,,,,,,,
"TBC","Los Altos Hills",,,,,,,,
"TBC",,,,,,,,,
"TBC","Saratoga","Santa Clara",,,,,,,"14672"
"TBC",,,,,,,,,
"TBC","Redwood City",,,,,,,,
"TBC","Los Gatos","Santa Clara",,,,"096-011-32",,,"450"
"TBC","Portola Valley","San Mateo",,,,,,,"147"
"TBC","Los Altos Hills","Santa Clara","51","D","5",,,,"12675"
"TBC",,,,,,,,,
"TBC","Los Gatos",,,,,"093-291-33",,,"620"
"TBC","Airport Road","Santa Clara",,,,,,,
"TBC","San Mateo","San Mateo",,,,,,,"1111"
"TBC","San Jose","Santa Clara",,,,,,,"20001"
"TBC","Saratoga","Santa Clara",,,,,,,"21142"
"TBC",,,,,,,,,
"TBC","Redwood City",,,,,,,,
"TBC","Saratoga",,,,,,,,
"TBC",,"Santa Clara",,,,,,,
"TBC",,,,,,,,,
"TBC","San Jose","Santa Clara",,,,,,,"10751"
"TBC","Daly City",,,,,,,,"88"
"TBC","Aptos","Santa Cruz",,,,,,,"605"
"TBC",,,,,,,,,
"TBC","San Jose","Santa Clara",,,,,,,"3823"
"TBC",,,,,,,,,
"TBC","Los Gatos",,,,,,,,
"TBC",,,,,,,,,
"TBC","San Jose","Santa Clara",,,,,,,
"TBC","Los Gatos","Santa Clara",,,,,,,"121"
"TBC","San Jose","Santa Clara",,,,,,,"1089"
"TBC","San Jose","Santa Clara",,,,,,,"5668"
"TBC","Morgan Hill","Santa Clara",,,,"764-07-006",,,"1978"
"TBC","San Jose","Santa Clara",,,,,,,"6646"
"TBC",,,,,,,,,
"TBC","Los Gatos",,,,,,,,"21"
"TBC","Cupertino",,,,,,,,
"TBC","Unincorporated","Santa Cruz",,,,,,,"26755"
"TBC","Cupertino",,,,,,,,
"TBC","Burlingame","San Mateo",,,,,,,"1009"
"TBC","Woodside","San Mateo County","41",,,,"F6",,"Skylin"
"TBC","Santa Clara County","Santa Clara County",,,,,,,
"TBC",,,,,,,,,
"TBC",,"Santa Clara",,,,,,,"24168"
"TBC","Portola Valley",,,,,,,,"500"
"TBC","Los Altos Hills","San Mateo",,,,,,,"12376"
"TBC",,"Santa Cruz",,,,,,,"24900"
"TBC","Portola Valley","San Mateo",,,,,,,"271"
"TBC","Burlingame","San Mateo",,,,,,,"3088"
"TBC",,,,,,,,,
"TBC","Saratoga","Santa Clara",,,,,,,
"TBC",,"Santa Clara",,,,,,,
"TBC",,,,,,,,,
"TBC","Mountain View","Santa Clara",,,,,,,"1615"
"TBC","Cupertino","Santa Clara",,,,,,,"11450"
"TBC","Castro Valley",,,,,,,,"34580"
"TBC","Menlo Park","San Mateo",,,,,,,"1360"
"TBC","Los Altos","Santa Clara",,,,,,,"11335"
"TBC","San Jose","Santa Clara",,,,,,,"1368"
"TBC","San Jose","Santa Clara",,,,,,,"1264"
"TBC","Los Trancos Woods",,,,,,,,
"TBC",,,,,,,,,
"TBC","Los Gatos",,,,,,,,"200"
"TBC","San Jose","Santa Clara",,,,,,,"3633"
"TBC","Saratoga","Santa Clara",,,,,,,"22217"
"TBC",,,,,,,,,
"TBC","Fremont","Alameda",,,,"507-0124-021-2",,,
"TBC","Piedmont","Almeda",,,,,,,"28"
"TBC","Los Altos Hills","Santa Clara",,,,,,,
"TBC","Portola Valley","San Mateo","47","C","2",,,,"385"
"TBC",,"San Mateo",,,,,,,
"TBC",,,,,,,,,
"TBC","Los Gatos","Santa Clara",,,,,,,"17629"
"TBC",,,,,,,,,
"TBC",,,,,,,,,
"TBC","Cupertino","Santa Clara",,,,,,,"22821"
"TBC","San Jose","Santa Clara",,,,"742-04-014",,,
"TBC","Menlo Park","San Mateo",,,,,,,"1020"
"TBC","Saratoga","Santa Clara","69","F","2",,,,"20770"
"TBC",,,,,,,,,
"TBC","Woodside",,,,,,,,
"TBC",,,,,,,,,
"TBC","San Jose","Santa Clara",,,,,,,
"TBC","San Carlos",,,,,,,,"722"
"TBC",,,,,,,,,
"TBC","Portola Valley",,,,,,,,"365"
"TBC","San Jose","Santa Clara",,,,,,,"4090"
"TBC","Unincorporated","Santa Clara",,,,"742-02-021",,,
"TBC","Portola Valley",,,,,,,,
"TBC","San Jose","Santa Clara","56","F","5",,,,"3030"
"TBC","Los Altos","Santa Clara","58","F","1",,,,
"TBC","Saratoga","Santa Clara",,,,,,,
"TBC","San Jose",,,,,,,,
"TBC",,,,,,,,,
"TBC",,"Santa Clara",,,,,,,
"TBC",,"Santa Clara",,,,"510-28-005",,,
"TBC","La Honda",,,,,,,,"265"
"TBC","Monte Sereno","Santa Clara",,,,,,,
"TBC","Los Gatos","Santa Clara",,,,"558-15-044",,,"17735"
"TBC","Skylonda","San Mateo","46","C","3","075-321-200",,,"400"
"TBC","Woodside",,,,,,,,
"TBC","Atherton","San Mateo",,,,,,,"55"
"TBC",,,,,,,,,
"TBC","San Jose",,,,,,,,
"TBC",,,,,,,,,
"TBC","Campbell","Santa Clara",,,,,,,
"TBC","Los Gatos","Santa Clara",,,,,,,"211"
"TBC",,,,,,,,,
"TBC","Patterson",,,,,,,,"1411"
"TBC","Unincorporated","Santa Clara",,,,,,,"3786"
"TBC","Belmont","San Mateo",,,,,,,
"TBC","Skylonda","San Mateo County",,,,,,,
"TBC",,"Santa Clara",,,,"558-250-9",,,
"TBC","Atherton",,,,,,,,
"TBC","Palo Alto",,,,,,,,
"TBC",,,,,,,,,
"TBC",,,,,,,,,
"TBC","Woodside",,,,,,,,"815"
"TBC","Emerald Hills",,,,,,,,
"TBC","San Jose","Santa Clara",,,,,,,
"TBC","San Jose","Santa Clara",,,,,,,"10258"
"TBC","Skylonda","San Mateo","46","C","3",,,,"400"
"TBC","Saratoga",,,,,,,,
"TBC","Saratoga","Santa Clara",,,,,,,"13730"
"TBC","Woodside","San Mateo",,,,,,,"25"
"TBC","San Jose",,,,,,,,"16174"
"TBC",,"San Mateo",,,,,,,
"TBC","Los Gatos","Santa Clara",,,,,,,"18508"
"TBC","San Jose","Santa Clara",,,,,,,
"TBC",,"San Mateo","51",,,"080-170-070",,,
"TBC",,,,,,,,,
"TBC","Portola Valley","San Mateo",,,,,,,"75"
"TBC","San Carlos",,,,,,,,"184"
"TBC",,"Santa Clara",,,,,,,"15940"
"TBC","Santa Clara","Santa Clara",,,,,,,"333"
"TBC","Los Gatos","Santa Clara",,,,"532-19-023",,,"16330"
"TBC","Saratoga","Santa Clara","64","F","6",,,,"14473"
"TBC","Sherman Oaks",,,,,,,,
"TBC",,,,,,,,,
"TBC","Mountain View",,,,,,,,"905"
"TBC","Redwood City",,,,,,,,"561"
"TBC",,"Santa Clara",,,,,,,"21095"
"TBC","Los Gatos","Santa Clara",,,,,,,"21964"
"TBC","Los Altos","Santa Clara",,,,,,,"496"
"TBC","San Jose","Santa Clara",,,,,,,"4866"
"TBC",,,,,,,,,
"TBC",,,,,,,,,
"TBC","San Jose","Santa Clara",,,,,,,"6758"
"TBC","Los Gatos","Santa Clara",,,,,,,"19403"
"TBC","Ben Lomond",,,,,,,,"145"
"TBC","Los Altos",,,,,,,,"25960"
"TBC","Saratoga","Santa Clara",,,,,,,"12441"
"TBC","San Jose","Santa Clara","61","F","6",,,,"946"
"TBC","Woodside",,,,,,,,
"TBC",,,,,,,,,
"TBC","Los Gatos",,,,,,,,
"TBC",,,,,,,,,
"TBC",,"Santa Clara",,,,,,,"11351"
"TBC",,,,,,,,,
"TBC","Los Altos Hills",,,,,,,,"24065"
"TBC","San Jose","Santa Clara",,,,,,,"317"
"TBC","Aptos","Santa Cruz",,,,,,,"4460"
"TBC","Woodside",,,,,,,,"285"
"TBC","Woodside",,,,,,,,
"TBC","Eureka",,,,,,,,
"TBC",,,,,,,,,
"TBC","San Jose","Santa Clara",,,,,,,"11021"
"TBC","Saratoga","Santa Clara",,,,,,,"20095"
"TBC","San Jose","Santa Clara",,,,,,,"850"
"TBC","Los Gatos","Santa Clara",,,,,,,"15815"
"TBC","San Jose","Santa Clara",,,,"68-93-71-08",,,"6261"
"TBC",,,,,,,,,
"TBC",,,,,,,,,
"TBC",,"San Mateo",,,,,,,
"TBC",,,,,,,,,
"TBC","Los Gatos",,,,,,,,"16420"
"TBC",,"Santa Cruz",,,,"072-221-10",,,
"TBC","Woodside",,,,,,,,"3875"
"TBC","Saratoga","Santa Clara",,,,,,,"21518"
"TBC","San Martin","Santa Clara",,,,"825-20-056",,,"14005"
"TBC","Santa Clara County","Santa Clara County",,,,,,,
"TBC",,,,,,,,,
"TBC","San Carlos",,,,,,,,"300"
"TBC","Monte Sereno",,,,,,,,"18571"
"TBC","Morgan Hill","Santa Clara",,,,,,,"3235"
"TBC","San Jose","Santa Clara",,,,,,,"3570"
"TBC","Santa Clara County","Santa Clara County",,,,,,,
"TBC","Scotts Valley",,,,,,,,"695"
"TBC","Portola Valley","San Mateo","809","J","5","076-203-060",,,"16 & 42"
"TBC",,"Santa Cruz",,,,"096-311-38",,,"23541"
"TBC","Unincorporated","Santa Cruz",,,,,,,
"TBC","San Jose","Santa Clara",,,,,,,"681"
"TBC","Cupertino","Santa Clara",,,,,,,"10645"
"TBC","Los Altos Hills","Santa Clara",,,,,,,"11611"
"TBC",,,,,,,,,
"TBC","Portola Valley","San Mateo","809","H","5","076-203-060",,,"16 & 42"
"TBC",,,,,,,,,
"TBC","Saratoga",,,,,,,,
"TBC",,"Santa Clara",,,,,,,
"TBC","Los Altos","Santa Clara",,,,"510-23-009",,,"16110"
"TBC",,,,,,,,,
"TBC","Los Altos Hills",,,,,,,,"27673"
"TBC","Saratoga","Santa Clara",,,,,,,"21771"
"TBC","Montara",,,,,,,,
"TBC","Morgan Hill","Santa Clara",,,,,,,"14830"
"TBC","Los Altos","CA",,,,,,,"19450"
"TBC","Duncan Mills",,,,,,,,
"TBC","Monte Sereno",,,,,,,,
"TBC",,,,,,,,,
"TBC",,,,,,,,,
"TBC","Saratoga","Santa Clara",,,,,,,"21771"
"TBC","Unincorporated","Santa Clara",,,,,,,"17941"
"TBC",,,,,,,,,
"TBC","San Jose","Santa Clara",,,,"612-08-054",,,"10400"
"TBC","E. San Jose",,,,,,,,
"TBC","Saratoga","Santa Clara","64","C","4",,,,"21451"
"TBC",,,,,,,,,
"TBC","Los Altos Hills","Santa Clara","51","A","4",,,,"27525"
"TBC",,,,,,,,,
"TBC","San Jose","Santa Clara",,,,,,,"396"
"TBC","San Carlos",,,,,,,,"98"
"TBC",,,,,,,,,
"TBC","Morgan Hill","Santa Clara",,,,,,,"3160"
"TBC","Cupertino","Santa Clara",,,,,,,"22891"
"TBC","Los Altos Hills","Santa Clara","50","F","1",,,,
"TBC","Saratoga",,,,,,,,
"TBC","Santa Cruz",,,,,,,,
"TBC","Santa Clara","Santa Clara",,,,,,,
"TBC","Portola Valley","San Mateo",,,,,,,
"TBC","San Carlos","San Mateo",,,,,,,"270"
"TBC","Los Altos Hills",,,,,,,,"12105"
"TBC","Saratoga","Santa Clara",,,,,,,"15139"
"TBC",,,,,,,,,
"TBC","Los Altos Hills","Santa Clara",,,,,,,"26970"
"TBC","Santa Clara County","Santa Clara","51","E","6",,,,"11070"
"TBC",,,,,,,,,
"TBC","Los Trancos Woods",,,,,,,,
"TBC","Portola Valley",,,,,,,,"430"
"TBC","Portola Valley","San Mateo",,,,,,,"1320"
"TBC","Palo Alto",,,,,"182-54-008",,,"3210"
"TBC","Portola Valley",,,,,,,,"1285"
"TBC","Los Gatos","Santa Clara",,,,,,,"16266"
"TBC","Los Gatos","Santa Clara",,,,,,,"14300"
"TBC","Los Altos Hills","Santa Clara","51","D","4",,,,"13151"
"TBC","Saratoga","Santa Clara",,,,"397-035-017",,,"19353"
"TBC","Los Trancos Woods",,,,,,,,
"TBC",,,,,,,,,
"TBC",,,,,,,,,
"TBC","San Jose","Santa Clara",,,,,,,"271"
"TBC","Palo Alto",,,,,,,,"51"
"TBC","Saratoga","Santa Clara",,,,,,,"13485"
"TBC","Daly City",,,,,,,,"567"
"TBC","Los Gatos","Santa Clara",,,,,,,"15887"
"TBC","Boulder Creek",,,,,,,,
"TBC",,,,,,,,,
"TBC","San Jose","Santa Clara",,,,,,,"10080"
"TBC",,,,,,,,,
"TBC","Los Altos",,,,,,,,"1859"
"TBC","Los Gatos","Santa Clara",,,,,,,"248"
"TBC","San Jose","Santa Clara",,,,,,,"880"
"TBC","La Honda","San Mateo","46","D","4","078-130-160",,,"18200"
"TBC",,,,,,,,,
"TBC",,,,,,,,,
"TBC","Los Altos Hills",,,,,,,,"737"
"TBC","Saratoga","Santa Clara",,,,,,,"15555"
"TBC","Los Altos Hills",,,,,,,,"27269"
"TBC","Portola Valley",,,,,,,,"3"
"TBC","San Jose","Santa Clara",,,,"660-43-001",,,"3543"
"TBC","Skyline Boulevard","Santa Clara",,,,,,,
"TBC",,"Santa Clara","73","D","5",,,,"20075"
"TBC","San Jose","Santa Clara",,,,,,,"3884"
"TBC","Oakland",,,,,,,,
"TBC",,,,,,,,,
"TBC","Clayton","Contra Costa",,,,,,,"3011"
"TBC",,,,,,,,,
"TBC","Oakland","Alameda",,,,,,,"2900"
"TBC","San Jose","Santa Clara",,,,,,,"6082"
"TBC","Saratoga","Santa Clara",,,,,,,"13740"
"TBC",,"Santa Clara","58","E","1","331-002-029",,,
"TBC","San Jose","Santa Clara","63","D","1",,,,"2316"
"TBC",,,,,,,,,
"TBC",,,,,,,,,
"TBC","Santa Clara",,,,,,,,
"TBC",,,,,,,,,
"TBC","Clayton",,,,,,,,
"TBC","Duncan Mills",,,,,,,,"25509"
"TBC",,,,,,,,,
"TBC",,,,,,,,,
"TBC","Los Gatos","Santa Clara",,,,"529-20-055",,,
"TBC",,"Santa Clara","58","E","2",,,,
"TBC","Menlo Park","San Mateo","43","B","3",,,,"995"
"TBC","Portola Valley","San Mateo","46","F","3",,,,"885"
"TBC",,,,,,,,,
"TBC","San Jose",,,,,,,,
"TBC",,"San Mateo",,,,,,,
"TBC","Clayton",,,,,,,,
"TBC","San Mateo","San Mateo",,,,,,,"1753"
"TBC","Watsonville","Santa Cruz",,,,,,,"134"
"TBC","Saratoga","Santa Clara",,,,,,,"21329"
"TBC","San Jose","Santa Clara",,,,,,,"3450"
"TBC","Saratoga",,,,,,,,
"TBC","Watsonville",,,,,,,,
"TBC",,,,,,,,,
"TBC","Los Gatos","Santa Clara",,,,,,,"26765"
"TBC","San Jose","Santa Clara",,,,,,,"2463"
"TBC",,,,,,,,,"550"
"TBC",,,,,,,,,
"TBC","Los Altos","Santa Clara",,,,,,,"385"
"TBC","Palomar Park","San Mateo","36",,,,"B3",,"Paloma"
"TBC","Saratoga","Santa Clara",,,,,,,
"TBC","San Jose",,,,,,,,
"TBC",,,,,,,,,
"TBC",,,,,,,,,
"TBC",,,,,,,,,
"TBC","San Francisco","San Francisco",,,,,,,"90"
"TBC","Unincorporated","Santa Clara",,,,,,,
"TBC",,"Santa Clara",,,,,,,"14900"
"TBC","Woodside","San Mateo",,,,,,,"560"
"TBC","El Granada","San Mateo","30A","B","5",,,,"462"
"TBC",,"San Mateo","41","C","1","067-022-020",,,"207"
"TBC",,,,,,,,,
"TBC","Atherton","San Mateo","43","A","2",,,,"82"
"TBC","San Jose",,,,,,,,
"TBC",,,,,,,,,
"TBC","Unincorporated","San Mateo",,,,,,,"500"
"TBC","Unincorporated","Placer",,,,,,,
"TBC","Los Gatos","Santa Clara",,,,,,,"18086"
"TBC","Los Altos Hills",,,,,,,,"23670"
"TBC","Saratoga","Santa Clara",,,,,,,"21348"
"TBC","Portola Valley","San Mateo",,,,,,,"140"
"TBC","Los Altos Hills","Santa Clara","58","E","2",,,,
"TBC","Santa Cruz","Santa Cruz",,,,,,,
"TBC","Los Altos Hills","Santa Clara","51","F","6",,,,"1579"
"TBC","San Jose","Santa Clara","71","F","4",,,,"6076"
"TBC","San Jose","Santa Clara",,,,,,,"10671"
"TBC",,,,,,,,,
"TBC",,,,,,,,,
"TBC",,,,,,,,,
"TBC",,,,,,,,,"213"
"TBC",,,,,,,,,
"TBC","San Jose","Santa Clara",,,,,,,"5502"
"TBC",,,,,,,,,
"TBC","Monte Sereno","Santa Clara",,,,,,,"15548"
"TBC","San Jose","Santa Clara",,,,,,,"8709"
"TBC","Scotts Valley",,,,,,,,
"TBC","Redwood Estates","Santa Clara",,,,,,,"17935"
"TBC",,,,,,,,,
"TBC","Cupertino","Santa Clara",,,,,,,
"TBC",,,,,,,,,
"TBC","Los Altos",,,,,,,,"1475"
"TBC",,"Santa Cruz",,,,,,,"21225"
"TBC",,"San Benito",,,,,,,"1960"
"TBC",,,,,,,,,
"TBC","San Jose","Santa Clara",,,,"595-33-005",,,"4105"
"TBC",,"San Mateo","55","D","4",,,,"223"
"TBC","Mountain View",,,,,,,,
"TBC",,,,,,,,,
"TBC",,,,,,,,,
"TBC",,,,,,,,,
"TBC",,,,,,,,,
"TBC","Unincorporated","San Mateo",,,,,,,"184"
"TBC","Gualala","Mendocino",,,,,,,"33601"
"TBC",,,,,,,,,
"TBC","San Jose","Santa Clara",,,,,,,"1168"
"TBC","Santa Cruz","Santa Clara",,,,,,,"234"
"TBC","San Jose","Santa Clara",,,,,,,"1082"
"TBC","Mountain View",,,,,,,,
"TBC","Woodside","San Mateo",,,,,,,"905"
"TBC","Los Gatos",,,,,,,,
"TBC","Boulder Creek",,,,,,,,
"TBC","San Jose",,,,,,,,
"TBC",,,,,,,,,
"TBC",,"Santa Clara",,,,,,,"19190"
"TBC","Woodside",,,,,,,,"155"
"TBC","Los Gatos","Santa Clara",,,,,,,"105"
"TBC","Fremont","Alameda",,,,,,,
"TBC","San Jose","Santa Clara",,,,"429 45 036/037",,,"1726"
"TBC","Saratoga","Santa Clara",,,,,,,"20076"
"TBC","San Jose","Santa Clara",,,,"595-26-044",,,
"TBC","Cupertino","Santa Clara",,,,,,,
"TBC","San Jose",,,,,,,,
"TBC",,,,,,,,,
"TBC","Woodside",,,,,,,,"155"
"TBC",,,,,,,,,
"TBC","Fremont","Alameda",,,,,,,
"TBC","Palo Alto","Santa Clara",,,,,,,
"TBC",,"Santa Clara",,,,,,,
"TBC","Los Gatos","Santa Clara",,,,,,,"231"
"TBC","Los Altos Hills",,,,,,,,
"TBC",,,,,,,,,
"TBC","Cupertino",,,,,,,,
"TBC",,,,,,,,,
"TBC","San Jose","Santa Clara",,,,,,,"4134"
"TBC","Fremont","Alameda",,,,,,,
"TBC","San Jose","Santa Clara",,,,,,,"6979"
"TBC","Portola Valley",,,,,,,,"121"
"TBC","San Jose","Santa Clara",,,,,,,"10625"
"TBC","Los Altos",,,,,,,,
"TBC","Los Altos Hills",,,,,,,,
"TBC","San Jose","Santa Clara","67","B","5",,,,"1171"
"TBC",,"Santa Cruz",,,,,,,"26774"
"TBC","San Jose","Santa Clara",,,,,,,"3111"
"TBC","Los Gatos","Santa Clara",,,,,,,"16040"
"TBC",,"Santa Clara",,,,,,,"19521"
"TBC","Fremont","Alameda",,,,,,,"4396"
"TBC","Los Gatos Hills","Santa Clara",,,,,,,
"TBC","Palo Alto","San Mateo",,,,,,,"100"
"TBC",,,,,,,,,
"TBC",,,,,,,,,
"TBC","Portola Valley",,,,,,,,"8"
"TBC",,,,,,,,,
"TBC",,"San Mateo",,,,"77,132,030",,,"271"
"TBC","San Jose","Santa Clara",,,,"277-19-002",,,"490"
"TBC","San Jose","Santa Clara",,,,,,,"1655"
"TBC",,,,,,,,,
"TBC","pebble beach",,,,,,,,
"TBC",,,,,,,,,
"TBC",,"Santa Clara",,,,,,,"12330"
"TBC","Unincorporated","San Mateo",,,,"080-040-080",,,
"TBC","Boulder Creek","Santa Cruz",,,,,,,"15965"
"TBC",,"Santa Cruz",,,,"106 01 044",,,"29360"
"TBC","Woodside",,,,,,,,"700"
"TBC","San Jose","Santa Clara",,,,,,,"210"
"TBC","Woodside","San Mateo",,,,,,,
"TBC","Los Gatos","Santa Clara",,,,,,,
"TBC",,,,,,,,,
"TBC","Morgan Hill","Santa Clara",,,,,,,"15825"
"TBC",,,,,,,,,
"TBC","Morgan Hill",,,,,,,,"1566"
"TBC",,,,,,,,,
"TBC","Los Gatos","Santa Clara",,,,,,,"16250"
"TBC","Santa Clara","Santa Clara",,,,,,,"990A"
"TBC","Woodside","San Mateo","36","B","6",,,,"415"
"TBC","Watsonville","Santa Clara",,,,,,,
"TBC",,,,,,,,,
"TBC","Cupertino","Santa Clara",,,,,,,"10479"
"TBC",,,,,,,,,
"TBC",,"San Mateo",,,,,,,"345"
"TBC","Los Gatos","Santa Clara",,,,,,,"250"
"TBC",,,,,,,,,
"TBC",,,,,,,,,
"TBC","Berkeley","Alameda","4","C","2",,,,
"TBC",,,,,,,,,
"TBC",,,,,,,,,
"TBC","Unincorporated","Santa Clara",,,,,,,"11432"
"TBC",,,,,,,,,
"TBC",,"Santa Cruz",,,,,,,"1770"
"TBC","San Jose","Santa Clara",,,,,,,"7180"
"TBC","Los Gatos","Santa Clara",,,,,,,"14680"
"TBC",,,,,,,,,"12630"
"TBC",,"Santa Cruz",,,,,,,"Lot 16, Bl"
"TBC",,"Santa Cruz",,,,"088-211-029",,,
"TBC",,"Santa Clara",,,,,,,
"TBC",,,,,,,,,
"TBC","Unincorporated","Santa Clara",,,,,,,"14100"
"TBC","Los Altos",,,,,,,,"5886"
"TBC","Unincorporated","Santa Clara",,,,,,,"22561"
"TBC",,"Santa Clara",,,,"742 04 017",,,
"TBC","Sacramento",,,,,,,,
"TBC","San Jose","Santa Clara",,,,,,,"333"
"TBC",,,,,,,,,
"TBC",,,,,,,,,
"TBC","Scotts Valley","Santa Cruz","41","54","48",,,,"552"
"TBC","Chatsworth",,,,,,,,
"TBC",,,,,,,,,
"TBC","Santa Cruz",,,,,,,,"22111"
"TBC",,,,,,,,,
"TBC","Atherton",,,,,,,,"150"
"TBC","Unincorporated","Santa Cruz",,,,"101-101-01",,,"470"
"TBC","San Jose","Santa Clara",,,,,,,"4137"
"TBC","San Jose","Santa Clara",,,,,,,"16332"
"TBC","San Jose","Santa Clara",,,,"429-29-024",,,"1115"
"TBC","Morgan Hill",,,,,,,,
"TBC","Saratoga","Santa Clara",,,,,,,"20910"
"TBC",,,,,,,,,
"TBC","Castro Valley",,,,,,,,"6946"
"TBC","Campbell","Santa Clara",,,,,,,"1573"
"TBC","San Francisco","San Francisco",,,,,,,"599"
"TBC","Saratoga","Santa Clara",,,,,,,"13485"
"TBC","Portola Valley",,,,,,,,"921"
"TBC","Los Gatos","Santa Clara",,,,"510-38-017",,,"18620"
"TBC",,,,,,,,,
"TBC","Los Gatos","Santa Clara",,,,,,,"30"
"TBC","San Jose","Santa Clara",,,,,,,"14490"
"TBC","Los Altos",,,,,,,,"10500"
"TBC","Cupertino","Santa Clara",,,,,,,"Lot 307"
"TBC","Saratoga","Santa Clara",,,,,,,"21100"
"TBC","Los Gatos","Santa Clara",,,,"Teresita Way",,,"132"
"TBC","San Francisco","San Francisco",,,,,,,"Mariti"
"TBC","Scotts Valley","Santa Cruz",,,,,,,"405"
"TBC",,,,,,,,,
"TBC","Belmont",,,,,,,,
"TBC",,,,,,,,,
"TBC","Los Altos Hills",,,,,,,,"27089"
"TBC","Los Altos Hills",,,,,,,,"25550"
"TBC","Los Gatos","Santa Clara",,,,,,,"231"
"TBC","Saratoga","Santa Clara",,,,,,,"21127"
"TBC",,,,,,,,,
"TBC",,"Santa Clara",,,,,,,"2560"
"TBC","Monte Sereno","Santa Clara",,,,,,,"16370"
"TBC",,"Santa Cruz","27","68","34",,,,"23496"
"TBC","Saratoga",,,,,,,,
"TBC",,,,,,,,,
"TBC","Woodside",,,,,,,,"700"
"TBC",,,,,,,,,
"TBC","San Jose","Santa Clara",,,,,,,"1386"
"TBC","Woodside",,,,,,,,"490"
"TBC","Cupertino",,,,,,,,"Lot 307"
"TBC",,,,,,,,,
"TBC","Los Gatos","Santa Clara",,,,"529-37-033",,,"19"
"TBC","Kensington","Alameda","6","E","1",,,,
"TBC","Santa Cruz County",,,,,,,,
"TBC","Cupertino",,,,,,,,
"TBC","Los Altos Hills",,,,,,,,
"TBC",,,,,,,,,
"TBC","Belmont","San Mateo",,,,,,,"380"
"TBC",,,,,,,,,
"TBC",,,,,,,,,
"TBC","Los Altos",,,,,,,,"901"
"TBC","San Jose","Santa Clara",,,,,,,"5360"
"TBC","Saratoga","Santa Clara",,,,,,,"24103"
"TBC","Atherton (2)","San Mateo County","43",,,,"B2",,"Fairvi"
"TBC","Saratoga","Santa Clara",,,,,,,"21770"
"TBC","Palo Alto",,,,,,,,
"TBC","Los Altos Hills",,,,,,,,"27625"
"TBC","San Francisco",,,,,,,,
"TBC","Los Gatos","Santa Clara",,,,,,,"18300"
"TBC","San Jose","Santa Clara",,,,,,,"5301"
"TBC",,,,,,,,,
"TBC","Scotts Valley","Santa Cruz",,,,,,,"16"
"TBC","Portola Valley",,,,,,,,
"TBC","Woodside",,,,,,,,
"TBC","Daly City",,,,,"000-000-000",,,"112"
"TBC","Los Altos Hills",,,,,,,,"12740"
"TBC",,"Santa Clara",,,,,,,"19101"
"TBC",,"Monterey",,,,"117-421-053",,,"1195"
"TBC","Monte Sereno","Santa Clara",,,,,,,"18527"
"TBC","San Jose","Santa Clara",,,,,,,"1484"
"TBC","San Jose","Santa Clara",,,,,,,"3859"
"TBC","Portola Valley","San Mateo","46","E","2",,,,"70"
"TBC","Hollister",,,,,,,,
"TBC","Santa Cruz",,"27","68","35",,,,"24200"
"TBC","Woodside","San Mateo",,,,,,,"20"
"TBC","Woodside",,,,,,,,
"TBC","Woodside",,,,,,,,
"TBC",,,,,,,,,
"TBC",,,,,,,,,
"TBC","San Jose",,,,,,,,
"TBC","Saratoga","Santa Clara",,,,,,,"19505"
"TBC","Redwood City",,,,,,,,"3686"
"TBC",,,,,,,,,
"TBC","San Jose","Santa Clara",,,,,,,
"TBC",,"San Mateo","41","D","3",,,,"645"
"TBC","Cupertino","Santa Clara","59",,,,"B5",,"San Fe"
"TBC","Hollister",,,,,,,,
"TBC","Summit","Sant6a Cruz","27",,,,"68/35",,"Summit"
"TBC",,"Santa Cruz","34","62","45",,,,"1716"
"TBC","San Jose",,,,,,,,
"TBC",,,,,,,,,
"TBC","Unincorporated","Santa Clara",,,,,,,"21404"
"TBC",,"Santa Clara",,,,,,,
"TBC","Half Moon Bay",,,,,,,,"566"
"TBC","Los Gatos","Santa Clara",,,,,,,"20411"
"TBC","Monte Sereno","Santa Clara",,,,,,,"17880"
"TBC","Saratoga","Santa Clara",,,,,,,"13931"
"TBC","Portola Valley","San Mateo","46","E","3",,,,
"TBC",,,,,,,,,
"TBC","Los Gatos","Santa Clara",,,,,,,
"TBC","Palo Alto",,,,,,,,
"TBC",,,,,,,,,
"TBC","Clayton",,,,,,,,"16th"
"TBC",,,,,,,,,
"TBC","Milpitas",,,,,,,,"3330"
"TBC",,,,,,,,,
"TBC",,"Santa Clara",,,,,,,"Lot D"
"TBC","San Jose","Santa Clara",,,,"612-11-032",,,"10974"
"TBC","Hollister",,,,,,,,
"TBC","Santa Clara",,,,,,,,
"TBC",,,,,,,,,
"TBC","Woodside",,,,,,,,"351"
"TBC","Los Gatos",,,,,,,,"17471"
"TBC",,,,,,,,,
"TBC",,,,,,,,,
"TBC",,"San Mateo",,,,,,,"8050"
"TBC","Saratoga","Santa Clara",,,,,,,"20060"
"TBC","Hollister",,,,,,,,
"TBC","Santa Clara County",,,,,,,,
"TBC","San Francisco",,,,,,,,
"TBC","San Jose","Santa Clara",,,,,,,
"TBC",,,,,,,,,
"TBC",,"Santa Clara",,,,,,,"14100"
"TBC","Woodside",,,,,,,,"330"
"TBC","Unincorporated","Santa Clara",,,,,,,"16050"
"TBC","Los Altos Hills",,,,,,,,"12000"
"TBC",,,,,,,,,
"TBC",,,,,,,,,
"TBC","Los Altos","Santa Clara",,,,,,,"844"
"TBC","Willits","Mendicino",,,,,,,
"TBC","Los Gatos","Santa Cruz","26","61","3",,,,"22800"
"TBC",,,,,,,,,
"TBC","Fremont",,,,,,,,
"TBC",,,,,,,,,
"TBC",,,,,,"000-000-000",,,
"TBC","Unincorporated","San Mateo",,,,,,,"210"
"TBC",,,,,,,,,
"TBC",,,,,,,,,
"TBC",,,,,,,,,
"TBC",,"Santa Clara",,,,"742-03-016",,,"10195"
"TBC",,"Santa Cruz",,,,,,,"4363"
"TBC","Santa Clara County","Santa Clara",,,,,,,
"TBC","Woodside","Santa Clara",,,,,,,
"TBC","Diablo",,,,,,,,"2233"
"TBC",,,,,,,,,
"TBC","South San Francisco",,,,,,,,"65"
"TBC","Menlo Park",,,,,,,,"1161"
"TBC",,"San Mateo",,,,,,,"247"
"TBC","Los Gatos","Santa Clara",,,,,,,"1021"
"TBC","Los Altos Hills",,,,,,,,"27800"
"TBC","San Jose","Santa Clara",,,,,,,"881"
"TBC","San Jose","Santa Clara",,,,,,,"465"
"TBC","Los Altos","Santa Clara",,,,,,,"11701"
"TBC","Walnut Creek",,,,,,,,
"TBC","Diablo",,,,,,,,"2233"
"TBC",,,,,,,,,
"TBC","Unincorporated","San Mateo",,,,,,,"247"
"TBC",,,,,,,,,
"TBC","Los Altos Hills",,,,,,,,"12951"
"TBC","Palo Alto",,,,,,,,"4167"
"TBC","La Honda",,,,,,,,"100"
"TBC","San Francisco","San Francisco",,,,,,,"455"
"TBC","Los Gatos","Santa Clara",,,,,,,"16600"
"TBC","Monte Sereno","Santa Clara","70","B","3","510-29 -025",,,
"TBC","Santa Cruz County",,,,,,,,
"TBC",,"San Mateo","51","C","1",,,,"112"
"TBC","Woodside",,,,,,,,
"TBC",,,,,,,,,
"TBC","Atherton",,,,,,,,"55"
"TBC","Woodside",,,,,,,,"3000"
"TBC",,,,,,,,,
"TBC","Morgan Hill",,,,,,,,"18505"
"TBC","San Jose","Santa Clara",,,,,,,"5472"
"TBC","Los Gatos",,,,,,,,"16084"
"TBC","Los Altos Hills",,,,,,,,
"TBC","San Jose","Santa Clara",,,,,,,"1909"
"TBC",,"San Mateo","51","B","3",,,,
"TBC",,,,,,,,,
"TBC","Los Altos Hills",,,,,,,,
"TBC",,,,,,,,,
"TBC","Woodside",,,,,,,,"172"
"TBC","Saratoga",,,,,,,,"13680"
"TBC","Palo Alto",,,,,,,,"4010"
"TBC","Los Gatos","Santa Clara",,,,,,,"18690"
"TBC","Los Gatos","Santa Clara",,,,,,,"106"
"TBC",,,,,,,,,
"TBC","Los Gatos","Santa Clara",,,,,,,"16084"
"TBC","San Jose","Santa Clara","67","E","5",,,,"474"
"TBC","San Francisco",,,,,,,,
"TBC",,,,,,,,,
"TBC","Menlo Park",,,,,,,,"45"
"TBC",,,,,,,,,
"TBC","Saratoga","Santa Clara",,,,,,,"20140"
"TBC",,,,,,,,,
"TBC","Los Altos Hills",,,,,,,,"26776"
"TBC","Los Gatos","Santa Clara",,,,,,,"16084"
"TBC",,,,,,,,,
"TBC","Summit",,,,,,,,
"TBC","Santa Clara",,,,,,,,
"TBC",,,,,,,,,
"TBC","San Carlos",,,,,,,,"325"
"TBC",,"San Mateo",,,,,,,"14150"
"TBC","Saratoga","Santa Clara",,,,,,,"20140"
"TBC","San Jose","Santa Clara",,,,,,,"1121"
"TBC","Hayward",,,,,,,,
"TBC","Felton","Santa Cruz",,,,,,,"4"
"TBC","Woodside","San Mateo County","46","E","1",,,,"201"
"TBC","San Jose","Santa Clara County",,,,,,,"3555"
"TBC","Morgan Hill",,,,,,,,
"TBC","Menlo Park",,,,,,,,"918"
"TBC","Unincorporated","Santa Cruz",,,,,,,"130"
"TBC","San Jose","Santa Clara",,,,,,,"3994"
"TBC","Morgan Hill","Santa Clara",,,,,,,"2785"
"TBC",,"Santa Cruz",,,,,,,"24620"
"TBC","Aptos","Santa Cruz",,,,"105-511-03",,,
"TBC","Santa Cruz County",,,,,,,,
"TBC","Los Altos Hills",,,,,,,,
"TBC","Redwood City",,,,,,,,
"TBC",,,,,,,,,
"TBC","Woodside",,,,,,,,"277"
"TBC","Los Gatos",,,,,,,,"17605"
"TBC","Hillsborough",,,,,,,,"30"
"TBC","Woodside",,,,,"72,240,160",,,"1030"
"TBC","Los Altos Hills",,,,,,,,"25000"
"TBC",,"Santa Clara",,,,,,,"15775"
"TBC","Woodside","San Mateo",,,,,,,
"TBC","Saratoga",,,,,,,,
"TBC",,,,,,,,,
"TBC","Woodside","San Mateo",,,,,,,
"TBC","Hillsborough","San Mateo",,,,,,,"20"
"TBC",,"Santa Clara",,,,"544-39-088",,,
"TBC","Los Gatos","Santa Clara",,,,,,,"17819"
"TBC","Los Gatos","Santa Clara",,,,,,,
"TBC","Saratoga","Santa Clara",,,,,,,"16981"
"TBC","Sunnyvale","Santa Clara","52","D","4",,,,
"TBC","Santa Cruz County","Santa Cruz County",,,,,,,
"TBC","Monte Sereno",,,,,,,,
"TBC",,,,,,,,,
"TBC","Cupertino",,,,,,,,"165"
"TBC","Portola Valley","San Mateo",,,,,,,"221"
"TBC",,,,,,,,,
"TBC","San Jose","Santa Clara",,,,,,,"536"
"TBC",,,,,,,,,
"TBC","San Jose","Santa Clara",,,,,,,"857"
"TBC","Moffett AFB","Santa Clara County","45",,,,,,
"TBC","Scotts Valley","Santa Cruz",,,,,,,"552-150"
"TBC","Palo Alto","San Mateo",,,,,,,"509"
"TBC","Woodside",,,,,,,,"27"
"TBC","Woodside","San Mateo",,,,,,,"100"
"TBC",,,,,,,,,
"TBC","Los Altos Hills",,,,,,,,"12897"
"TBC","San Jose","Santa Clara",,,,,,,"3430"
"TBC",,,,,,,,,
"TBC",,,,,,,,,
"TBC","E. San Jose","Santa Clara",,,,,,,
"TBC","Milpitas","Santa Clara","48","E","1",,,,"3434"
"TBC",,,,,,,,,
"TBC",,,,,,,,,
"TBC",,"Santa Clara",,,,,,,"21446"
"TBC","Los Gatos","Santa Clara",,,,,,,"42"
"TBC",,,,,,,,,
"TBC","Los Gatos","Santa Clara",,,,,,,"47"
"TBC","San Jose","Santa Clara",,,,,,,"5714"
"TBC",,,,,,,,,
"TBC","Silver Creek",,,,,,,,"2182"
"TBC",,"Santa Clara",,,,,,,"14540"
"TBC","Corralitos",,,,,"107-471-07 & 08",,,
"TBC","Atherton",,,,,,,,"84"
"TBC",,,,,,,,,
"TBC","Monte Sereno",,,,,,,,"15980"
"TBC",,,,,,,,,
"TBC",,"Santa Clara","73","D","5",,,,"19760"
"TBC",,,,,,,,,
"TBC",,,,,,,,,
"TBC",,"San Mateo",,,,,,,"84"
"TBC","San Jose","Santa Clara",,,,,,,"6802"
"TBC","San Jose","Santa Clara",,,,,,,"2222"
"TBC","Aptos",,,,,"041-07-205",,,
"TBC",,,,,,,,,
"TBC","Prunedale","Monterey County","214","F","2","125-022-20",,,
"TBC","Portola Valley",,,,,,,,
"TBC","Saratoga",,,,,,,,"12711"
"TBC",,"Santa Clara",,,,,,,
"TBC","San Jose","Santa Clara",,,,,,,"948"
"TBC","San Jose","Santa Clara",,,,,,,"10301"
"TBC",,,,,,,,,
"TBC","Los Gatos","Santa Clara","71","E","5",,,,"400"
"TBC","Corralitos",,,,,,,,
"TBC","Reseda",,,,,,,,"19038"
"TBC","Los Altos Hills",,,,,,,,
"TBC","Los Altos",,,,,,,,"1440"
"TBC",,,,,,,,,
"TBC","Campbell","Santa Clara",,,,,,,
"TBC","San Jose","Santa Clara",,,,,,,"Lot33"
"TBC",,,,,,,,,
"TBC","Woodside","San Mateo",,,,,,,
"TBC","Reseda",,"530","J","3",,,,"19423"
"TBC","Los Gatos",,,,,,,,"127"
"TBC","Sharon Heights",,,,,,,,"2301-2413"
"TBC","Los Altos Hills",,,,,,,,"13641"
"TBC","Palo Alto",,,,,,,,"525"
"TBC","Santa Clara",,,,,,,,
"TBC",,,,,,,,,
"TBC","Santa Cruz County","Santa Cruz County",,,,,,,
"TBC",,"San Mateo",,,,,,,
"TBC",,,,,,,,,
"TBC","San Jose","Santa Clara",,,,,,,"6456"
"TBC","San Jose","Santa Clara",,,,,,,"3584"
"TBC","Santa Clara","Santa Clara",,,,,,,"2121"
"TBC",,,,,,,,,
"TBC","San Jose","Santa Clara",,,,,,,"374"
"TBC","Los Gatos","Santa Clara",,,,,,,"16497"
"TBC","Boulder Creek","Santa Cruz County","7","33","19",,,,"187"
"TBC","Saratoga","Santa Clara County",,,,,,,
"TBC",,,,,,,,,
"TBC","San Mateo",,,,,,,,
"TBC","Unincorporated","Santa Clara",,,,,,,"16500"
"TBC","Portola Valley",,,,,,,,"177"
"TBC",,"Santa Clara",,,,"742-03-12",,,"10195"
"TBC","Los Altos Hills",,,,,,,,"12900"
"TBC","Los Gatos","Santa Cruz",,,,,,,"24230"
"TBC","Mill Valley",,,,,,,,"158"
"TBC","Santa Clara County","Santa Clara County",,,,,,,
"TBC","West Hills",,"529","D","5",,,,"7119"
"TBC","Redwood City",,,,,,,,
"TBC",,,,,,,,,
"TBC","San Carlos",,,,,,,,"19"
"TBC",,,,,,,,,
"TBC","Cupertino","Santa Clara",,,,,,,"7509"
"TBC","Los Gatos","Santa Cruz",,,,,,,"24230"
"TBC",,"Santa Cruz",,,,,,,"25890"
"TBC","Stanford",,,,,,,,
"TBC","Encino",,,,,,,,"16111"
"TBC",,,,,,,,,
"TBC","Stanford",,,,,,,,
"TBC","San Carlos","San Mateo",,,,,,,"2947/2941"
"TBC",,"Santa Clara",,,,"510-53-002",,,
"TBC","San Jose","Santa Clara",,,,,,,"1671"
"TBC","Santa Cruz",,,,,,,,"465"
"TBC","San Jose","Santa Clara",,,,,,,"3820"
"TBC",,"Santa Cruz",,,,"096-211-10",,,"24764"
"TBC",,,,,,,,,
"TBC","Saratoga","Santa Clara",,,,,,,"22631"
"TBC","Morgan Hill",,,,,,,,"16637"
"TBC",,"Santa Cruz",,,,"093-041-011",,,
"TBC","Belmont",,,,,,,,"2400"
"TBC","Milpitas","Santa Clara",,,,,,,"324"
"TBC","San Jose","Santa Clara",,,,,,,"6025"
"TBC","Lexington",,,,,,,,
"TBC","Los Gatos",,,,,,,,
"TBC","Van Nuys",,"531","H","7",,,,"15045"
"TBC",,,,,,,,,
"TBC",,,,,,,,,
"TBC","San Jose","Santa Clara",,,,,,,"3774"
"TBC",,,,,,,,,
"TBC",,,,,,,,,
"TBC","Saratoga",,,,,,,,"21145"
"TBC","San Jose","Santa Clara",,,,,,,"1777"
"TBC","Stanford",,"44","A","5",,,,"900"
"TBC","Los Gatos","Santa Clara",,,,,,,"19240"
"TBC",,,,,,,,,
"TBC","Woodside",,,,,,,,"395"
"TBC","Fremont","CA",,,,,,,"48468"
"TBC","San Jose","Santa Clara",,,,,,,
"TBC","Saratoga","Santa Clara",,,,,,,"21888"
"TBC","Los Gatos","Santa Clara",,,,,,,"105"
"TBC","Saratoga","Santa Clara",,,,,,,"15200"
"TBC","San Jose","Santa Clara",,,,,,,"2339"
"TBC","San Jose","Santa Clara",,,,,,,"3199"
"TBC","Los Gatos","Santa Clara County",,,,,,,
"TBC",,,,,,,,,
"TBC","Fremont","Alameda",,,,,,,"48468"
"TBC","Unincorporated","Santa Clara",,,,,,,"21432"
"TBC","San Jose","Santa Clara",,,,,,,"4716"
"TBC","San Jose","Santa Clara",,,,,,,"3645"
"TBC",,"San Mateo",,,,,,,"271"
"TBC","San Jose","Santa Clara","56","A","3",,,,"394"
"TBC","Palomar Park","San Mateo","36","C","3",,,,"Lot 1"
"TBC",,,,,,,,,
"TBC","Los Gatos",,,,,,,,
"TBC","Fremont",,,,,,,,"48468"
"TBC",,,,,,,,,
"TBC","Palo Alto",,,,,,,,"1745"
"TBC","Morgan Hill","Santa Clara",,,,,,,"3230"
"TBC","Big Sur",,,,,"419,211,032",,,"47800"
"TBC",,"San Mateo",,,,,,,"370"
"TBC","Palomar Park","San Mateo","36","C","3",,,,
"TBC","Redwood City","San Mateo",,,,,,,"384"
"TBC","Culver City",,"672","E","4",,,,"5021"
"TBC",,,,,,,,,
"TBC","San Jose",,,,,,,,
"TBC",,,,,,,,,"4730"
"TBC","Portola Valley","San Mateo",,,,,,,"167"
"TBC","Aptos",,,,,,,,"761"
"TBC","San Jose","Santa Clara",,,,,,,"910"
"TBC","Saratoga","Santa Clara","69","A","1",,,,"24124"
"TBC","Palomar Park","San","36","C","3",,,,"Paloma"
"TBC","Santa Cruz County","Santa Cruz County",,,,,,,
"TBC","Los Angeles","Los Angeles","672","B","3",,,,"12613"
"TBC",,,,,,,,,
"TBC","Cupertino",,,,,,,,
"TBC","Fremont",,,,,,,,"48468"
"TBC",,"Marin",,,,,,,"65"
"TBC","San Jose","Santa Clara",,,,,,,"21288"
"TBC",,"Santa Cruz",,,,,,,"23502"
"TBC",,,,,,,,,
"TBC","Portola Valley","San Mateo","51","C","1",,,,"1215"
"TBC","Woodside",,,,,,,,
"TBC","Los Gatos",,,,,,,,
"TBC","Los Angeles","Los Angeles","632","J","7",,,,"8517"
"TBC",,,,,,,,,
"TBC","Woodside",,,,,,,,"359"
"TBC","San Jose","Santa Clara",,,,,,,"2138"
"TBC","Belmont",,,,,,,,"2701"
"TBC",,"Santa Cruz",,,,"086 171 63",,,
"TBC","San Jose","Santa Clara",,,,,,,"1642"
"TBC","Los Altos Hills","Santa Clara","51","E","6",,,,"11824"
"TBC","Santa Clara County","Santa Clara County",,,,,,,
"TBC","Palo Alto","Santa Clara",,,,,,,"853"
"TBC",,,,,,,,,
"TBC","San Jose",,,,,,,,
"TBC","Unincorporated","Monterey",,,,,,,"3861"
"TBC","Saratoga","Santa Clara",,,,,,,"21502"
"TBC","Pacifica",,,,,,,,
"TBC",,"Santa Cruz",,,,"100 181 01",,,"520"
"TBC",,,,,,,,,
"TBC","Los Altos Hills","San Mateo",,,,,,,
"TBC","San Carlos","San Mateo","36","D","1",,,,"1244"
"TBC","Los Gatos",,,,,,,,
"TBC","San Jose","Santa Clara","48","D","6",,,,"1493"
"TBC",,,,,,,,,
"TBC","Woodside",,,,,,,,
"TBC","Cupertino","Santa Clara",,,,,,,"21813"
"TBC",,,,,,,,,
"TBC",,,,,,,,,
"TBC",,"Santa Cruz",,,,,,,"Lot 12"
"TBC","Villa Grande",,,,,,,,"21857"
"TBC",,,,,,,,,
"TBC","Los Altos Hills","Santa Clara","47","D","3",,,,"10"
"TBC","Los Gatos",,,,,,,,
"TBC",,,,,,,,,
"TBC","Menlo Park",,,,,,,,
"TBC","San Jose","Santa Clara",,,,,,,"1735"
"TBC",,,,,,,,,
"TBC",,,,,,,,,
"TBC","San Martin",,,,,,,,"12315"
"TBC",,,,,,,,,
"TBC","San Jose","Santa Clara",,,,,,,"15864"
"TBC","San Carlos",,,,,,,,"18"
"TBC","San Jose","Santa Clara",,,,,,,"14324"
"TBC","Monte Sereno","Santa Clara","70","B","3",,,,"19555"
"TBC","Santa Cruz County",,,,,,,,
"TBC","Atherton",,,,,,,,
"TBC",,,,,,,,,
"TBC","Woodside",,,,,,,,
"TBC",,,,,,,,,
"TBC","San Jose","Santa Clara",,,,,,,"5871"
"TBC","Boulder Creek",,,,,,,,"1050"
"TBC","Saratoga","Santa Clara",,,,,,,"21501"
"TBC","San Jose","Santa Clara",,,,,,,"15864"
"TBC","Los Gatos","Santa Clara",,,,,,,"17230"
"TBC",,"Santa Clara",,,,,,,"0"
"TBC","Santa Cruz County","Santa Cruz County","27",,,,"72-37",,"24991"
"TBC","Hollister","San Benito",,,,,,,"1590"
"TBC","Panorama City",,,,,,,,"8226"
"TBC","Danville",,,,,,,,"5474"
"TBC","La Honda",,,,,,,,"230"
"TBC",,"Santa Clara",,,,,,,"10715"
"TBC",,"San Mateo",,,,,,,"185"
"TBC",,,,,,,,,
"TBC",,"Santa Cruz",,,,"049 142 73",,,"165"
"TBC","Redwood City",,,,,,,,"262"
"TBC","San Jose","Santa Clara","55","E","1",,,,"1077"
"TBC","Woodside","San Mateo","42","E","4",,,,"425"
"TBC","San Jose",,,,,,,,
"TBC","Unincorporated","San Mateo",,,,,,,"1090"
"TBC","Unincorporated","Santa Cruz",,,,,,,"25265"
"TBC",,,,,,,,,
"TBC","Menlo Park","San Mateo",,,,,,,"905"
"TBC","San Jose","Santa Clara",,,,,,,"10029"
"TBC","Watsonville","Santa Cruz",,,,"049 121 49",,,
"TBC","Los Gatos",,,,,,,,"247"
"TBC",,,,,,,,,
"TBC","Santa Clara County",,,,,,,,
"TBC","Portola Valley","Santa Clara",,,,,,,"1090"
"TBC","Unincorporated","San Mateo",,,,,,,"657"
"TBC","San Jose","Santa Clara",,,,,,,"914"
"TBC","Portola Valley","San Mateo",,,,,,,"141"
"TBC","Campbell","Santa Clara",,,,,,,
"TBC","Los Gatos","Santa Clara",,,,,,,"14966"
"TBC","Los Gatos Hills","Santa Clara",,,,,,,"16417"
"TBC","Portola Valley","San Mateo","47","A","4",,,,"200"
"TBC",,,,,,,,,
"TBC","Hillsborough",,,,,,,,
"TBC","Santa Clara","Santa Clara",,,,,,,"2922"
"TBC","Antioch","Contra Costa",,,,,,,"2513"
"TBC","Los Altos Hills",,,,,,,,"14134"
"TBC",,,,,,,,,
"TBC","Moss Beach",,,,,,,,"686"
"TBC","Los Gatos",,,,,,,,
"TBC","Los Gatos","Santa Clara County",,,,,,,
"TBC","Saratoga",,,,,,,,
"TBC","Unincorporated","Santa Cruz",,,,,,,"23995"
"TBC","Los Gatos","Santa Clara",,,,,,,"15950"
"TBC","San Francisco","San Francisco",,,,,,,"San"
"TBC","Cupertino","Santa Clara",,,,,,,"22292"
"TBC",,"Santa Clara",,,,,,,"7"
"TBC","Los Gatos","Santa Cruz",,,,,,,"24915"
"TBC","San Jose","Santa Clara",,,,,,,"667"
"TBC","Los Gatos",,,,,,,,
"TBC","Woodside",,,,,,,,
"TBC","Morgan Hill","Santa Clara",,,,,,,"17845"
"TBC","Los Gatos","Santa Clara",,,,,,,"725"
"TBC","San Jose","Santa Clara",,,,,,,"380"
"TBC",,,,,,,,,
"TBC","Hillsborough",,,,,,,,"30"
"TBC","Ben Lomond",,,,,,,,"145"
"TBC",,,,,,,,,
"TBC","Los Gatos","Santa Clara","60","D","5",,,,"17391"
"TBC",,,,,,,,,
"TBC","San Jose",,,,,,,,
"TBC","Unincorporated","San Mateo",,,,,,,"9755"
"TBC","San Jose","Santa Clara",,,,,,,"905"
"TBC","Morgan Hill","Santa Clara",,,,,,,"3435"
"TBC","San Jose","Santa Clara",,,,,,,"7278"
"TBC",,,,,,,,,
"TBC","San Jose","Santa Clara",,,,,,,"14631"
"TBC","Cupertino","Santa Clara",,,,,,,"22275"
"TBC","Felton","Santa Cruz","49","44","53",,,,"1244"
"TBC","Woodside","San Mateo","46","D","2","076-220-170",,,
"TBC","Los Gatos",,,,,,,,
"TBC","Unincorporated","San Mateo",,,,,,,"100"
"TBC","Los Gatos","Santa Clara",,,,,,,"101"
"TBC","San Jose","Santa Clara",,,,,,,"3517"
"TBC",,"Santa Cruz",,,,"082-241-74",,,
"TBC","San Carlos",,,,,,,,"139"
"TBC",,,,,,,,,
"TBC",,,,,,,,,
"TBC","Redwood Estates","Santa Cruz","20","57","30",,,,
"TBC",,,,,,,,,
"TBC","Los Gatos",,,,,,,,
"TBC","Saratoga","Santa Clara",,,,,,,"21453"
"TBC","Boulder Creek",,,,,,,,"1050"
"TBC","San Jose","Santa Clara",,,,,,,"3540"
"TBC","Saratoga","Santa Clara",,,,"503-12-029",,,
"TBC","Los Gatos","Santa Clara",,,,,,,"121"
"TBC","Menlo Park",,,,,,,,"620"
"TBC","Los Gatos","Santa Clara",,,,,,,"17514"
"TBC",,"San Mateo","51","C","3",,,,"46"
"TBC","Ladera","San Mateo","47","C","1",,,,"431"
"TBC","Los Gatos","Santa Clara",,,,,,,"178"
"TBC","Unincorporated","Santa Clara",,,,,,,"21453"
"TBC","San Bruno","San Mateo",,,,,,,"2930"
"TBC",,"San Mateo",,,,,,,"15"
"TBC","Saratoga","Santa Clara",,,,,,,"18967"
"TBC",,,,,,,,,
"TBC","Capitola","Santa Cruz",,,,,,,"1850"
"TBC","Santa Cruz County","Santa Cruz County",,,,,,,
"TBC","Los Altos Hills","Santa Clara",,,,,,,"10869"
"TBC",,,,,,,,,
"TBC","Modesto",,,,,,,,
"TBC","Palo Alto",,,,,,,,"596"
"TBC","Woodside",,,,,,,,"1550"
"TBC","San Jose","Santa Clara",,,,,,,"545"
"TBC",,,,,,,,,
"TBC",,,,,,,,,
"TBC","Los Gatos","Santa Cruz",,,,"096-211-09",,,"24736"
"TBC","Los Gatos","Santa Clara",,,,,,,"15655"
"TBC","Los Gatos","Santa Clara",,,,,,,
"TBC","Los Altos Hills","Santa Clara",,,,,,,"27285"
"TBC","Carmel","Monterey","251","B","2",,,,"Lot 10"
"TBC","Santa Clara County","Santa Clara County",,,,,,,
"TBC","San Jose",,,,,,,,
"TBC","Portola Valley",,,,,,,,"355"
"TBC","Palo Alto",,,,,,,,"3391"
"TBC","San Jose","Santa Clara",,,,,,,"10153"
"TBC","Unincorporated","Santa Clara",,,,,,,"16189"
"TBC",,,,,,,,,
"TBC","San Jose","Santa Clara",,,,,,,"1603"
"TBC","Fremont",,,,,,,,"47544"
"TBC","Menlo Park",,,,,,,,
"TBC","San Jose",,,,,,,,
"TBC","Morgan Hill",,,,,,,,"3165"
"TBC","Boulder Creek","Santa Cruz",,,,,,,"134"
"TBC","San Jose","Santa Clara",,,,,,,"2388"
"TBC",,,,,,,,,
"TBC","San Jose",,,,,,,,
"TBC","San Jose","Santa Clara",,,,,,,"16160"
"TBC","Los Gatos","Santa Clara",,,,,,,"21523"
"TBC",,"Santa Cruz",,,,"105-231-68",,,
"TBC","Monte Sereno","Santa Clara",,,,,,,"18485"
"TBC","Portola Valley",,,,,,,,"200"
"TBC","Los Altos Hills",,,,,,,,"14174"
"TBC","Menlo Park",,,,,,,,
"TBC","Santa Clara County","Santa Clara County",,,,,,,
"TBC",,,,,,,,,
"TBC",,"San Mateo",,,,,,,"163"
"TBC",,,,,,,,,
"TBC","Gilroy","Santa Clara",,,,,,,"7432"
"TBC","Hillsborough",,,,,,,,"55"
"TBC",,,,,,,,,
"TBC","Scotts Valley",,,,,,,,"220"
"TBC","Los Altos Hills",,,,,,,,"27836"
"TBC",,,,,,,,,
"TBC","Los Gatos",,,,,,,,
"TBC","Unincorporated","Santa Clara",,,,,,,"17755"
"TBC","Cupertino","Santa Clara",,,,,,,"10670"
"TBC",,,,,,,,,
"TBC","Los Gatos","Santa Clara",,,,,,,"27275"
"TBC","San Jose","Santa Clara",,,,,,,"4832"
"TBC",,"Monterey",,,,,,,"437"
"TBC",,,,,,,,,
"TBC","Carmel Valley","Monterey",,,,,,,"12420"
"TBC","Sherman Oaks",,,,,,,,"4901"
"TBC","Campbell",,,,,,,,
"TBC","San Jose","Santa Clara",,,,,,,"3540"
"TBC","Cupertino","Santa Clara",,,,,,,"10670"
"TBC","San Jose","Santa Clara",,,,,,,"6153"
"TBC","Los Gatos","Santa Clara",,,,,,,"16338"
"TBC","Atherton","San Mateo",,,,,,,
"TBC",,"Monterey",,,,,,,
"TBC","Watsonville","Santa Cruz",,,,,,,"114"
"TBC","E. San Jose","Santa Clara",,,,,,,
"TBC","Los Trancos Woods","San Mateo","51","C","1",,,,"1111"
"TBC","Oakland",,,,,,,,
"TBC","San Jose","Santa Clara",,,,,,,"1158"
"TBC","San Jose","Santa Clara",,,,,,,"4368"
"TBC","Los Altos","Santa Clara",,,,,,,"771"
"TBC",,"Santa Clara",,,,"701-29-032",,,
"TBC","San Jose","Santa Clara",,,,,,,"915"
"TBC","Portola Valley",,,,,,,,"138"
"TBC","Pacific Grove",,,,,,,,
"TBC","Woodside","San Mateo","46","E","1","075-134-210",,,
"TBC","Los Trancos Woods","San Mateo",,,,,,,
"TBC","Woodside",,,,,,,,
"TBC",,,,,,,,,
"TBC","Foster City",,,,,,,,
"TBC","Morgan Hill",,,,,,,,"2205"
"TBC","San Jose","Santa Clara",,,,,,,"4030"
"TBC","San Jose",,,,,,,,
"TBC","Cupertino","Santa Clara",,,,,,,"22530"
"TBC","San Jose","CA",,,,,,,"3786"
"TBC",,,,,,,,,
"TBC",,,,,,,,,
"TBC",,,,,,,,,
"TBC","San Jose",,,,,,,,
"TBC",,,,,,,,,
"TBC","San Jose","Santa Clara",,,,,,,"3906"
"TBC","Saratoga","Santa Clara",,,,,,,"14459"
"TBC",,"San Mateo",,,,,,,
"TBC","San Jose","Santa Clara",,,,,,,"1642"
"TBC",,"Santa Clara",,,,,,,"18091"
"TBC","Los Gatos","Santa Clara","70","D","4",,,,"347"
"TBC","Felton","Santa Cruz","B3",,,,"51/48",,"Quarry"
"TBC","San Carlos",,,,,,,,
"TBC","Unincorporated","Santa Clara",,,,,,,"Lots 2, 3,"
"TBC","Los Altos","Santa Clara",,,,,,,"782"
"TBC","Los Gatos","Santa Clara",,,,,,,"161"
"TBC","Saratoga","Santa Clara",,,,,,,"18951"
"TBC","Portola Valley",,,,,,,,"135"
"TBC",,"San Luis Obispo",,,,,,,
"TBC","Mt. Herman","Santa Cruz","41","49","50",,,,"2"
"TBC",,,,,,,,,
"TBC","Los Trancos Woods",,,,,,,,
"TBC","Portola Valley",,,,,,,,"358"
"TBC","San Jose","Santa Clara",,,,,,,"5545"
"TBC",,"Santa Clara",,,,"532-03-006",,,"16383"
"TBC","San Jose","Santa Clara",,,,,,,
"TBC","Victorville","San Bernadino",,,,,,,
"TBC","San Jose","Santa Clara",,,,"462-06-022",,,"3911"
"TBC","Woodside",,,,,,,,
"TBC","Woodside",,,,,,,,
"TBC","San Mateo","San Mateo",,,,,,,"701"
"TBC","San Carlos",,,,,,,,"242"
"TBC","San Jose","Santa Clara",,,,,,,"1326"
"TBC","Redwood City",,,,,,,,"1034"
"TBC","San Jose","Santa Clara",,,,"595-20-059, 061, 065",,,
"TBC","Portola Valley",,,,,,,,"35 Adair"
"TBC","Saratoga","Santa Clara",,,,,,,"15452"
"TBC","San Jose","Santa Clara County",,,,,,,
"TBC","Danville","Alameda",,,,,,,
"TBC","Cupertino",,,,,,,,
"TBC","Boulder Creek",,,,,,,,
"TBC","Unincorporated","San Mateo",,,,,,,"Parcels 1,"
"TBC","Los Altos Hills","Santa Clara",,,,,,,"13300"
"TBC","Saratoga","Santa Clara",,,,,,,"14357"
"TBC","Watsonville",,,,,,,,"52"
"TBC","San Jose","Santa Clara",,,,,,,"3758"
"TBC","Cupertino","Santa Clara",,,,,,,"22255"
"TBC","Los Altos Hills","Santa Clara","51","F","6",,,,"1465"
"TBC","Felton","Santa Cruz","B3",,,,"51/48",,"Quarry"
"TBC","Woodside","San Mateo",,,,,,,
"TBC","Woodside",,,,,,,,
"TBC","Mountain View",,,,,,,,
"TBC","Unincorporated","Santa Clara",,,,,,,"16400"
"TBC",,"Santa Clara",,,,,,,"11701"
"TBC","Scotts Valley",,,,,,,,"36"
"TBC","San Jose","Santa Clara",,,,,,,"10701"
"TBC",,"San Mateo",,,,,,,"1028"
"TBC",,"Santa Clara",,,,,,,"16904"
"TBC","Felton",,,,,,,,
"TBC","Woodside",,,,,,,,
"TBC","Saratoga",,,,,,,,
"TBC",,,,,,,,,
"TBC","Saratoga","Santa Clara",,,,,,,"14385"
"TBC","Monte Sereno","Santa Clara",,,,,,,"15096"
"TBC","San Francisco","San Francisco",,,,,,,"2301"
"TBC","Los Gatos","Santa Clara",,,,,,,"136"
"TBC","Los Gatos","Santa Clara",,,,,,,"22450"
"TBC","Pleasanton","Alameda","66","E","5",,,,"683"
"TBC","Portola Valley","San Mateo","46","E","3",,,,"125"
"TBC","Cupertino",,,,,,,,
"TBC",,,,,,,,,
"TBC","Los Altos","Santa Clara",,,,,,,"1231"
"TBC","Gilroy",,,,,,,,"1600"
"TBC",,,,,,,,,
"TBC","San Jose","Santa Clara",,,,,,,"6423"
"TBC","Cupertino","Santa Clara",,,,"351-32-006",,,"15970"
"TBC",,"Santa Clara","74","B","4",,,,"17255"
"TBC","Saratoga","Santa Clara","64","E","6",,,,"21151"
"TBC","Los Gatos",,,,,,,,
"TBC","Atherton",,,,,,,,
"TBC","Redwood City",,,,,,,,"1206"
"TBC","Los Gatos","Santa Cruz",,,,,,,"25500"
"TBC","Corralitos","Santa Cruz",,,,"107-481-02",,,"109"
"TBC","San Jose","Santa Clara",,,,,,,"3552"
"TBC",,"Santa Cruz",,,,,,,"26181"
"TBC",,,,,,,,,
"TBC",,,,,,,,,
"TBC","San Jose",,,,,,,,
"TBC","San Carlos",,,,,,,,"Lot 56"
"TBC","Atherton","San Mateo",,,,,,,"95"
"TBC","Cupertino","Santa Clara",,,,"351-42-003",,,"13212"
"TBC","Belmont",,,,,,,,"2612-2614"
"TBC",,"Santa Cruz",,,,,,,
"TBC","Saratoga","Santa Clara",,,,,,,"20855"
"TBC","Oyster Point",,,,,,,,
"TBC","Aptos",,,,,,,,"7571"
"TBC",,"Santa Clara",,,,,,,"16330"
"TBC","Campbell","Santa Clara",,,,,,,
"TBC","San Jose",,,,,,,,
"TBC","Cupertino",,,,,,,,
"TBC","Los Altos Hills",,,,,,,,"26870"
"TBC","Pescadero","San Mateo",,,,,,,
"TBC",,"Santa Clara",,,,,,,"10821"
"TBC",,,,,,,,,
"TBC","San Francisco","San Francisco",,,,,,,"675"
"TBC","Atherton",,,,,,,,"80"
"TBC","Mountain View",,,,,,,,
"TBC","Fremont",,,,,,,,"151"
"TBC","San Jose","Santa Clara",,,,,,,"2438"
"TBC","Cupertino","Santa Clara",,,,,,,
"TBC",,"Santa Clara County","56","E","5","612-410-40",,,
"TBC",,,,,,,,,
"TBC","Los Gatos",,,,,,,,
"TBC","San Mateo",,,,,,,,
"TBC",,,,,,,,,
"TBC",,"Santa Clara",,,,,,,"23291"
"TBC",,,,,,,,,
"TBC",,"Santa Cruz",,,,"101-041-05",,,"4363"
"TBC","San Jose","Santa Clara",,,,,,,"6050"
"TBC","Modesto",,,,,,,,"1031"
"TBC","Los Trancos Woods",,,,,,,,
"TBC","Seal Cove",,,,,,,,
"TBC",,,,,,,,,
"TBC","Portola Valley","San Mateo",,,,,,,"287"
"TBC","Los Altos Hills","San Mateo",,,,,,,"26910"
"TBC","Woodside","San Mateo",,,,,,,
"TBC","Pleasanton",,,,,,,,
"TBC","Hayward","Alameda",,,,,,,"3978"
"TBC",,,,,,,,,
"TBC","Los Gatos","Santa Clara",,,,,,,
"TBC","Woodside",,,,,,,,
"TBC",,,,,,,,,
"TBC","San Jose","Santa Clara",,,,,,,"291"
"TBC","Saratoga","Santa Clara",,,,,,,"19849"
"TBC","San Jose","Santa Clara",,,,,,,"6824"
"TBC",,"Santa Clara",,,,,,,"007/ 008"
"TBC",,,,,,,,,
"TBC",,,,,,,,,
"TBC",,,,,,,,,
"TBC","Saratoga","Santa Clara",,,,,,,"20561"
"TBC",,"Santa Cruz",,,,,,,"18350"
"TBC","Boulder Creek","Santa Cruz",,,,"89-111-38",,,
"TBC","Monte Sereno","Santa Clara",,,,,,,"18770"
"TBC","San Mateo","San Mateo",,,,,,,"1531"
"TBC","Saratoga","Santa Clara",,,,,,,"13410"
"TBC","Capitola","Santa Cruz",,,,,,,"1850"
"TBC",,,,,,,,,
"TBC","Portola Valley",,,,,,,,"197"
"TBC",,,,,,,,,
"TBC","Cupertino","Santa Clara",,,,,,,"11477"
"TBC","Los Altos Hills","Santa Clara",,,,,,,"12109"
"TBC","Los Gatos","Santa Clara",,,,,,,"146"
"TBC",,"Santa Cruz",,,,"096-334-11",,,
"TBC","San Jose","Santa Clara",,,,,,,"1265"
"TBC","Monterey",,,,,,,,
"TBC",,,,,,,,,
"TBC","Saratoga","Santa Clara",,,,,,,"644"
"TBC","San Mateo","San Mateo",,,,,,,"1501"
"TBC","Boulder Creek","Santa Cruz",,,,"090-221-25",,,
"TBC","Cupertino","Santa Clara",,,,,,,"22719"
"TBC",,"Santa Clara",,,,"742-04-014",,,
"TBC",,,,,,,,,
"TBC",,,,,,,,,
"TBC","Woodside","San Mateo","42","D","4","072-201-310",,,
"TBC",,"Santa Clara",,,,,,,
"TBC","Unincorporated","Santa Clara",,,,,,,"14831"
"TBC","Santa Clara","Santa Clara",,,,,,,"25-27"
"TBC","Los Altos Hills","Santa Clara",,,,,,,"13015"
"TBC","Portola Valley",,,,,,,,"144"
"TBC",,,,,,,,,
"TBC",,"Santa Cruz",,,,"093-011-41",,,"13065"
"TBC","Menlo Park",,,,,,,,"2490"
"TBC","Los Gatos",,,,,,,,
"TBC","Cupertino",,,,,,,,
"TBC","San Carlos",,,,,,,,"1655"
"TBC",,,,,,,,,
"TBC","San Jose","Santa Clara",,,,,,,"2888"
"TBC","San Jose","Santa Clara",,,,,,,"1025"
"TBC","San Jose","Santa Clara",,,,,,,"15"
"TBC",,,,,,,,,
"TBC",,,,,,,,,
"TBC","Menlo Park",,,,,,,,
"TBC","Cupertino",,,,,,,,
"TBC","Los Gatos",,,,,,,,"18400"
"TBC",,"Santa Cruz",,,,"107-561-04",,,"3180"
"TBC","Cupertino","Santa Clara",,,,,,,"10188"
"TBC","Kensington","Alameda",,,,,,,"101"
"TBC","La Honda",,,,,,,,"170"
"TBC","San Jose","Santa Clara","63A","B","4","659-029-01",,,
"TBC","Los Gatos",,,,,,,,
"TBC","San Jose","Santa Clara County","72","E","4",,,,"6214"
"TBC",,,,,,,,,
"TBC","Cupertino",,,,,,,,
"TBC",,,,,,,,,
"TBC",,"Santa Clara",,,,,,,"20755"
"TBC","Cupertino","Santa Clara",,,,,,,"10701"
"TBC","Santa Clara","Santa Clara",,,,,,,"193"
"TBC","Los Gatos","Santa Clara",,,,,,,"25700"
"TBC","Woodside",,,,,,,,"265"
"TBC","Pacifica",,,,,,,,"1223"
"TBC","Woodside","San Mateo","46","C","1",,,,"125"
"TBC","Cupertino",,,,,,,,
"TBC",,,,,,,,,
"TBC","Los Gatos",,,,,,,,"19361"
"TBC",,,,,,,,,
"TBC","Boulder Creek","Santa Cruz",,,,"082-241-74",,,
"TBC","San Jose","Santa Clara",,,,"612-34-044",,,
"TBC",,,,,,,,,
"TBC",,"Santa Clara",,,,,,,"10137"
"TBC","Menlo Park",,,,,,,,"2160"
"TBC","Santa Clara","Santa Clara",,,,,,,
"TBC","Sharon Heights",,,,,,,,
"TBC","Woodside","San Mateo",,,,,,,"988"
"TBC","Watsonville","Santa Cruz",,,,,,,"134"
"TBC",,"San Mateo",,,,,,,"0"
"TBC","Healdsburg","Sanoma",,,,,,,"1410"
"TBC",,,,,,,,,
"TBC",,,,,,,,,
"TBC","Woodside","San Mateo","42","A","2",,,,"750"
"TBC",,,,,,,,,
"TBC","Woodside","San Mateo",,,,,,,
"TBC","Los Altos Hills",,,,,,,,"1585"
"TBC","Redwood City","San Mateo",,,,"057-162-220",,,"315"
"TBC","Los Gatos","Santa Clara",,,,,,,"117"
"TBC",,"Santa Cruz",,,,,,,"23630"
"TBC","Saratoga","Santa Clara",,,,,,,"12553"
"TBC","San Jose","Santa Clara","75","E","1",,,,"1057"
"TBC","Loma Prieta","Santa Clara","78J","F","3","562-019-009",,,
"TBC","Sunnyvale","Santa Clara",,,,,,,"501"
"TBC",,"Santa Cruz",,,,,,,"19235"
"TBC","San Jose","Santa Clara",,,,,,,"227"
"TBC","Ross",,,,,,,,"94"
"TBC","Palo Alto",,,,,,,,"2112"
"TBC","Campbell","Santa Clara","66","B","6",,,,
"TBC","Eureka",,,,,,,,
"TBC","Menlo Park",,,,,,,,"304"
"TBC","Menlo Park",,,,,,,,
"TBC","San Jose","Santa Clara",,,,,,,"1083"
"TBC",,,,,,,,,
"TBC","Watsonville",,,,,,,,"56"
"TBC","Ukiah",,,,,,,,
"TBC","Los Trancos Woods","San Mateo","41","C","4",,,,
"TBC","Menlo Park","San Mateo","47","C","1",,,,"34"
"TBC","San Jose",,,,,,,,
"TBC",,,,,,,,,
"TBC","Unincorporated","Santa Clara",,,,,,,"17017"
"TBC","San Francisco","San Francisco",,,,,,,"2420"
"TBC","Los Gatos","Santa Clara",,,,,,,"21095"
"TBC",,"Santa Cruz",,,,"097-231-43",,,
"TBC",,"Santa Cruz",,,,"050-588-0535",,,"38"
"TBC","San Jose","Santa Clara",,,,,,,"5525"
"TBC","San Jose","Santa Clara","49","A","6",,,,"Lots 34-36"
"TBC",,,,,,,,,
"TBC","Salinas",,,,,,,,
"TBC","Danville",,,,,,,,"540"
"TBC","San Jose","Santa Clara",,,,,,,"2942"
"TBC",,"Santa Cruz",,,,,,,
"TBC","S. San Francisco","San Francisco",,,,,,,"440"
"TBC",,,,,,,,,
"TBC",,"San Mateo",,,,,,,"205"
"TBC",,"Santa Clara","78G","F","4",,,,"32500"
"TBC","Santa Clara",,,,,,,,
"TBC","Pescadero","San Mateo",,,,,,,
"TBC",,,,,,,,,
"TBC",,"Santa Clara",,,,,,,"15854"
"TBC",,"Santa Clara",,,,,,,"10195"
"TBC","Pacifica",,,,,,,,"100"
"TBC","La Honda","San Mateo",,,,,,,"205"
"TBC","Woodside","San Mateo","42","C","4",,,,"Lot 1"
"TBC",,,,,,,,,
"TBC","San Jose",,,,,,,,
"TBC",,,,,,,,,
"TBC","Los Gatos","Santa Clara",,,,,,,"18320"
"TBC","Santa Rosa","Sonoma",,,,,,,"5226"
"TBC","San Jose","Santa Clara",,,,,,,"15865"
"TBC",,"Santa Cruz",,,,"103-181-13",,,"100"
"TBC","Saratoga",,,,,,,,
"TBC",,,,,,,,,
"TBC","Oakland",,,,,,,,
"TBC","La Honda",,,,,,,,"111"
"TBC","Santa Rosa","Sonoma",,,,,,,"5226"
"TBC",,,,,,,,,
"TBC","Saratoga","Santa Clara",,,,,,,"15499"
"TBC","San Jose","Santa Clara","67","E","5",,,,"4906"
"TBC","San Jose",,,,,,,,
"TBC",,,,,,,,,
"TBC",,,,,,,,,
"TBC","Santa Clara","Santa Clara",,,,,,,"20830"
"TBC","Turlock","Stanislau",,,,,,,"6235"
"TBC","San Jose","Santa Clara",,,,,,,"2909"
"TBC","La Honda",,,,,,,,"1"
"TBC","San Jose","Santa Clara","56","C","6","612- 09-020",,,
"TBC","Atherton","San Mateo",,,,,,,
"TBC","Saratoga",,,,,,,,
"TBC",,,,,,,,,
"TBC",,,,,,,,,
"TBC",,"San Mateo",,,,,,,"500"
"TBC","San Francisco","San Francisco",,,,,,,"599"
"TBC","San Jose","Santa Clara",,,,,,,"18694"
"TBC","San Jose","Santa Clara",,,,,,,"6585"
"TBC",,,,,,,,,
"TBC","Los Gatos",,,,,,,,
"TBC","Watsonville",,,,,,,,"134"
"TBC",,"Santa Clara",,,,,,,"21014"
"TBC",,,,,,,,,
"TBC",,,,,,,,,
"TBC","San Jose","Santa Clara",,,,,,,"7225"
"TBC","Woodside","San Mateo","63A","C","4",,,,"80"
"TBC","Woodland Hills",,,,,,,,
"TBC","Woodside",,,,,,,,
"TBC","Petaluma","Sonoma",,,,,,,
"TBC","Santa Clara","Santa Clara",,,,,,,"2426"
"TBC",,"Santa Clara",,,,,,,
"TBC","San Jose","Santa Clara",,,,,,,"1116"
"TBC","San Bruno",,,,,,,,"2735"
"TBC","Woodside","San Mateo","63A","C","4",,,,"75"
"TBC","Cupertino",,,,,,,,
"TBC","Moorpark",,,,,,,,"12644"
"TBC","Los Altos",,,,,,,,
"TBC","Redwood City",,,,,,,,"632"
"TBC","San Jose","Santa Clara",,,,,,,"10153"
"TBC","Villa Grande","Mendocino",,,,,,,"21865"
"TBC","Los Altos Hills",,,,,,,,"11339"
"TBC","Woodside",,,,,,,,"131"
"TBC","Mountain View","Santa Clara","45","A","6",,,,"602"
"TBC",,,,,,,,,
"TBC","Milpitas",,,,,,,,
"TBC","Unincorporated","San Mateo",,,,,,,"3747"
"TBC",,,,,,,,,
"TBC",,",23,19,18 Santa Cruz",,,,"041-191-33,34,22",,,
"TBC","Soquel",,,,,,,,"3837"
"TBC",,,,,,,,,
"TBC","Cupertino","Santa Clara","64",,,,"D1",,"Lindy"
"TBC","San Jose","Santa Clara County",,,,,,,
"TBC","Saratoga",,,,,,,,
"TBC",,,,,,,,,
"TBC",,,,,,"000-000-000",,,
"TBC",,"Santa Clara",,,,,,,"19993"
"TBC","Milpitas",,,,,,,,
"TBC",,"Santa Cruz",,,,"096-334-07",,,
"TBC","Los Gatos","Santa Clara",,,,,,,"16173"
"TBC","Saratoga","Santa Clara",,,,,,,"20961"
"TBC","Pescadero","San Mateo","56A","B","1",,,,"9739"
"TBC",,"San Mateo","56","D","3","076-291-060",,,
"TBC","Capitola","Santa Cruz",,,,,,,"112"
"TBC",,"Santa Clara",,,,,,,"19750"
"TBC","Los Gatos","Santa Clara",,,,,,,"16611"
"TBC","Orinda",,,,,,,,"10"
"TBC","San Carlos",,,,,,,,"260/266"
"TBC","San Jose","Santa Clara",,,,,,,"19995"
"TBC",,,,,,,,,
"TBC","Woodland Hills",,"560","D","2",,,,"5600"
"TBC","Los Altos Hills",,,,,,,,
"TBC","Atherton",,,,,,,,"261"
"TBC","Santa Cruz","Santa Cruz",,,,,,,"2572"
"TBC","Los Gatos",,,,,,,,"121"
"TBC","Campbell","Santa Clara",,,,,,,"235"
"TBC","Watsonville",,,,,"050-341-04",,,"100/106"
"TBC",,,,,,,,,
"TBC","San Jose","Santa Clara","72","E","3",,,,"6209"
"TBC","Woodland Hills",,"530","E","1",,,,"5463"
"TBC","Los Altos Hills",,,,,,,,
"TBC",,,,,,,,,
"TBC","San Jose","Santa Clara",,,,,,,"457"
"TBC",,,,,,,,,
"TBC",,"Santa Clara",,,,"544-11-025 & 026",,,"19101"
"TBC","Saratoga","Santa Clara",,,,"503-29-068",,,
"TBC","Los Altos Hills","Santa Clara",,,,,,,
"TBC","Los Altos Hills","Santa Clara",,,,,,,
"TBC","Los Gatos","Santa Clara",,,,,,,"252"
"TBC","San Jose","Santa Clara County",,,,,,,"1039"
"TBC","Woodland Hills",,"529","H","2",,,,"22911"
"TBC","Alameda",,,,,,,,
"TBC","Cupertino","Santa Clara",,,,,,,"10588"
"TBC","San Jose","Santa Clara",,,,,,,"1272"
"TBC","San Carlos",,,,,,,,"2824"
"TBC","Campbell","Santa Clara",,,,,,,"145"
"TBC","San Jose","Santa Clara",,,,"612-34-040",,,"0"
"TBC","Los Altos Hills",,,,,,,,
"TBC",,,,,,,,,
"TBC","Portola Valley","San Mateo",,,,,,,
"TBC","Los Altos Hills",,,,,,,,
"TBC",,,,,,,,,
"TBC",,,,,,,,,
"TBC","San Jose","Santa Clara",,,,,,,"3289"
"TBC","Gilroy",,,,,"799-06-051/052",,,"7515/'25"
"TBC",,,,,,,,,
"TBC",,,,,,,,,
"TBC","Los Gatos",,,,,,,,"204"
"TBC","Hillsborough",,,,,,,,"1305"
"TBC","San Jose","Santa Clara",,,,,,,"1025"
"TBC","Atherton",,,,,,,,"383"
"TBC","Los Gatos","Santa Clara",,,,,,,"168"
"TBC","Saratoga","Santa Clara",,,,,,,"14065"
"TBC","Los Gatos",,,,,,,,
"TBC","Encino",,"531","D","4",,,,"4488"
"TBC","Portola Valley",,,,,,,,"148"
"TBC","Unincorporated","Santa Clara",,,,,,,
"TBC","San Jose","Santa Clara",,,,,,,"24"
"TBC","San Jose","Santa Clara",,,,,,,"6458"
"TBC","Saratoga","Santa Clara",,,,,,,"23490"
"TBC","San Jose","Santa Clara",,,,"660-07-012-00",,,"5668"
"TBC","Saratoga","Santa Clara",,,,,,,"21454"
"TBC","Pacifica","San Mateo","20","F","6",,,,"1125"
"TBC","Los Altos Hills","Santa Clara",,,,,,,"25851"
"TBC","Portola Valley",,,,,,,,
"TBC",,,,,,,,,
"TBC","Los Gatos",,,,,,,,
"TBC","Redwood City",,,,,,,,"3543"
"TBC",,"Santa Cruz",,,,,,,"23374"
"TBC","San Jose","Santa Clara",,,,"595-20-059",,,
"TBC","San Jose","Santa Clara",,,,,,,"13375"
"TBC","Los Gatos","Santa Clara",,,,,,,"109"
"TBC","Los Altos Hills","Santa Clara","50","E","3",,,,"13651"
"TBC","Woodside","San Mateo","42","E","2",,,,"2969"
"TBC","San Jose","Santa Clara County",,,,,,,
"TBC","Los Altos Hills","Santa Clara",,,,,,,
"TBC","Portola Valley",,,,,,,,"234"
"TBC","Lafayette",,,,,,,,"949"
"TBC","Santa Clara","Santa Clara",,,,,,,"215"
"TBC","San Jose","Santa Clara",,,,"595-20-061",,,
"TBC","San Jose","Santa Clara",,,,,,,"544"
"TBC","Portola Valley",,,,,"076-235-090",,,"128"
"TBC","Los Altos Hills","Santa Clara","51","B","6",,,,"12002"
"TBC","Los Gatos",,,,,,,,
"TBC",,"San Mateo",,,,,,,"1244"
"TBC","Los Altos Hills","San Mateo",,,,,,,"13170"
"TBC","Pacifica",,,,,,,,"310/320"
"TBC","Aromas","Santa Clara",,,,,,,
"TBC","Modesto",,,,,,,,"1725"
"TBC","Saratoga","Santa Clara","69","C","3",,,,"16388"
"TBC","Santa Clara",,,,,,,,
"TBC",,,,,,,,,
"TBC","Menlo Park",,,,,,,,"1341"
"TBC",,"San Mateo",,,,,,,
"TBC",,"San Mateo",,,,"83-080-060",,,
"TBC","Danville","Contra Costa",,,,,,,"120"
"TBC","Woodside",,,,,,,,"7"
"TBC","Moraga","Contra Costa","74","A","4",,,,"291"
"TBC","San Jose","Santa Clara","63A","C","3",,,,"4450"
"TBC","Portola Valley","San Mateo",,,,,,,"116"
"TBC","Saratoga","Santa Clara County",,,,,,,
"TBC",,,,,,,,,
"TBC","Cupertino","Santa Clara",,,,,,,"10320"
"TBC","Morgan Hill",,,,,,,,"2720"
"TBC",,,,,,,,,
"TBC",,,,,,,,,
"TBC","La Honda",,,,,,,,"105"
"TBC","Belmont",,,,,,,,"2032"
"Addition","Pacifica","San Mateo","20","D","6",,,,"235"
"Addition","San Mateo","San Mateo",,,,,,,"814"
"Addition","Pescadero","San Mateo","57","D","3",,,,"503"
"Addition",,"SAN MATEO",,,"Pg. 43, C-","000-000-000",,,"251"
"Addition",,"SAN MATEO",,,,"000-000-000",,,"251"
"Addition","Portola Valley",,,,,"000-000-000",,,"136"
"Addition","Palo Alto","Santa Clara","38","A","6",,,,"235"
"Addition","Portola Valley","San Mateo","47","C","3",,,,"30"
"Addition","Saratoga","Santa Clara","64","E","5",,,,"13991"
"Addition","WOODSIDE",,,,,"072-130-290",,,"131"
"Addition","Portola Valley","San Mateo","46","E","3",,,,"797"
"Addition","WOODSIDE",,,,,"000-000-000",,,"131"
"Addition","WOODSIDE",,,,,"000-000-000",,,"131"
"Addition","Portola Valley","San Mateo","47","C","3",,,,"140"
"Addition","Menlo Park","San Mateo","38","A","5",,,,"1200"
"Addition","Portola Valley","San Mateo","47","A","2",,,,"165"
"Addition","Saratoga",,,,,"000-000-000",,,"13393"
"Addition","Saratoga",,,,,"000-000-000",,,"13393"
"Addition",,"San Mateo","51","C","2",,,,"60"
"Addition","Woodside","San Mateo County","42","D","2",,,,"140"
"Addition","Palo Alto",,,,,"000-000-000",,,"274"
"Addition","Woodside",,,,,"000-000-000",,,"351"
"Addition","SARATOGA",,,,,"000-000-000",,,"21555"
"Addition","Morgan Hill","Santa Clara","80","C","1",,,,"17640"
"Addition","Monte Sereno","Santa Clara","70","C","3",,,,"16240"
"Addition","Cupertino",,,,,"000-000-000",,,"10775"
"Addition","San Jose","Santa Clara","48","E","5",,,,"1671"
"Addition","Saratoga",,,,,"000-000-000",,,"12833"
"Addition","CUPERTINO",,,,,"000-000-000",,,"10775"
"Addition","San Jose","Santa Clara","48","E","5",,,,"1671"
"Addition","Woodside","San Mateo","42","D","5",,,,"1000"
"Addition","Woodside","San Mateo","36","B","6",,,,"11"
"Addition",,,"46","C","3",,,,
"Addition","Fremont",,,,,"000-000-000",,,"1180"
"Addition","Saratoga","Santa Clara","64","D","5",,,,"13850"
"Addition","MENLO PARK",,,,,"000-000-000",,,"1036"
"Addition","MENLO PARK",,,,,"000-000-000",,,"1036"
"Addition","Portola Valley","San Mateo","46","E","3",,,,"175"
"Addition","MENLO PARK",,,,,"000-000-000",,,"1036"
"Addition","MENLO PARK",,,,,"000-000-000",,,"1036"
"Addition",,"SAN MATEO",,,,"000-000-000",,,"759"
"Addition","LOS ALTOS HILLS",,,,,"000-000-000",,,"15833"
"Addition","Los Altos","Santa Clara","58","F","1",,,,"1508"
"Addition","LOS ALTOS HILLS",,,,,"000-000-000",,,"15833"
"Addition","LOS ALTOS HILLS",,,,,"000-000-000",,,"15833"
"Addition","LOS ALTOS HILLS",,,,,"000-000-000",,,"15833"
"Addition","Los Altos","Santa Clara","51","F","5",,,,"722"
"Addition","Portola Valley","San Mateo","47","B","5",,,,"5"
"Addition",,"San Mateo","50","F","3","080-320-020",,,
"Addition","Portola Valley","San Mateo","46","E","3",,,,"139"
"Addition","Santa Clara","Santa Clara","60","D","3",,,,"603"
"Addition","Woodside",,,,,"000-000-000",,,"514"
"Addition",,"Santa Cruz","73","B","6",,,,"20950"
"Addition","Woodside",,,,,"000-000-000",,,"514"
"Addition","Woodside","San Mateo County","41","F","6",,,,"15975"
"Addition",,"Santa Clara","56","C","3",,,,
"Addition","La Selva Beach",,,,,"000-000-000",,,"12"
"Addition","La Selva Beach",,,,,"000-000-000",,,"12"
"Addition","Los Altos","Santa Clara County","51","E","5",,,,"852"
"Addition","Woodside",,,,,"000-000-000",,,"255"
"Addition","San Jose","Santa Clara",,,"PG 56 A-1","000-000-000",,,"688"
"Addition","Portola Valley",,,,,"000-000-000",,,"186"
"Addition",,"SAN MATEO",,,"PG 44 C-2","000-000-000",,,"501"
"Addition","SARATOGA",,,,,"050-314-042",,,"13648"
"Addition","Portola Valley","San Mateo","47","B","4",,,,"30"
"Addition","Saratoga","Santa Clara","65","A","3",,,,"13850"
"Addition","LOS ALTOS HILLS","SANTA CLARA",,,,"000-000-000",,,"27050"
"Addition","La Honda",,,,,"000-000-000",,,"215"
"Addition",,"SANTA CLARA",,,,"000-000-000",,,"3821"
"Addition",,"SANTA CLARA",,,,"000-000-000",,,"3821"
"Addition",,"SANTA CLARA",,,,"000-000-000",,,"15810"
"Addition","Portola Valley",,,,,"000-000-000",,,"200"
"Addition","Woodside","San Mateo","42","D","2",,,,"168"
"Addition","Saratoga","Santa Clara","64","F","4",,,,"13750"
"Addition","Sharon Heights","San Mateo County","43","C","3",,,,"988"
"Addition","Woodside",,,,,"000-000-000",,,"1978"
"Addition","Woodside",,,,,"000-000-000",,,"1144"
"Addition",,"SANTA CLARA",,,,"000-000-000",,,"22855"
"Addition",,"SANTA CLARA",,,,"000-000-000",,,"22855"
"Addition","Los Altos Hills","Santa Clara","50","F","2",,,,"14227"
"Addition",,"SANTA CRUZ",,,,"000-000-000",,,"24991"
"Addition","Los Gatos","Santa Clara",,,,"000-000-000",,,"16451"
"Addition","San Jose","Santa Clara",,,,,,,"1414"
"Addition","Los Altos Hills","Santa Clara","51","C","6",,,,"12195"
"Addition","Portola Valley","San Mateo","47","B","4",,,,"235"
"Addition","Los Altos Hills",,,,,"000-000-000",,,"27233"
"Addition",,"Santa Clara County","58","E","2",,,,"10455"
"Addition","Los Altos Hills","Santa Clara","50","F","3",,,,"13641"
"Addition",,"SAN MATEO",,,,"000-000-000",,,"124"
"Addition","Portola Valley","San Mateo","47","A","3",,,,"118"
"Addition","Hillsborough","San Mateo","28","F","5",,,,"440"
"Addition","Portola Valley","San Mateo","46","E","3",,,,"134"
"Addition","Menlo Park","San Mateo","43","B","3",,,,"1064"
"Addition","Portola Valley","San Mateo","47","A","2",,,,"160"
"Addition","Woodside","San Mateo","36","E","6",,,,"1730"
"Addition","Hillsborough",,,,,"000-000-000",,,"2265"
"Addition","Hillsborough",,,,,"000-000-000",,,"2265"
"Addition","Woodside","San Mateo","46","C","1",,,,"125"
"Addition","Cupertino","Santa Clara","59","C","5",,,,"22635"
"Addition","Saratoga","Santa Clara","65","L","6",,,,"15217"
"Addition","Woodside","San Mateo","42","C","4",,,,"3555"
"Addition","Los Altos Hills",,,,,"000-000-000",,,"13581"
"Addition","Ladera Heights","San Mateo","47","B","1",,,,"34"
"Addition","Woodside","San Mateo","42","D","2",,,,"174"
"Addition","Los Gatos","Santa Clara","71","D","3",,,,"252"
"Addition",,"Santa Cruz",,,,"000-000-000",,,"23374"
"Addition",,"SANTA CLARA",,,,"000-000-000",,,"16451"
"Addition",,"SANTA CLARA",,,,"000-000-000",,,"16701"
"Addition","Los Altos Hills","Santa Clara","51","C","5",,,,"25851"
"Addition","Cupertino",,,,,"000-000-000",,,"22999"
"Addition","Santa Cruz",,,,,"000-000-000",,,"221"
"Addition","Woodside","San Mateo","42","B","1",,,,"173"
"Addition","Saratoga",,,,,"000-000-000",,,"13889"
"Addition","Portola Valley","San Mateo","51","C","1",,,,"116"
"Addition","Los Altos Hills",,,,,"000-000-000",,,"26998"
"Apartment","Cupertino",,,,,"000-000-000",,,"202"
"Apartment","San Carlos",,,,,"000-000-000",,,"2700"
"Apartment","San Carlos",,,,,"000-000-000",,,"2700"
"Apartment","Sunnyvale","SANTA CLARA",,,"PG 59 D-1","000-000-000",,,"815"
"Apartment","Cupertino",,,,,"000-000-000",,,"175"
"BARN","Los Gatos","Santa Cruz",,,,"000-000-000",,,"24915"
"BARN",,"SAN MATEO",,,,"000-000-000",,,"2630"
"Barn/Water Tower",,"Santa Cruz",,,,"000-000-000",,,"24915"
"Basement","Menlo Park",,,,,"000-000-000",,,"1025"
"Basement","Menlo Park",,,,,"000-000-000",,,"1025"
"Basement","Palo Alto",,,,,"000-000-000",,,"184"
"Basement","Palo Alto",,,,,"000-000-000",,,"1745"
"Basement","Saratoga","SANTA CLARA",,,"PG 64 C-1","000-000-000",,,"20910"
"Basement","San Carlos","SAN MATEO",,,"PG 33 B-5","000-000-000",,,"23"
"Basement",,"SAN MATEO",,,,"000-000-000",,,"323"
"Basement","Palo Alto",,,,,"000-000-000",,,"1870"
"Basement","Saratoga",,,,,"000-000-000",,,"21075"
"Basement","San Jose","SANTA CLARA",,,,"000-000-000",,,"1174"
"Basement","San Mateo",,,,,"000-000-000",,,"215"
"Basement","San Mateo",,,,,"000-000-000",,,"215"
"Bluff Stabilization","Aptos",,,,,"000-000-000",,,"735"
"Bridge","Portola Valley",,,,,"000-000-000",,,"255"
"Bridge","Pescadero","San Mateo",,,,,,,
"Bridge","Woodside","San Mateo","42B",,,,,,"280"
"Bridge",,"SAN MATEO",,,,"000-000-000",,,"5360"
"Bridge",,"SAN MATEO",,,,"000-000-000",,,"5360"
"Bridge","Pescadero","San Mateo","57","D","3",,,,
"cart path","San Jose",,,,,"000-000-000",,,"15571"
"Chimmney","Salinas",,,,,"000-000-000",,,"511"
"Church","San Jose",,,,,"000-000-000",,,"545"
"Church","San Jose",,,,,"000-000-000",,,"545"
"Commercial Bldg","San Francisco",,,,,"000-000-000",,,"2655"
"Commercial Bldg","Redwood City",,,,,"000-000-000",,,
"Commercial Bldg","Redwood City",,,,,"000-000-000",,,"3631"
"Commercial Bldg","Redwood City",,,,,"000-000-000",,,"3631"
"Commercial Bldg","Pleasanton",,,,,"000-000-000",,,"5758"
"Commercial Bldg","Santa Clara",,,,,"000-000-000",,,"2908"
"Commercial Bldg","South San Francisco",,,,,"000-000-000",,,
"Commercial Bldg","Cupertino",,,,,"000-000-000",,,"24001"
"Commercial Bldg","Cupertino",,,,,"000-000-000",,,"24001"
"Commercial Bldg","Cupertino",,,,,"000-000-000",,,"24001"
"Commercial Bldg","San Mateo",,,,,"000-000-000",,,"510"
"Commercial Bldg","Fremont","ALAMEDA",,,"PG 110 B-5","000-000-000",,,"4268"
"Commercial Bldg","Marin","Marin",,,,"000-000-000",,,
"Commercial Bldg","Belmont",,,,,"000-000-000",,,"730"
"Commercial Bldg","Belmont",,,,,"000-000-000",,,"720"
"Commercial Bldg","Santa Cruz","Santa Cruz",,,,,,,"3301"
"Commercial Bldg","Milpitas",,,,,"000-000-000",,,
"Commercial Bldg","South San Francisco",,,,,"000-000-000",,,"560"
"Commercial Bldg","MENLO PARK","CALIFORNIA",,,,"000-000-000",,,"1"
"Commercial Bldg","MENLO PARK",,,,,"000-000-000",,,"1"
"Commercial Bldg","MENLO PARK",,,,,"000-000-000",,,"2400"
"Commercial Bldg","MENLO PARK",,,,,"000-000-000",,,"2400"
"Commercial Bldg","Fremont",,,,,"000-000-000",,,"6500"
"Commercial Bldg","Hayward","ALAMEDA",,,,"000-000-000",,,
"Commercial Bldg",,,,,,,,,
"Commercial Bldg","Hayward",,,,,"000-000-000",,,"404"
"Commercial Bldg","MENLO PARK",,,,,"000-000-000",,,"2400"
"Commercial Bldg","MENLO PARK",,,,,"000-000-000",,,"2400"
"Commercial Bldg","MENLO PARK",,,,,"000-000-000",,,"2400"
"Commercial Bldg","MENLO PARK",,,,,"000-000-000",,,"2400"
"Commercial Bldg","MENLO PARK",,,,,"000-000-000",,,"2400"
"Commercial Bldg","MENLO PARK","San Mateo",,,,"000-000-000",,,"2400"
"Commercial Bldg",,"SAN MATEO",,,"Pg. 21, B-","000-000-000",,,
"Commercial Bldg","Milpitas",,,,,"000-000-000",,,
"Commercial Building","San Jose","Santa Clara County","54","E","4",,,,"1675"
"Commercial Building","San Jose","Santa Clara","62","C","4",,,,
"Commercial Building","Watsonville","Santa Cruz","81","98","78",,,,
"Commercial Building","San Jose","Santa Clara","67","C","1",,,,"1830-1836"
"Commercial Building","Los Gatos","Santa Clara","70","D","5",,,,"200"
"Commercial Building","Menlo Park","San Mateo","38","A","4","062-214-110",,,"944"
"Commercial Building","Prunedale","Monterey County","214","F","2",,,,
"Commercial Building","San Jose","Santa Clara","62","C","5",,,,
"Commercial Building","Union City","San Mateo","60","D","7",,,,"30100"
"Commercial Building","San Jose","Santa Clara","62","B","3",,,,"407 & 409"
"Concrete Deck","Los Altos Hills","Santa Clara","51","B","4",,,,"27664"
"Concrete Deck","San Jose","Santa Clara","67","F","5",,,,"4442"
"Concrete Deck","Saratoga","Santa Clara","64","F","5",,,,"20850"
"Condo/Townhouse","San Jose",,,,,"000-000-000",,,"1051"
"Condo/Townhouse","SAN JOSE",,,,,"000-000-000",,,
"Condo/Townhouse","Cupertino",,,,,"000-000-000",,,"7050"
"Condo/Townhouse","SAN JOSE",,,,,"000-000-000",,,
"Condo/Townhouse","Cupertino","Santa Clara",,,,"000-000-000",,,"7050"
"Condo/Townhouse","SAN JOSE",,,,,"000-000-000",,,
"Condo/Townhouse","SAN JOSE",,,,,"000-000-000",,,
"Condo/Townhouse","SAN JOSE",,,,,"000-000-000",,,
"Condo/Townhouse","SAN JOSE",,,,,"000-000-000",,,"5413"
"Condo/Townhouse","SAN JOSE",,,,,"000-000-000",,,"5407"
"Condo/Townhouse","SAN JOSE",,,,,"000-000-000",,,"5440"
"Condo/Townhouse","SAN JOSE",,,,,"000-000-000",,,"5413"
"Condo/Townhouse","SAN JOSE",,,,,"000-000-000",,,"5362"
"Condo/Townhouse","SAN JOSE",,,,,"000-000-000",,,"5401"
"Condo/Townhouse","SAN JOSE",,,,,"000-000-000",,,"5355"
"Condo/Townhouse","SAN JOSE",,,,,"000-000-000",,,"5452"
"Condo/Townhouse","SAN JOSE",,,,,"000-000-000",,,
"Condo/Townhouse","Santa Rosa",,,,,"000-000-000",,,
"Condo/Townhouse","Santa Clara","SANTA CLARA",,,,"000-000-000",,,"2415"
"Condo/Townhouse","San Jose",,,,,"000-000-000",,,
"Condo/Townhouse","Vallejo",,,,,"000-000-000",,,
"Construction Observ.","Campbell","Santa Clara","65","F","3",,,,"106"
"Construction Observ.",,"Santa Clara","70","A","6",,,,"19500"
"Construction Observ.","Los Gatos","Santa Clara","65","F","6",,,,
"Construction Observ.","Los Altos Hills",,,,,,,,
"Construction Observ.","Los Altos Hills","Santa Clara",,,,,,,
"Construction Observ.","Saratoga","Santa Clara",,,,,,,
"Construction Observ.","Saratoga","Santa Clara","64","E","6",,,,"21315"
"Crawlspace","San Jose",,,,,"000-000-000",,,"5858"
"Crawlspace","Monte Sereno","SANTA CLARA",,,"PG 70 E-3","000-000-000",,,"15835"
"Debri Flow",,,,,,,,,
"Debri Flow",,"Santa Cruz",,,,"000-000-000",,,"11837"
"Deck",,"SANTA CLARA",,,,"000-000-000",,,"21097"
"Deck",,"SANTA CLARA",,,,"000-000-000",,,"19800"
"DECK","Los Gatos","SANTA CLARA",,,"PG 70 D-4","000-000-000",,,"19190"
"deck","Morgan Hill",,,,,"000-000-000",,,"3795"
"Distress","Piedmont","Alameda","10","B","3",,,,"1749"
"Distress","Palo Alto","Santa Clara","44","B","1",,,,"915"
"Distress","Los Gatos","Santa Clara","71","D","3",,,,"175"
"Distress","Clayton","Contra Costa","53","E","4",,,,"220"
"Distress","Saratoga","Santa Clara","70","A","2",,,,"15172"
"Distress","Lafayette","Contra Costa","71","C","1",,,,"1051"
"Distress","Moraga","Contra Costa","95","E","1",,,,"1625"
"Distress","San Jose","Santa Clara County",,,,,,,"985"
"Distress","Atherton","San Mateo","43","A","1",,,,"85"
"Distress","San Carlos","San Mateo","33","A","5",,,,"223"
"Distress","Oakland","Alameda","6","A","5",,,,"314"
"Distress","Campbell","Santa Clara","65","F","2",,,,"230"
"Distress","Millbrae","San Mateo","26","C","6",,,,"141"
"Distress","San Jose","Santa Clara County","75","E","1",,,,"1039"
"Distress","Los Altos Hills","Santa Clara","51","C","6",,,,"12264"
"Distress","Los Altos Hills","Santa Clara","51","B","2",,,,"26425"
"Distress","Oakland","Alameda","10","A","4",,,,"4144"
"Distress","Belmont","San Mateo","32","E","3",,,,"2110"
"Distress","San Jose","Santa Clara","67","D","5",,,,"4365"
"Distress","San Jose","Santa Clara","65","A","4",,,,"3513"
"Distress","San Jose","Santa Clara","72","B","3",,,,"360"
"Distress","San Francisco",,,,,"000-000-000",,,"2526"
"Distress","Atherton","San Mateo","37",,,,"C4",,"74"
"Distress","Belmont","San Mateo","32","E","5",,,,"3"
"Distress","San Mateo","San Mateo","32","E","3",,,,"422"
"Distress","Saratoga","Santa Clara","64","E","5",,,,"20865"
"Distress","Campbell","Santa Clara County","66","B","5",,,,"63"
"Distress","San Jose","Santa Clara","67","E","6",,,,"5161"
"Distress","San Jose","Santa Clara","63","E","6",,,,"4143"
"Distress","Ladera Heights","San Mateo","43","C","6",,,,"940"
"Distress","San Jose","Santa Clara County","63","B","1",,,,"1305"
"Distress","Cupertino","Santa Clara","59","E","3",,,,"10532"
"Distress","Campbell","Santa Clara County","66","B","5",,,,"1340"
"Distress","San Mateo","San Mateo","29A","A","4",,,,"540"
"Distress","Ladera Heights","San Mateo","47","C","1",,,,"121"
"Distress","San Jose",,,,,"000-000-000",,,"312"
"Distress","San Jose","Santa Clara","55","F","1",,,,"1077"
"Distress","San Mateo","San Mateo","32","F","3",,,,"305"
"Distress","Sharon Heights","San Mateo","43","B","3",,,,"1080"
"Distress","Mill Valley","Marin","12C","A","4",,,,"186"
"Distress","E. Palo Alto","Santa Clara","38","C","4",,,,"2275"
"Distress","San Mateo","San Mateo","29","D","4",,,,"940"
"Distress","San Mateo","San Mateo","28","C","5",,,,"526"
"Distress","San Jose","Santa Clara","67","E","6",,,,"506 Hyde P"
"Distress","Belmont","San Mateo","28","F","1",,,,"4106"
"Distress","Morgan Hill","Santa Clara","79","B","4",,,,"1135"
"Distress","San Jose","Santa Clara","72","E","2",,,,"802"
"Distress","Boulder Creek","Santa Cruz","14","47","23","089-391-010",,,"19235"
"Distress","Capitola","Santa Cruz","69","70","64",,,,"1014"
"Distress","San Jose","Santa Clara","72A","E","5",,,,"7010"
"Distress","Palo Alto","Santa Clara","44","C","5",,,,"777"
"Distress","Concord","Contra Costa","13","E","3",,,,"2397"
"Distress","Portola Valley","San Mateo","47","C","2",,,,"435"
"Distress","San Anselmo","Marin","6D","E","5",,,,"117"
"Distress","San Bruno","San Mateo","25","E","2",,,,"2461"
"Distress","Santa Clara","Santa Clara","60","F","2",,,,"840"
"Distress","Hillsborough","San Mateo","28","E","3",,,,"2270"
"Distress","Los Altos HIlls","Santa Clara","51","C","3",,,,"14696"
"Distress","Milpitas","Alameda","91","B","5",,,,"2474"
"Distress","Woodside","San Mateo","42","D","2",,,,"104"
"Distress","Hillsborough","San Mateo","28","E","4",,,,"2545"
"Distress","Scotts Valley","Santa Cruz","42","56","48",,,,"713"
"Distress","Los Altos Hills","Santa Clara","51","C","5",,,,"26066"
"Distress","Redwood City","San Mateo","37","A","6",,,,"143"
"Distress","San Jose","Santa Clara","56","E","5",,,,"14301"
"Distress","San Jose","Santa Clara","55","F","1",,,,"3508"
"Distress","San Mateo","San Mateo","32","F","3",,,,"274"
"Distress","Hillsborough","San Mateo","28","F","2",,,,"25"
"Distress","San Francisco","San Francisco","12","C","2",,,,"2478"
"Distress","San Jose","Santa Clara County","62","A","4",,,,"837"
"Distress","San Jose",,,,,"000-000-000",,,"4161"
"Distress","San Jose","Santa Clara","56","B","6",,,,"10161"
"Distress",,"San Mateo County","47","C","1",,,,"150"
"Distress","Redwood City","San Mateo","36",,,,"D4",,
"Distress","San Rafael","Contra Costa","18","B","6",,,,"28"
"Distress","Kentfield","Marin","9D","F","5",,,,"365"
"Distress","San Jose","Santa Clara","55","E","1",,,,"1102"
"Distress","Hillsborough","San Mateo","28","E","6",,,,"520"
"Distress","Los Altos Hills","Santa Clara County","51","B","3",,,,"12670"
"Distress","Los Altos Hills","San Mateo","51","C","4",,,,"12920"
"Distress","Belmont","San Mateo","33","B","4",,,,"1349"
"Distress","Santa Clara","Santa Clara County","60","E","4",,,,"450"
"Distress","Belvedere","Marin","14","C","2",,,,"180"
"Distress","Los Altos","Santa Clara County","51","E","6",,,,
"Distress","Saratoga","Santa Clara","65","A","4",,,,"16615"
"Distress","San Jose","Santa Clara","75","C","1",,,,"7156"
"Distress","Belmont",,,,,,,,
"Distress","Los Gatos","Santa Clara","65","D","5",,,,"17391"
"Distress","Orinda","Contra Costa","71","A","2",,,,"151"
"Distress","Orinda","Contra Costa","69","D","5",,,,"403"
"Distress","E. San Jose","Santa Clara","56","B","2",,,,"10955"
"Distress","San Jose","Santa Clara","72","E","3",,,,"6061"
"Distress",,"Santa Clara","78G","E","2",,,,"17959"
"Distress","Sunnyvale","Santa Clara County","53","C","5",,,,"1043"
"Distress","Cupertino","Santa Clara","60","C","4",,,,"18781"
"Distress","San Jose","Santa Clara","72","B","4",,,,"6332"
"Distress","Belvedere","Marin","14","C","2",,,,
"Distress","Hayward","Alameda","58","D","6",,,,"26564"
"Distress","Saratoga","Santa Clara","65","B","4",,,,"19582"
"Distress","San Jose","Santa Clara",,,,,,,
"Distress","San Mateo","San Mateo","29","F","3",,,,"1933"
"Distress","Los Gatos","Santa Clara","70","E","3",,,,"15742"
"Distress","Sausalito","Marin","14","A","4",,,,"89"
"Distress","San Jose","Santa Clara",,,,,,,"1490"
"Distress","Millbrae","San Mateo","26","A","5",,,,"1006"
"Distress","San Jose","Santa Clara","63","D","2",,,,"2693"
"Distress","Burlingame","San Mateo",,,,,,,"1505"
"Distress","Watsonville","Santa Cruz",,,,,,,"700"
"Distress","Los Altos Hills","SANTA CLARA",,,"PG 51 B-4","000-000-000",,,"10319"
"Distress","Woodside","San Mateo",,,,,,,"325"
"Distress","Los Gatos","Santa Clara","73","D","2",,,,
"Distress","PALO ALTO",,,,,"000-000-000",,,"4022"
"Distress","Los Altos Hills","Santa Clara","51","D","4",,,,"13208"
"Distress","Pacifica","San Mateo","25","A","6",,,,"1165"
"Distress","Saratoga","SANTA CLARA",,,"PG 69 F-2","000-000-000",,,"15270"
"Distress","Mt. Hermon","Santa Cruz","41","50","48",,,,"4"
"Distress","San Jose","SANTA CLARA",,,"PG 56 C-4","000-000-000",,,"15240"
"Distress","Aptos","Santa Cruz",,,,,,,"890"
"Distress","Pacifica",,,,,,,,
"Distress",,"Santa Cruz","26","57","34",,,,"23651"
"Distress","San Jose","SANTA CLARA",,,"PG 62 A-6","000-000-000",,,"1430"
"Distress","Woodside","San Mateo","42","E","2",,,,"81"
"Distress","San Jose","SANTA CLARA",,,"PG 72 E-3","000-000-000",,,"6189"
"Distress","Monte Sereno","Santa Clara","70","B","3",,,,"19221"
"Distress","Saratoga","Santa Clara County","65","A","6",,,,"14241"
"Distress","Portola Valley","San Mateo","47","B","2",,,,"880"
"Distress","San Jose","Santa Clara","55","E","1",,,,"1103"
"Distress","San Jose","Santa Clara","67","E","6",,,,"5048"
"Distress","Los Altos Hills","Santa Clara","51","B","6",,,,"12541"
"Distress","Saratoga","Santa Clara County","64","F","6",,,,"20900"
"Distress","Hayward","Alameda","60","B","3",,,,"3466"
"Distress","Vacaville",,,,,,,,"430"
"Distress","Orinda","Contra Costa","73","C","3",,,,"70"
"Distress","Danville","Contra Costa","98","C","1",,,,"641"
"Distress","Walnut Creek","Contra Costa","75","C","5",,,,"1535"
"Distress","Mountain View","Santa Clara","44","E","5",,,,"246"
"Distress","San Jose","SANTA CLARA",,,"PG 67 F-4","000-000-000",,,"120"
"Distress","Mountain View","SANTA CLARA",,,"PG 52 A-5","000-000-000",,,"946"
"Distress","Prunedale","Monterey","204","D","2",,,,"641"
"Distress","San Carlos","SAN MATEO",,,"PG 33 D-6","000-000-000",,,"1635"
"Distress","Inglewood","Los Angeles","673","E","7",,,,"1112"
"Distress","Hoodland Hills","Los Angeles","559","J","3",,,,"22471"
"Distress","La Honda",,,,,"000-000-000",,,"191"
"Distress","La Honda",,,,,"000-000-000",,,"191"
"Distress","Palo Alto","Santa Clara","44","D","3",,,,"604"
"Distress","Woodland Hills","Los Angeles","559","J","3",,,,"22434"
"Distress","San Jose","Santa Clara","67","A","1",,,,"2102"
"Distress","Saratoga","Santa Clara","64","D","5",,,,"14440"
"Distress","Los Altos","Santa Clara","42","F","2",,,,"186"
"Distress","Santa Rosa","Sonoma",,,,,,,"2179"
"Distress","Sharon Heights","Santa Clara","43","B","3",,,,"1064"
"Distress","Cupertino","Santa Clara","60","B","4",,,,"10184"
"Distress","Los Gatos","Santa Clara","70","E","3",,,,"105"
"Distress","Ben Lomond","Santa Clara","32","43","44","072-091-35",,,"865"
"Distress","Hillsborough","San Mateo","29","A","4",,,,"747"
"Distress","Redwood City","San Mateo","36","F","3",,,,"1426"
"Distress","Los Altos Hills","Santa Clara","50","F","3",,,,"27975"
"Distress","Los Gatos","Santa Clara","70","D","1",,,,"709"
"Distress","San Leandro",,,,,"000-000-000",,,"16376-1638"
"Distress","San Carlos","San Mateo","33","C","6",,,,"700"
"Distress","Pleasanton","Alameda","35","E","6",,,,"7655"
"Distress","Milpitas","Santa Clara","49","A","6",,,,"3834"
"Distress","San Jose","Santa Clara County","62","B","5",,,,"846"
"Distress","Danville","Contra Costa","98","D","3",,,,"576"
"Distress","Alamo","Contra Costa","78","A","3",,,,"385"
"Distress","Los Gatos","Santa Clara","14","46","16",,,,"18360"
"Distress","San Jose","Santa Clara","63","D","5",,,,"2805"
"Distress","Alameda","Alameda","21","E","3",,,,"3"
"Distress","Fremont","Alameda","110","E","1",,,,"46990"
"Distress Carport","San Jose","Santa Clara County","60","C","5",,,,"18920"
"Distress Chimney","Milpitas","Santa Clara",,,,,,,"1779"
"Distress Home","San Jose","Santa Clara County","68","C","2",,,,"3859"
"Distress Pool","Los Altos Hills","Santa Clara","51","C","3",,,,"14193"
"Distress Pool","Menlo Park","San Mateo","43","D","4",,,,"2340"
"Distress Pool","Hillsborough","San Mateo","29","A","5",,,,"1255"
"Distress Residence","Summit","Santa Cruz","78G","D","4","093-311-03",,,"23644"
"Distress Residence","Cupertino","Santa Clara County","59","B","5",,,,"22767"
"Distress Residence","Los Gatos","Santa Clara","71","D","4",,,,"123"
"Distress Residence","Portola Valley","San Mateo County","47","A","3",,,,"2"
"Distress Residence","Santa Clara","Santa Clara","60","D","4",,,,"3512"
"Distress Residence","San Jose","Santa Clara",,,,,,,"538"
"Distress Residence","San Carlos",,,,,,,,"4"
"Distress Residence","Portola Valley","San Mateo","46","E","3",,,,"102"
"Distress Residence","Los Gatos","Santa Clara","71","E","3",,,,"117"
"Distress Residence","Los Gatos","Santa Clara","71","A","6",,,,"16442"
"Distress Residence","San Jose","Santa Clara","67","D","5",,,,"4135"
"Distress Residence","Menlo Park","San Mateo","43","C","3",,,,"700"
"Distress Residence","Pleasanton",,,,,,,,"7727"
"Distress Residence","Woodside","San Mateo","42","B","3",,,,"635"
"Distress Residence",,"Santa Clara County","73","A","4",,,,"20140"
"Distress Residence",,"Santa Cruz","27","66","34",,,,"23649"
"Distress Residence","Los Gatos","Santa Clara","78H","C","3",,,,"24125"
"Distress Residence",,"Santa Cruz County","25","50","7","075-043-32",,,"12316"
"Distressed Driveway","San Jose","Santa Clara","72","C","4",,,,"1250"
"Distressed Driveway","San Jose","Santa Clara County","72","B","4",,,,"6113"
"Distressed Pool","Saratoga","Santa Clara County","69","E","1",,,,"21166"
"Distressed Residence","Saratoga","Santa Clara County","64","E","5",,,,"21240"
"Distressed Slab",,"Santa Clara","65","C","2",,,,"10340"
"Drainage","LOS GATOS","SANTA CLARA",,,"PG 78G E-1","000-000-000",,,"21964"
"Drainage","Skyline","San Mateo","41","D","4",,,,"Lot 10"
"Drainage","San Mateo County","San Mateo","41","D","2",,,,"248"
"Drainage","Saratoga","Santa Clara","65","C","6",,,,"14314"
"Drainage","Redwood Shores","San Mateo","33","D","3",,,,"569"
"Drainage","Los Gatos",,,,,"000-000-000",,,"20911"
"Drainage","San Jose","Santa Clara","54","F","6",,,,"922"
"Drainage","Morgan Hill","Santa Clara","80K","D","6",,,,"13415"
"Drainage","San Jose","Santa Clara County","71","E","4",,,,"5993"
"Drainage","San Jose","Santa Clara","62","C","2",,,,"175"
"Drainage","Los Altos Hills","Santa Clara","51","C","3",,,,"14125"
"Drainage","Watsonville","Santa Cruz","63","95","62",,,,"1245"
"Drainage","Pacifica","San Mateo","23","A","4",,,,"251"
"Drainage","Portola Valley","San Mateo","47","B","2",,,,"260"
"Drainage","Cupertino","Santa Clara","59","D","6",,,,"21610"
"Drainage","Milpitas",,,,,"000-000-000",,,
"Drainage","Los Altos","Santa Clara","59","A","2",,,,"1970"
"Drainage","San Jose","Santa Clara","72","B","5",,"B5",,"6580"
"Drainage","Monte Sereno","Santa Clara","70","F","2",,,,"17354"
"Drainage","Winters",,,,,,,,"710"
"Drainage","San Jose","Santa Clara","72A","B","4",,,,"6332"
"Drainage","Redwood City",,,,"PG 36 C-4","000-000-000",,,"3019"
"Drainage","Sonoma","Sonoma","180","E","3",,,,"2150"
"Drainage","Belmont","San Mateo","32","F","4",,,,"2202"
"Drainage","Los Altos Hills",,"51","C","2",,,,"25829"
"Drainage","Woodside","San Mateo","36","E","6",,,,"135"
"Drainage","Cupertino","Santa Clara",,,,,,,"11219"
"Drainage","Portola Valley","San Mateo","51","C","1",,,,"1227"
"Drainage","San Jose","Santa Clara","72","D","6",,,,"6881"
"Drainage","Los Altos Hills","Santa Clara","51","C","2",,,,"14341"
"Drainage","Los Altos Hills",,,,,"000-000-000",,,"25601"
"Drainage","San Jose","SANTA CLARA",,,"PG 71 D-3","000-000-000",,,"5455"
"Drainage","Saratoga","Santa Clara County","65","C","4",,,,"13449"
"Drainage","Portola Valley","San Mateo County","47","C","3",,,,"4139"
"Drainage","Los Gatos","SANTA CLARA",,,"PG 70 B-3","000-000-000",,,"19425"
"Drainage","Alamo","Contra Costa","78","A","1",,,,"227"
"Drainage","Milpitas","SANTA CLARA",,,"PG 48 D-3","000-000-000",,,"2564"
"Drainage","San Jose",,,,,"000-000-000",,,"7196"
"Drainage",,"Santa Clara","78G","E","3",,,,"22430"
"Drainage","Woodside","San Mateo","36","E","6",,,,"135"
"Drainage","Woodside",,,,,"000-000-000",,,"359"
"Drainage","Portola Valley","San Mateo","47","A","3",,,,"2"
"Drainage","San Carlos",,,,,,,,"282"
"Drainage","Palo Alto","Santa Clara","51","C","1",,,,"4141"
"Drainage","Scotts Valley","Santa Cruz","42","59","47",,,,"133"
"Drainage","Los Altos Hills","Santa Clara","51","A","4",,,,"12348"
"Drainage","Saratoga","Santa Clara County","65","B","4",,,,"19656"
"Drainage","Sunnyvale","Santa Clara","60","B","1",,,,"1425"
"Drainage","San Jose","Santa Clara","67","A","3",,,,"1132"
"Drainage","Scotts Valley","Santa Cruz",,,,,,,"133"
"Drainage","Scotts Valley",,,,,,,,"133"
"Drainage","Los Gatos",,,,,"000-000-000",,,
"Driveway","Saratoga","Santa Clara","65","A","2",,,,"12331"
"Driveway","Hollister",,,,,"000-000-000",,,"650"
"Driveway","Tiburon","Marin","11D","E","5",,,,"250"
"Driveway","Los Gatos","Santa Clara","70","A","2",,,,"15561"
"Driveway","Palo Alto","Santa Clara",,,,,,,"2120"
"Driveway","Portola Valley","San Mateo","47","C","3",,,,"155"
"Driveway",,"Santa Clara","63F","D","6",,,,"18396"
"Driveway","Scotts Valley",,,,,"000-000-000",,,"695"
"Driveway","Woodside","SAN MATEO",,,"PG 42 D-6","000-000-000",,,"2089"
"Driveway","Scotts Valley",,,,,"000-000-000",,,"695"
"Driveway","San Jose","Santa Clara","72","C","5",,,,"1171"
"Driveway","Saratoga","Santa Clara","69","F","4",,,,"16981"
"Driveway","Woodside","SAN MATEO",,,"PG 42 B-4","000-000-000",,,"3600"
"Driveway","San Jose",,,,,"000-000-000",,,"757"
"Driveway","Cupertino","Santa Clara","64","D","1",,,,
"Driveway",,"Santa Cruz",,,,"000-000-000",,,"130"
"EIR","Redwood City","San Mateo",,,,,,,"3733"
"EIR","Felton","Santa Cruz","48","B","3",,,,
"EIR","Felton","Santa Cruz","B3","51","48",,,,
"EIR","Felton","Santa Cruz","48","B","3",,,,
"Eq Distress","San Jose","Santa Clara County","66","E","3",,,,"2331"
"Fault Location","San Jose","Santa Clara","56","B","3",,,,"5360"
"Fault Location",,"Santa Cruz","27",,,,"73",,"25300"
"Fault Location","Woodside","San Mateo","42","E","6",,,,"1815"
"Fault Location","Woodside","San Mateo","42","C","3",,,,"289"
"Fault Location","Woodside","San Mateo","42","B","3",,,,"335"
"Fault Location","Los Altos","Santa Clara","58","F","1",,,,"624"
"Fault Location","Carmel","Monterey",,,,,,,
"Fault Location","Woodside",,,,,,,,
"Fault Location","Milpital",,,,,,,,
"Fault Location",,"Santa Clara","61","D","1",,,,"11593"
"Fault Location","Watsonville","Santa Cruz","55",,"57","106-211-02","104",,
"Fault Location","Woodside","San Mateo","42","C","2","072-060-190",,,"160"
"Fault Location","Woodside","San Mateo","42","D","6",,,,"1909"
"Fault Location","Woodside","San Mateo","42","B","2",,,,"165"
"Fault Location","So. San Francisco","San Mateo","24","C","4",,,,
"Fault Location","San Jose","Santa Clara","56","E","5",,,,"13005"
"FIRE STATION",,"Santa Cruz",,,,"000-000-000",,,"17495"
"Floor Level Survey","Saratoga","Santa Clara County","64","D","5",,,,"14011"
"Floor Level Survey","Belmont","San Mateo","32","E","3",,,,"2725"
"Floor Level Survey","San Jose","Santa Clara",,,,,,,"1332"
"Floor Level Survey",,,,,,,,,
"Foundation","Portola Valley",,,,,"000-000-000",,,"135"
"Foundation","Los Gatos","SANTA CLARA",,,,"000-000-000",,,"20911"
"Foundation","Oakland",,,,,"000-000-000",,,"6507"
"Foundation","San Jose",,,,,"000-000-000",,,"1743"
"Foundation","Danville",,,,,"000-000-000",,,"2"
"Foundation","San Jose","SANTA CLARA",,,,"000-000-000",,,"2455"
"Foundation","Los Altos Hills","SAN MATEO",,,,"000-000-000",,,"23284"
"Foundation","Los Gatos","SANTA CLARA",,,,"000-000-000",,,"19190"
"Foundation","SAN JOSE",,,,,"000-000-000",,,"1305"
"Foundation","La Honda",,,,,"000-000-000",,,"170"
"Foundation","Palo Alto","SANTA CLARA",,,"PG 44 D-4","000-000-000",,,"3419"
"Foundation","San Jose","SANTA CLARA",,,"PG 72 D-5","000-000-000",,,"6659"
"Foundation","Los Altos Hills",,,,,"000-000-000",,,"24696"
"Garage","Menlo Park","San Mateo","43","C","4",,,,"2340"
"Garage","Cupertino","SANTA CLARA",,,,"000-000-000",,,"17050"
"Garage",,"Santa Clara County","78G","E","1","689-240-27",,,"21964"
"Garage","Hillsborough","San Mateo","29","A","3",,,,"730"
"Garage",,"Santa Clara County","58","E","1",,,,"11552"
"Garage","San Jose","Santa Clara","61","E","5",,,,"1183"
"Garage","Los Gatos",,,,,"000-000-000",,,"100"
"Garage","Los Gatos",,,,,"000-000-000",,,"100"
"Garage","Woodside","San Mateo","46","C","2",,,,"85"
"Garage",,"SANTA CLARA",,,,"000-000-000",,,"19530"
"Garage","Redwood City","San Mateo","36","B","4",,,,"248"
"Garage","Los Altos Hills","Santa Clara","51","A","5",,,,"26750"
"Garage",,"SAN MATEO",,,,"000-000-000",,,"8"
"Garage","San Jose","Santa Clara","61","F","6",,,,"1146"
"Gate House","Los Angeles",,,,,,,,"1899"
"Guesthouse","Woodside","San Mateo",,,,"000-000-000",,,"7"
"Landslide",,"Mendocino",,,,,,,
"Landslide",,"Santa Cruz County","27","69","63","097-171-06",,,"25505"
"Landslide","Martinez","Contra Costa","10","A","1",,,,"1280"
"Landslide","Woodside",,,,,"000-000-000",,,"2085"
"Landslide","Saratoga",,,,,"000-000-000",,,"13800/1381"
"Landslide","Saratoga",,,,,"000-000-000",,,"13800"
"Landslide","Los Altos Hills","Santa Clara","51","B","6",,,,"12579"
"Landslide","San Bruno","San Mateo","25","F","4",,,,"310-350"
"Landslide","Portola Valley","San Mateo","46","E","2",,,,"40"
"Landslide","San Jose","Santa Clara County","72","F","5",,,,"7011"
"Landslide","La Honda","San Mateo","50","C","5","083-007-035",,,
"Landslide","Pleasant Hill","Contra Costa","44","B","1",,,,"6231"
"Landslide","Morgan Hill","SANTA CLARA",,,,"000-000-000",,,"3435"
"Landslide","Los Gatos",,,,,"000-000-000",,,"146"
"Landslide","Los Gatos",,,,,"000-000-000",,,"146"
"Landslide","Lexington","Santa Clara","73","F","6",,,,"17250"
"Landslide","Aptos",,,,,"000-000-000",,,"3643"
"Landslide","Los Gatos","Santa Clara","70","D","5","529-30 -017",,,
"Landslide","Antioch","Contra Costa","55","E","2",,,,"3316"
"Landslide","Saratoga","SANTA CLARA",,,"PG 64 D-4","000-000-000",,,"22183"
"Landslide",,"Santa Clara","78H","B","2",,,,"23490"
"Landslide","Cupertino","Santa Clara","64","D","1",,,,"11640"
"Landslide","Orinda","Contra Costa","71","A","4",,,,"15"
"Landslide",,"Santa Cruz",,,,"000-000-000",,,"26199"
"Landslide","Saratoga","Santa Clara",,,,,,,
"Landslide",,"Santa Cruz","73","B","6",,,,"21864"
"Landslide","Santa Cruz",,,,,"000-000-000",,,"190"
"Landslide",,"San Mateo",,,,"000-000-000",,,
"Landslide","Cupertino","Santa Clara","64","D","1",,,,"21925"
"Landslide","San Jose","Santa Clara","56","A","2",,,,"4168"
"Landslide","Guerneville","Sonoma","112","B","5",,,,"17914"
"Landslide","Los Gatos","Santa Clara","78H","B","2",,,,"23557"
"Landslide","Portola Valley","San Mateo","47","B","5",,,,"1"
"Landslide","Portola Valley","San Mateo","47","B","5",,,,"1"
"Landslide",,"Santa Clara",,,,,,,"25255"
"Landslide",,"San Mateo","51A","B","6",,,,
"Landslide","La Honda",,,,,"000-000-000",,,
"Landslide","Cupertino","Santa Clara","64","F","2",,,,"21401"
"Landslide","Aptos",,,,,"000-000-000",,,"4460"
"Landslide",,"Santa Cruz","27","72","35",,,,"24565"
"Landslide","Los Altos Hills","Santa CLara County","58","E","1",,,,"15560"
"Landslide","San Jose","Santa Clara",,,,,,,
"Landslide",,"SANTA CLARA",,,,"000-000-000",,,"6821"
"Landslide",,"Santa Cruz",,,,"093-421-017",,,
"Landslide","Redwood Estates","SANTA CLARA",,,"PG 78G D-2","000-000-000",,,
"Landslide","Aptos",,,,,"000-000-000",,,"2201"
"Landslide","San Carlos","San Mateo",,,"PG 36 C-1","000-000-000",,,"1010"
"Landslide",,"San Mateo",,,,"000-000-000",,,
"Landslide","Los Altos Hills","Santa Clara","51","B","3",,,,"26390"
"Landslide","Monte Sereno","Santa Clara","70","C","2",,,,"18750"
"Landslide",,"Santa Clara",,,,,,,
"Landslide","Scotts Valley","Santa Cruz",,,,"000-000-000",,,"365"
"Landslide","Pacifica","SAN MATEO",,,"PG 20 D-6","000-000-000",,,"250"
"Landslide","E. San Jose","Santa Clara","63A","A","3","662-180-04",,,
"Landslide","Saratoga","Santa Clara","69","F","2",,,,"20620"
"Landslide","Boulder Creek","Santa Cruz","7","34","20",,,,"500"
"Landslide","La Honda","San Mateo",,,,,,,
"Landslide","Cupertino","Santa Clara","59","B","5",,,,"10517"
"Landslide","Cupertino","Santa Clara","59","B","5",,,,"10571"
"Landslide","Monte Sereno","Santa Clara County","70","B","3",,,,"19221"
"Landslide","Woodside","San Mateo","46","D","3",,,,
"Landslide","Los Altos Hills","SAN MATEO",,,,"000-000-000",,,"12155"
"Landslide",,"Santa Clara","58","D","1",,,,"10925"
"Landslide",,"San Mateo","47","C","1",,,,"930"
"Landslide","Woodside",,,,,"000-000-000",,,"359"
"Landslide","Portola Valley","San Mateo","51","C","1",,,,"1235"
"Landslide","Woodside",,,,,"000-000-000",,,"359"
"Landslide","Woodside","San Mateo","46","C","2",,,,"155"
"Landslide","Nice",,,,,,,,"3837"
"Landslide","Los Trancos Woods","San Mateo","51","C","2",,,,"Lot 8"
"Landslide","Los Trancos Woods","San Mateo","51","B","2",,,,"Lot 1"
"Landslide","Monte Sereno","Santa Clara","70","D","2",,,,"18350"
"Landslide","Rio Dell","Humboldt",,,,,,,"1909"
"Landslide","Scotts Valley","Santa Cruz","26","57","41","074-241-02",,,"3155"
"Landslide","Woodside","San Mateo","46","D","3","076-110-040",,,"548"
"Landslide","Los Gatos","SANTA CLARA",,,"Pg. 70, B-","000-000-000",,,"15681"
"Landslide",,"San Mateo","51","C","3","080-152-003",,,
"Landslide",,"San Mateo",,,,"000-000-000",,,"5360"
"Landslide","San Jose","Santa Clara","56","C","3",,,,"15760"
"Landslide","Saratoga",,,,,"000-000-000",,,"21356"
"Landslide","Los Altos Hills","Santa Clara","51","A","4",,,,"27769"
"Landslide","Monte Sereno","Santa Clara","70","C","4",,,,"18565"
"Landslide","San Jose","Santa Clara","55","F","1",,,,"1017"
"Landslide","Los Altos Hills",,,,,"000-000-000",,,"11559"
"Landslide","Cupertino","Santa Clara","64","D","1",,,,"22061"
"Landslide","Los Altos Hills",,,,,"000-000-000",,,"11559"
"Landslide",,"Santa Clara","78H","C","3",,,,"23885"
"Landslide","Los Altos Hills",,,,,"000-000-000",,,"14174"
"Landslide","Woodside","San Mateo","46","C","1",,,,"125"
"Landslide","Mill Valley","San Francisco","12B","D","3",,,,"64"
"Landslide","Saratoga","Santa Clara","64","E","5",,,,"21054"
"Leachfield","Los Altos Hills",,,,,"000-000-000",,,"25541"
"Leachfield","Portola Valley",,,,,"016-234-020",,,
"Leachfield","San Carlos","San Mateo","36","B","2",,,,"750"
"Leachfield","Woodside","Santa Clara","36","B","5",,,,"575"
"Leachfield","Skylonda","San Mateo","46","B","3","075-321-150",,,
"Leachfield","Skylonda","San Mateo",,,,"75-321-010",,,"Parcel #2"
"Leachfield","Redwood City","San Mateo County","36","B","3","051-417-200",,,"1136"
"Leachfield","Woodside","San Mateo",,,,"072-201-042",,,"65"
"Leachfield",,"Santa Cruz",,,,"093-392-002",,,
"Leachfield",,"Santa Clara",,,,"503-043-014",,,
"Leachfield","Portola Valley","San Mateo","47","B","2",,,,"349"
"Leachfield",,"San Mateo","51","C","1",,,,"159"
"Leachfield","Portola Valley","San Mateo","46","E","3",,,,"6"
"Leachfield","Portola Valley","San Mateo","47","C","2",,,,"430"
"Leachfield","Woodside","San Mateo","42","B","4","072-173-020",,,
"Leachfield",,"San Mateo","51","C","1",,,,"159"
"Leachfield","Los Trancos Woods","San Mateo","51","C","2",,,,"170"
"Leachfield",,"SANTA CLARA",,,,"000-000-000",,,
"Leachfield","Woodside","San Mateo","42","B","4","072-173-020",,,
"Leachfield","Portola Valley","San Mateo","47","B","3",,,,"72"
"Leachfield","LOS ALTOS HILLS","SANTA CLARA",,,,"000-000-000",,,"27050"
"Leachfield","San Mateo County","San Mateo","50","B","5",,,,"141"
"Leachfield","Pescadero","San Mateo","56","B","5",,,,
"Leachfield","Woodside","San Mateo",,,,"072-074-05",,,"30"
"Leachfield","Cupertino","Santa Clara","63F","A","3","351-31 -4",,,"11655"
"Leachfield","Los Gatos","SANTA CLARA",,,"PG 70 B-3","000-000-000",,,"19555"
"Leachfield","Portola Valley",,,,,"000-000-000",,,"300"
