number,StreetName,City,County,LOC_PAGE,LOC_LONG,LOC_LAT,APN,TOMBROBOX
,,,,,,,,
,,,,,,,,
,,Los Altos Hills,Santa Clara,,,,,
,,Los Altos Hills,,,,,,
12824,Brendel Dr.,Los Altos Hills,Santa Clara,51,C,5,,
64,Madrone Park Circle,Mill Valley,San Francisco,12B,D,3,,
1125,Barcelona Drive,Pacifica,San Mateo,20,F,6,,
13651,Paseo Del Roblei,Los Altos Hills,Santa Clara,50,E,3,,
12002,Old Snakey Road,Los Altos Hills,Santa Clara,51,B,6,,
16388,Sanborn Road,Saratoga,Santa Clara,69,C,3,,
291,Claudia,Moraga,Contra Costa,74,A,4,,
,,,Mendocino,,,,,
175,Westhill Drive,Los Gatos,Santa Clara,71,D,3,,
26335,Esperanza,Los Altos Hills,Santa Clara,51,B,3,,
1408,Avondale Road,Hillsborough,San Mateo,28,F,6,,
2340,Banner Drive,Menlo Park,San Mateo,43,C,4,,
12331,Ted Court,Saratoga,Santa Clara,65,A,2,,
223,Exeter Avenue,San Carlos,San Mateo,33,A,5,,
141,Minorca Way,Millbrae,San Mateo,26,C,6,,
12264,Tepa Way,Los Altos Hills,Santa Clara,51,C,6,,
26425,Aric Lane,Los Altos Hills,Santa Clara,51,B,2,,
2110,Forest Avenue,Belmont,San Mateo,32,E,3,,
1510,Mt. Whitney Drive,San Jose,Santa Clara,63,B,1,,
3513,Chablis Circle,San Jose,Santa Clara,65,A,4,,
360,Henderson Drive,San Jose,Santa Clara,72,B,3,,
74,Loyden Drive,Atherton,San Mateo,37,,,,C4
12579,Corbetta Lane,Los Altos Hills,Santa Clara,51,B,6,,
422,West 39th Avenue,San Mateo,San Mateo,32,E,3,,
20865,Michaels Drive,Saratoga,Santa Clara,64,E,5,,
5161,Baron Park Drive,San Jose,Santa Clara,67,E,6,,
940,La Mesa Drive,Ladera Heights,San Mateo,43,C,6,,
10532,Esquire Place,Cupertino,Santa Clara,59,E,3,,
569,Compas Circle,Redwood Shores,San Mateo,33,D,3,,
540,Fathem Drive,San Mateo,San Mateo,29A,A,4,,
121,Escanro Way,Ladera Heights,San Mateo,47,C,1,,
1077,Vista Del Mar,San Jose,Santa Clara,55,F,1,,
350,Bridge Avenue,Hillsborough,San Mateo,29,C,6,,
305,Rollings Hills,San Mateo,San Mateo,32,F,3,,
1080,Continental Drive,Sharon Heights,San Mateo,43,B,3,,
186,Marion Avenue,Mill Valley,Marin,12C,A,4,,
2275,Pulgas Avenue,E. Palo Alto,Santa Clara,38,C,4,,
940,S. Fremont Street,San Mateo,San Mateo,29,D,4,,
526,Virginia Avenue,San Mateo,San Mateo,28,C,5,,
4106,Marsten Avenue,Belmont,San Mateo,28,F,1,,
1135,Deanna Court,Morgan Hill,Santa Clara,79,B,4,,
802,Coffey Court,San Jose,Santa Clara,72,E,2,,
17250,Sunshine Lane,Lexington,Santa Clara,73,F,6,,
777,Kendall Avenue,Palo Alto,Santa Clara,44,C,5,,
2397,Panoramic Drive,Concord,Contra Costa,13,E,3,,
435,Golden Oak,Portola Valley,San Mateo,47,C,2,,
117,Ridge Road,San Anselmo,Marin,6D,E,5,,
2461,Fleetwood Drive,San Bruno,San Mateo,25,E,2,,
2270,Skyfarm Drive,Hillsborough,San Mateo,28,E,3,,
14696,Manuella Road,Los Altos HIlls,Santa Clara,51,C,3,,
2474,Sueno Way,Milpitas,Alameda,91,B,5,,
2545,Skyfarm Drive,Hillsborough,San Mateo,28,E,4,,
713,Cadillac Dr.,Scotts Valley,Santa Cruz,42,56,48,,
143,Beresford Avenue,Redwood City,San Mateo,37,A,6,,
,,San Carlos,,,,,,
274,42nd Avenue,San Mateo,San Mateo,32,F,3,,
25,Denham Court,Hillsborough,San Mateo,28,F,2,,
2478,23rd Street,San Francisco,San Francisco,12,C,2,,
250,Round Hill Road,Tiburon,Marin,11D,E,5,,
10161,Griffith Street,San Jose,Santa Clara,56,B,6,,
,,Redwood City,San Mateo,36,,,,D4
409,Nevada Street,San Francisco,San Francisco,15,A,2,,
23490,Wright Station Road,,Santa Clara,78H,B,2,,
28,Castlewood Drive,San Rafael,Contra Costa,18,B,6,,
11640,Regnart Canyon Road,Cupertino,Santa Clara,64,D,1,,
365,Crown Road,Kentfield,Marin,9D,F,5,,
520,Darrell Raod,Hillsborough,San Mateo,28,E,6,,
1349,Paloma,Belmont,San Mateo,33,B,4,,
,,Saratoga,Santa Clara,,,,,
21864,Old Bear Creek Road,,Santa Cruz,73,B,6,,
180,Beach Road,Belvedere,Marin,14,C,2,,
16615,Mallory Court,Saratoga,Santa Clara,65,A,4,,
7156,Wooded Lane,San Jose,Santa Clara,75,C,1,,
17391,Hyde Street,Los Gatos,Santa Clara,65,D,5,,
151,La Espiral Drive,Orinda,Contra Costa,71,A,2,,
4168,Peppertree Lane,San Jose,Santa Clara,56,A,2,,
417,Greenbrier Road,Half Moon Bay,San Mateo,39,F,2,,
17914,Old Monte Rio Road,Guerneville,Sonoma,112,B,5,,
403,Camino Sobrante,Orinda,Contra Costa,69,D,5,,
25396,La Loma Drive,Los Altos Hills,Santa Clara,51,C,6,,
23557,Morrell Cut-Off,Los Gatos,Santa Clara,78H,B,2,,
1245,Eureka Canyon Road,Watsonville,Santa Cruz,63,95,62,,
25255,Mt. Bache Road,,Santa Clara,,,,,
251,El Dorado Drive,Pacifica,San Mateo,23,A,4,,
1601,Kalispell Court,Sunnyvale,Santa Clara,59,D,2,,
6061,Indian Avenue,San Jose,Santa Clara,72,E,3,,
21401,Prospect Road,Cupertino,Santa Clara,64,F,2,,
17959,Mountain Charlie Rd,,Santa Clara,78G,E,2,,
364,Malcom Avenue,Belmont,San Mateo,33,A,3,,
434,Carmelita Drive,Los Altos,Santa Clara,52,B,4,,
1970,Laver Court,Los Altos,Santa Clara,59,A,2,,
603,Hickory Court,Santa Clara,Santa Clara,60,D,3,,
18781,Arata Way,Cupertino,Santa Clara,60,C,4,,
6332,Gondola Way,San Jose,Santa Clara,72,B,4,,
96,Hillbrook Drive,Portola Valley,San Mateo,47,B,3,,
,P.O. Box 440,Belvedere,Marin,14,C,2,,
122200,Edgecliff Place,Los Altos Hills,Santa Clara,51,C,6,,
26564,Hickory Avenue,Hayward,Alameda,58,D,6,,
7,Oak Hill Drive,Woodside,San Mateo,42,C,4,,
1933,Shoreview,San Mateo,San Mateo,29,F,3,,
15742,Kavin Lane,Los Gatos,Santa Clara,70,E,3,,
6332,Benzo Drive,San Jose,Santa Clara,72A,B,4,,
89,Spencer Road,Sausalito,Marin,14,A,4,,
1006,Helen Drive,Millbrae,San Mateo,26,A,5,,
2693,Flint,San Jose,Santa Clara,63,D,2,,
1861,Lenolt Street,Redwood City,San Mateo,36,E,1,,
1505,Adeline Drive,Burlingame,San Mateo,,,,,
700,Green Valley Extnsn.,Watsonville,Santa Cruz,,,,,
1552,Bird Ave.,San Jose,Santa Clara,62,A,6,,
3512,Gibson Avenue,Santa Clara,Santa Clara,60,D,4,,
14092,Aradia Palm Drive,Saratoga,Santa Clara,,,,,
2150,Thornsberry Road,Sonoma,Sonoma,180,E,3,,
2202,Coronet Blvd,Belmont,San Mateo,32,F,4,,
946,Patricia Way,San Jose,Santa Clara,61,F,6,,
538,Bliss Court,San Jose,Santa Clara,,,,,
4,Vista Del Grande,San Carlos,,,,,,
325,Kings Mountain Road,Woodside,San Mateo,,,,,
1779,Fallen Leaf Drive,Milpitas,Santa Clara,,,,,
11611,Rebecca Lane,Los Altos Hills,Santa Clara,,,,,
10340,Johnson Ave.,,Santa Clara,65,C,2,,
12113,Old Snakey Road,Los Altos Hills,Santa Clara,51,B,6,,
27525,Edgerton Road,Los Altos Hills,Santa Clara,51,A,5,,
,Gerth Lane,Los Altos Hills,Santa Clara,50,F,1,,
11070,Eastbrook Avenue,Santa Clara County,Santa Clara,51,E,6,,
13151,W. Sunset Drive,Los Altos Hills,Santa Clara,51,D,4,,
13831,La Paloma Road,Los Altos Hills,Santa Clara,51,C,4,175-350-80,
170,Vista Verde Way,Los Trancos Woods,San Mateo,51,C,2,,
10045,Cresent Drive,Cupertino,Santa Clara,59,C,4,,
,Winding Way,,Santa Clara,58,E,1,331-002-029,
,Albertsworth Lane,,Santa Clara,58,E,2,,
14463,Liddicoat Circle,Los Altos Hills,Santa Clara,50,F,2,,
66,Third Street,Los Altos,Santa Clara,51,D,3,,
462,Ferdinand,El Granada,San Mateo,30A,B,5,,
,Ravensbury Avenue,Los Altos Hills,Santa Clara,58,E,2,,
13208,E. Sunset Drive,Los Altos Hills,Santa Clara,51,D,4,,
223,Ferndale Way,,San Mateo,55,D,4,,
26390,Anacapa Drive,Los Altos Hills,Santa Clara,51,B,3,,
,,Cupertino,Santa Clara,,,,,
,,Saratoga,Santa Clara,,,,397-449-,
,Top Of The Hill Ct.,,Santa Clara,,,,,
,,Los Gatos Hills,Santa Clara,,,,,
,Carmel Ranch,,Monterey,,,,,
1980,San Miguel Canyon Rd,Salinas,Monterey,,,,,
415,West Maple,Woodside,San Mateo,36,B,6,,
,Oregon & Ellsworth,Berkeley,Alameda,4,C,2,,
"Lot 16, Bl",Tax Code Area 69-101,,Santa Cruz,,,,,
13850,Pierce,Saratoga,Santa Clara,65,A,3,,
5824,Marshall Street,Oakland,Alameda,4,A,4,,
500,Echo Lane,Boulder Creek,Santa Cruz,7,34,20,,
802,Portola Road,Portola Valley,San Mateo,47,A,3,,
,,La Honda,San Mateo,,,,,
,Colusa Circle I,Kensington,Alameda,6,E,1,,
81,Oakhaven Way,Woodside,San Mateo,42,E,2,,
,Cherokee Way,Portola Valley,San Mateo,47,B,3,,
70,Hayfields Road,Portola Valley,San Mateo,46,E,2,,
645,Filbert,,San Mateo,41,D,3,,
,,Portola Valley,San Mateo,46,E,3,,
"Lot 9, Tra",Arnerich Hill Road,,Santa Clara,71,D,6,,
,Haymeadow Drive,Saratoga,Santa Clara,69,E,1,,
,,Willits,Mendicino,,,,,
3733,Jefferson Avenue,Redwood City,San Mateo,,,,,
26463,Aric,Los Altos Hills,Santa Clara County,51,B,2,,
19221,Mountain Way,Monte Sereno,Santa Clara,70,B,3,,
19221,Mountain Way,Monte Sereno,Santa Clara County,70,B,3,,
14012,Palomino Way,Saratoga,Santa Clara County,64,D,5,,
,,,,,,,,
201,Family Farm Road,Woodside,San Mateo County,46,E,1,,
,,Santa Cruz County,,,,,,
21680,Wardell Road,Saratoga,Santa Clara,64,E,3,,
,Knickerbocker Road,Sunnyvale,Santa Clara,52,D,4,,
,Moffet Field,Moffett AFB,Santa Clara County,45,,,,
11593,Upland Way,,Santa Clara,61,D,1,,
1369,Echo Valley Drive,,Santa Clara,75,D,1,,
19760,Oakmont Drive,,Santa Clara,73,D,5,,
,Reese Circle,Prunedale,Monterey County,214,F,2,125-022-20,
,Reese Circle,Prunedale,Monterey County,214,F,2,,
,,Woodside,San Mateo,,,,,
173,Raymundo Drive,Woodside,San Mateo,42,A,1,,
160,Olive Hill Road,Woodside,San Mateo,42,C,2,072-060-190,
141,Raymundo Drive,Woodside,San Mateo,42,A,1,,
3603,Woodside Road,Woodside,San Mateo,42,C,4,,
20900,Canyon View Drive,Saratoga,Santa Clara County,64,F,6,,
Lot 6,Mount Crest Place,Cupertino,Santa Clara,59,D,6,,
36,Vist Verde Way,Portola Valley,San Mateo,51,C,3,,
,Bubb Rd. @ Regnart,Cupertino,Santa Clara,64,D,1,,
930,La Mesa Drive,,San Mateo,47,C,1,,
15,Newman Lane,Woodside,San Mateo,42,D,2,,
115,Toyone Court,Woodside,San Mateo,42,D,2,,
165,Olive Hill Road,Woodside,San Mateo,42,B,2,,
14800,Old Japanese Road,,Santa Cruz County,20,59,33,,
,Adobe Creek Lodge,Los Altos Hills,San Mateo,,,,,
14220,Pike Road,Saratoga,Santa Clara,64,E,5,,
430,Yellowstone Drive,Vacaville,,,,,,
282,Club Drive,San Carlos,,,,,,
3837,Lakeview Drive,Nice,,,,,,
70,La Crest Drive,Orinda,Contra Costa,73,C,3,,
641,Adobe Drive,Danville,Contra Costa,98,C,1,,
1535,Sunny Court,Walnut Creek,Contra Costa,75,C,5,,
10951,Edgemont Drive,San Jose,Santa Clara,56,B,2,,
641,Paradise Canyon Road,Prunedale,Monterey,204,D,2,,
16,Vista Lane,Burlingame,San Mateo,28,D,2,,
4135,Haines Avenue,San Jose,Santa Clara,67,D,5,,
1719,Valley View Avenue,Belmont,San Mateo,33,A,4,,
13001,La Cresta Drive,Los Altos Hills,Santa Clara,51,B,3,,
27285,Elena Road,Los Altos Hills,Santa Clara,,,,,
26750,Almaden Court,Los Altos Hills,Santa Clara,51,A,5,,
104,Paradise Lane,Fortuna,Humboldt,,,,,
7727,Red Bud Court,Pleasanton,,,,,,
604,Wellsbury Ct.,Palo Alto,Santa Clara,44,D,3,,
12420,Saddle Road,Carmel Valley,Monterey,,,,,
175,Westhill,Los Gatos,Santa Clara,71,D,4,,
1909,Monument Road,Rio Dell,Humboldt,,,,,
,Stanford U. Parcel,Portola Valley,San Mateo,46,E,3,076-170-030,
347,Massol,Los Gatos,Santa Clara,70,D,4,,
,Almaden & Alma,San Jose,Santa Clara,62,C,5,,
125,Hillside Drive,Woodside,San Mateo,42,D,2,,
,Lake Boulevard,,San Mateo,36,,,571-620-90,
1465,Fairway,Los Altos Hills,Santa Clara,51,F,6,,
186,Alta Vista,Los Altos,Santa Clara,42,F,2,,
21401,Tollgate Road,Saratoga,Santa Clara,64,D,6,,
17255,Soda Springs Road,,Santa Clara,74,B,4,,
440,Reimillard,Hillsborough,San Mateo,28,F,5,,
2179,Alejandro Drive,Santa Rosa,Sonoma,,,,,
1064,Cascade Court,Sharon Heights,Santa Clara,43,B,3,,
1064,Cascade Court,Menlo Park,San Mateo,43,B,3,,
,,Los Trancos Woods,,,,,,
,GOLDEN HILL DRIVE,PORTOLA VALLEY,SAN MATEO,,,,077-212-130,
145,DEER MEADOW LANE,PORTOLA VALLEY,SAN MATEO,,,,077-212-130,
,GOLDEN HILLS DRIVE,PORTOLA VALLEY,SAN MATEO,,,,077-212-130,
,GOLDEN HILLS DRIVE,PORTOLA VALLEY,,,,,000-000-000,
14821,Bohlman Road,Saratoga,Santa Clara,69,F,1,517-130-15,
14821,Bohlman Road,Saratoga,Santa Clara,69,E,1,,
725,Portola Road,Portola Valley,San Mateo,46,F,3,,
105,Forest Avenue,Los Gatos,Santa Clara,70,E,3,,
14690,Saltamontes Way,Los Altos Hills,Santa Clara,51,C,2,,
24642,Olive Tree Lane,Los Altos Hills,Santa Clara,58,,,,D2
24624,Olive Tree Lane,Los Altos Hills,Santa Clara,58,D,2,338-353-6,
100A,Mr. Hamilton Road,,Santa Clara,56A,A,5,,
14634,AMBRIC KNOLLS ROAD,SARATOGA,SANTA CLARA,,,"pg. 69, E-",503-055-022,
,Swett Road,Los Trancos Woods,San Mateo,41,C,4,,
20850,Verde Vista Lane,Saratoga,Santa Clara,64,F,5,,
747,Bromfield Avenue,Hillsborough,San Mateo,29,A,4,,
1426,El Camino,Redwood City,San Mateo,36,F,3,,
5368,Avenida Almendros,San Jose,Santa Clara,72,F,1,,
27975,Roble Blanco,Los Altos Hills,Santa Clara,50,F,3,,
709,Bicknell Road,Los Gatos,Santa Clara,70,D,1,,
27769,Edgarton Road,Los Altos Hills,Santa Clara,51,A,4,,
18565,Overlook Drive,Monte Sereno,Santa Clara,70,C,4,,
1017,Vista Del Mar,San Jose,Santa Clara,55,F,1,,
700,Knoll Drive,San Carlos,San Mateo,33,C,6,,
1146,Garfield Ave.,San Jose,Santa Clara,61,F,6,,
84,Fairview Avenue,Atherton,San Mateo,43,B,2,,
128,Campos Verde,Los Gatos,Santa Clara,71,D,3,,
1534,Mt. Palomar Drive,San Jose,Santa Clara,63,B,1,,
15252,Montalvo Road,Saratoga,Santa Clara,70,A,2,,
1041,Sierra Drive,Menlo Park,Santa Clara,43,B,3,,
924,Holly Road,Belmont,San Mateo,33,B,4,,
25851,Vinedo Lane,Los Altos Hills,Santa Clara,51,C,5,,
25851,Vinedo Lane,Los Altos Hills,Santa Clara,,,,,
576,Contrada Circle,Danville,Contra Costa,98,D,3,,
385,David Drive,Alamo,Contra Costa,78,A,3,,
3,Garden Road,Alameda,Alameda,21,E,3,,
6771,Armour Drive,Oakland,Alameda,6,C,6,,
1749,Trestle Glen Road,Piedmont,Alameda,10,B,3,,
220,Bigelow Street,Clayton,Contra Costa,53,E,4,,
1051,Upper Happy Valley,Lafayette,Contra Costa,71,C,1,,
1625,Camino Pablo,Moraga,Contra Costa,95,E,1,,
70,Stonington Court,Danville,Contra Costa,98,D,2,,
1227,Upper Happy Valley,Lafayette,Contra Costa,71,C,1,,
314,Florence Avenue,Oakland,Alameda,6,A,5,,
1280,Escobar Street,Martinez,Contra Costa,10,A,1,,
,,Antioch,,,,,,
4144,Greenwood Avenue,Oakland,Alameda,10,A,4,,
30,Valencia Court,Portola Valley,San Mateo,47,C,3,,
13991,Pike Road,Saratoga,Santa Clara,64,E,5,,
15825,Alta Vista Way,San Jose,Santa Clara,56,B,2,,
797,Wayside Road,Portola Valley,San Mateo,46,E,3,,
,La Honda Road,La Honda,San Mateo,50,C,2,,
,Palomino Way,Saratoga,Santa Clara,64,D,5,503-068-002,
248,Huckleberry Trail,San Mateo County,San Mateo,41,D,2,,
140,Bear Gulch Drive,Portola Valley,San Mateo,47,C,3,,
,Iron Springs Road,,Santa Clara,73,D,5,,
1200,Woodland Avenue,Menlo Park,San Mateo,38,A,5,,
,Pike Road,Saratoga,Santa Clara,64,D,5,503-030-074,
165,Meadowood Drive,Portola Valley,San Mateo,47,A,2,,
25300,Adams Road,,Santa Cruz,27,,,,73
25707,Lomita Linda Court,Los Altos Hills,Santa Clara,58,E,1,,
12151,Country Squire Lane,Saratoga,Santa Clara,65,B,2,,
40,Hayfields Road,Portola Valley,San Mateo,46,E,2,,
,Canada,La Honda,San Mateo,50,C,5,083-007-035,
24993,Skyline Road,,Santa Cruz,,,,,
2316,Mt. Pleasant Road,San Jose,Santa Clara,63,E,1,,
1815,Portola Road,Woodside,San Mateo,42,E,6,,
Cedar,,Woodside,San Mateo,42,,,,D3
506 Hyde P,,San Jose,Santa Clara,67,E,6,,
Hyde S,,Los Gatos,Santa Clara,70,,,,F5
,Nathhorst Avenue,Portola Valley,San Mateo,47,B,4,,
,Northhorst Avenue,Portola Valley,San Mateo,47,B,4,,
116,El Nido Road,Los Trancos Woods,San Mateo,51,C,1,,
20775,Trinity Avenue,Saratoga,Santa Clara,64,F,5,,
16240,Greenwood Lane,Monte Sereno,Santa Clara,70,C,3,,
15175,Norton Road,Saratoga,Santa Clara,69,F,2,,
,,Los Gatos,Santa Clara,70,D,5,529-30 -017,
411,La Questa Way,Woodside,San Mateo,42,D,3,,
1000,Mountain Home Road,Woodside,San Mateo,42,D,5,,
11,Palm Cirlce,Woodside,San Mateo,36,B,6,,
104,Hillside Drive,Woodside,San Mateo,42,D,2,,
335,Kings Mountain Road,Woodside,San Mateo,42,B,3,,
26066,Duvall Way,Los Altos Hills,Santa Clara,51,C,5,,
16075,Camino Del Cerro,Los Gatos,Santa Clara,71,B,3,,
3508,Telegraph Drive,San Jose,Santa Clara,55,F,1,,
151,Ramona Road,,San Mateo,51,C,1,,
12200,El Monte Road,Los Altos Hills,Santa Clara,51,D,6,,
175,Trinity Lane,Portola Valley,San Mateo,46,E,3,,
,,Cupertino,Santa Clara,,,,,
,,Redwood Estates,,,,,,
,,Marin County,,,,,170-140-22,
210,Montalvo,Palomar Park,San Mateo,36,B,3,051-440-027,
,,Stevens Creek,Santa Clara,,,,,
Parcel #2,,Skylonda,San Mateo,,,,75-321-010,
38027,Stenhammer Drive,Niles Canyon,,89,A,3,,
10035,Crescent Road,Cupertino,Santa Clara,59,C,4,,
12670,Viscano Court,Los Altos Hills,Santa Clara County,51,B,3,,
450,Keily Blvd.,Santa Clara,Santa Clara County,60,E,4,,
13415,Chapparal Road,Morgan Hill,Santa Clara,80K,D,6,,
212,Mistletoe Road,Los Gatos,Santa Clara,65,D,6,,
,,Los Altos,Santa Clara County,51,E,6,,
,,Santa Cruz Mountains,,,,,,
,Carmen Road,Cupertino,Santa Clara,59,C,4,,
184,4th Street,Montara,San Mateo,30,D,1,,
21925,Regnart Road,Cupertino,Santa Clara,64,D,1,,
988,Monte Rosa Drive,Menlo Park,San Mateo,43,C,3,,
25,Missioin Trial,Woodside,San Mateo,42,C,2,,
580,Whiskey Hill Road,Woodside,San Mateo County,42,E,5,,
580,Whiskey Hill Road,Woodside,San Mateo County,,,,,
27800,Central Drive,Los Altos Hills,Santa Clara County,50,F,5,,
115,Glen Drive,Aptos,Santa Cruz,70,76,66,42-052-18,
805,Cresta Vista Drive,Aptos,Santa Cruz,70,82,67,,
Zayant,,Los Gatos,Santa Clara,,,,,
14605,Zayante Road,,Santa Cruz,,,,,
260,Cervantes Road,Portola Valley,San Mateo,47,B,2,,
110,Sunrise,Woodside,San Mateo,46,C,1,,
121,Escanyo Way,Menlo Park,San Mateo,47,C,1,,
349,Cervantes Road,Portola Valley,San Mateo,47,B,2,,
839,Cottage Road,Petaluma,Sonoma,184,B,3,,
422,West 39th Avenue,San Mateo,San Mateo County,32,E,3,,
Lot 9,Deepark Road,Los Gatos,Santa Clara,71,D,8,,
,Nathhorst Avenue,Portola Valley,San Mateo,47,B,4,,
,San Jose-Soquel Road,,Santa Cruz,27,69,39,,
21301,Fortini Road,San Jose,Santa Clara,76,C,2,,
20950,Upper Zayante Road,,Santa Cruz,73,B,6,,
152,Leslie Drive,San Carlos,San Mateo,36,A,2,,
2108,Forest Ave,Belmont,San Mateo,32,F,4,,
,Vernal Way,Emerald Lake,San Mateo County,36,C,4,,
520,Darrell Road,Hillsborough,San Mateo,28,E,5,,
2,Grove Court,Portola Valley,San Mateo County,47,A,3,,
15975,Skyline Boulevard,Woodside,San Mateo County,41,F,6,,
Skylin,,Woodside,San Mateo County,41,,,,F6
162,College Avenue,Los Gatos,Santa Clara,70,E,5,,
28,Fairview Ave.,Piedmont,Contra Costa,9,D,2,,
28,Fairview Avenue,Piedmont,Almeda,,,,,
10601,Merritt Street,Castroville,Monterey,213,D,3,,
,,Portola Valley,,,,,,
370,Old La Honda Road,Woodside,San Mateo,46,D,2,,
,,Belmont,San Mateo,,,,,
121,Escanyo Way,Menlo Park,San Mateo County,47,C,1,,
15560,Old Ranch Road,Los Altos Hills,Santa CLara County,58,E,1,,
1017,Vista Del Mar,San Jose,Santa Clara,55,F,1,,
430,Golden Oak Drive,Portola Valley,San Mateo,47,C,2,,
10655,Club House Lane,Cupertino,Santa Clara,59,C,5,,
,,San Jose,Santa Clara,,,,,
,Old La Honda Road,Woodside,San Mateo,46,D,3,,
127,Flournoy Avenue,Daly City,San Mateo,21,F,4,,
135,Woodside Road,Woodside,San Mateo,36,E,6,,
,Dell Avenue,Campbell,Santa Clara County,66,B,4,,
314,Florence Ave.,Oakland,Almaden,6,A,5,,
1025,Trinity Drive,Menlo Park,San Mateo,43,B,3,,
,,E. San Jose,,,,,,
20865,Michaels Dr.,Saratoga,Santa Clara,64,E,6,,
20831,Michaels Drive,Saratoga,Santa Clara,64,E,6,,
19956,Baroni Court,Saratoga,Santa Clara,65,B,5,,
14975,Jeanette Lane,San Jose,Santa Clara,56,B,4,,
852,Madonna Way,Los Altos,Santa Clara County,51,E,5,,
376,Nature Drive,San Jose,Santa Clara,72A,C,3,,
10701,Magdalena Ave.,Los Altos Hills,Santa Clara,58,E,1,,
66,Old Spanish Trail,,San Mateo,51,C,2,,
1227,Los Trancos Road,Portola Valley,San Mateo,51,C,1,,
Paloma,,Palomar Park,San Mateo,36,,,,B3
6881,Hampton Drive,San Jose,Santa Clara,72,D,6,,
,,Santa Cruz,Santa Cruz,,,,,
136,Jane Road,Woodside,San Mateo,42,D,2,,
388,Albion Avenue,Woodside,San Mateo,42,C,3,,
,Upper Zayante Road,,Santa Cruz County,14,49,26,,
2340,Banner Drive,Menlo Park,San Mateo,43,D,4,,
1908,Arbor Avenue,Belmont,San Mateo,33,A,4,,
18750,Oak Drive,Monte Sereno,Santa Clara,70,C,2,,
85,Ranch Road,Woodside,San Mateo,46,C,2,,
839,Lori Avenue,Sunnyvale,Santa Clara,52,E,3,,
72,Hillbrook Drive,Portola Valley,San Mateo,47,B,3,,
72,Hillbrook Dr.,Portola Valley,San Mateo,47,B,3,,
860,Sharon Park Drive,Menlo Park,San Mateo County,43,B,3,,
30,Cima Way,Portola Valley,San Mateo,47,B,4,,
,,,,,,,,
,Thompson Road,,Santa Clara,73,A,3,,
13481,Pierce Road,Saratoga,Santa Clara,64,E,4,,
Mariti,,San Francisco,San Francisco,,,,,
,Page Mill Road,Palo Alto,Santa Clara County,57,E,2,,
76,Fairview Avenue,Atherton,San Mateo,43,B,2,,
Fairvi,,Atherton (2),San Mateo County,43,,,,B2
10517,San Felipe Road,Cupertino,Santa Clara,59,B,5,,
10571,San Felipe Road,Cupertino,Santa Clara,59,B,5,,
San Fe,,Cupertino,Santa Clara,59,,,,B5
13449,Kodiak Place,Saratoga,Santa Clara County,65,C,4,,
4139,Alpine Road,Portola Valley,San Mateo County,47,C,3,,
4139,Alpine Road,Portola Valley,San Mateo County,47,C,3,,
4139,Alpine Road,Portola Valley,San Mateo,47,C,3,,
Montevina,Vina Drive,Lexington Reservoir,Santa Clara,73,C,2,,
465,South 16th Street,San Jose,Santa Clara,,,,,
,Mountain Way,Monte Sereno,Santa Clara,70,B,3,510-29 -025,
14241,Warden Way,Saratoga,Santa Clara County,65,A,6,,
168,Otis Avenue,Woodside,San Mateo,42,D,2,,
Tract 3741,Morrie Drive,E. San Jose,Santa Clara County,56,C,5,,
1138,Steeplchase Lane,Cupertino,Santa Clara,59,F,6,,
227,Acacia Lane,Alamo,Contra Costa,78,A,1,,
1515,Fail Avenue,San Jose,Santa Clara,56,C,6,,
10006,Foxboro Circle,San Ramon,Contra Costa County,117,C,1,,
293,Lakefield Place,Moraga,Contra Costa County,96,A,3,257-356-019,
5048,Barron Park Drive,San Jose,Santa Clara,67,E,6,,
988,Monte Rosa Drive,Sharon Heights,San Mateo County,43,C,3,,
560,Whiskey Hill Road,Woodside,San Mateo,42,E,4,,
,Hazel Dell Road,Watsonville,Santa Cruz,55,,57,106-211-02,104
,Campus Drive,Aptos,Santa Cruz,62,78,60,,
"Unit 1, 2;",Soelro Court,E. San Jose,Santa Clara,56,C,2,612- 10-002,
"Unit 1, Lo",Soelro Court,San Jose,Santa Clara,56,B,3,612- 10-002,
187,Redwood Drive,Boulder Creek,Santa Cruz County,7,33,19,,
150,Sausal Drive,Portola Valley,San Mateo,47,B,3,,
,Soquel/San Jose Road,Santa Cruz Mountains,Santa Cruz,27,69,37,97-041-07,
936,Colorado Avenue,Palo Alto,Santa Clara,44,D,2,375- 12-027,
,Olive Tree Lane,Los Altos Hills,Santa Clara,58,D,2,,
22430,Summit Road,,Santa Clara,78G,E,3,,
1040,Sunset Drive,San Carlos,San Mateo,36,C,1,,
394,Valley View Road,San Jose,Santa Clara,56,A,3,,
1235,Los Trancos Road,Portola Valley,San Mateo,51,C,1,,
24124,Big Basin Way,Saratoga,Santa Clara,69,A,1,,
1215,Los Trancos Road,Portola Valley,San Mateo,51,C,1,,
,Mission San Jose,Fremont,Alameda,110,D,1,,
14227,Amherst Court,Los Altos Hills,Santa Clara,50,F,2,,
10,Arastradero Road,Los Altos Hills,Santa Clara,47,D,3,,
19555,Redberry Drive,Monte Sereno,Santa Clara,70,B,3,,
225,Winding Way,Woodside,San Mateo,42,D,4,,
1077,Vista Del Mar,San Jose,Santa Clara,55,E,1,,
12989,Vista Del Valle Ct.,Los Altos Hills,Santa Clara,51,B,5,,
,Gateway & Oyster Pt.,So. San Francisco,San Mateo,24,C,4,,
2108,Forest Avenue,Belmont,San Mateo,32,E,4,,
,Sylvan Way,Redwood City,San Mateo,36,B,4,068-022-530,
578,Patrol Road,Woodside,San Mateo,42,A,2,,
12200,Edgecliff Place,Los Altos Hills,Santa Clara,51,C,6,,
,Niles Road,Redwood Estates,Santa Cruz,20,57,30,,
46,Vista Verde Way,,San Mateo,51,C,3,,
230,Sylvan Way,Redwood City,San Mateo,36,B,4,,
Lot 10,San Carlos,Carmel,Monterey,251,B,2,,
695,Chimalus Drive,Palo Alto,Santa Clara,44,B,4,,
28226,Radcliff Drive,Los Altos Hills,Santa Clara,50,F,2,,
12195,Padre Court,Los Altos Hills,Santa Clara,51,C,6,,
235,Nathhorst,Portola Valley,San Mateo,47,B,4,,
255,Mapache  Drive,Portola Valley,San Mateo,47,A,2,,
,,E. San Jose,Santa Clara,,,,,
,,Woodside,San Mateo,46,E,1,075-134-210,
,Quarry Bend Road,Felton,Santa Cruz,48,B,3,,
Quarry,,Felton,Santa Cruz,B3,,,,51/48
,Quarry Bend Road,Felton,Santa Cruz,B3,51,48,,
,Quarry Bend Road,Felton,Santa Cruz,B3,51,48,,
,Quarry Bend Road,Felton,Santa Cruz,48,B,3,,
Quarry,,Felton,Santa Cruz,B3,,,,51/48
,,Felton,,,,,,
1,SAGA LANE,MENLO PARK,CALIFORNIA,,,,000-000-000,
1,SAGA LANE,MENLO PARK,,,,,000-000-000,
2400,SAND HILL ROAD,MENLO PARK,,,,,000-000-000,
2400,SAND HILL ROAD,MENLO PARK,,,,,000-000-000,
,,,,,,,,
2400,SAND HILL ROAD,MENLO PARK,,,,,000-000-000,
2400,SAND HILL ROAD,MENLO PARK,,,,,000-000-000,
2400,SAND HILL ROAD,MENLO PARK,,,,,000-000-000,
2400,SAND HILL ROAD,MENLO PARK,,,,,000-000-000,
2400,SAND HILL ROAD,MENLO PARK,,,,,000-000-000,
2400,SAND HILL ROAD,MENLO PARK,San Mateo,,,,000-000-000,
,,,,,,,,
2490,Sand Hill Road,Menlo Park,,,,,,
,Sand Hill Road,Menlo Park,,,,,,
10045,Carmen Road,Cupertino,Santa Clara,59,C,4,,
125,Sunrise Drive,Woodside,San Mateo,46,C,1,,
125,Sunrise Drive,Woodside,San Mateo,46,C,1,,
750,Kings Mountain Road,Woodside,San Mateo,42,A,2,,
1057,Woodview Place,San Jose,Santa Clara,75,E,1,,
22635,San Juan Road,Cupertino,Santa Clara,59,C,5,,
34,Coquito Court,Menlo Park,San Mateo,47,C,1,,
10,Reyna Place,Menlo Park,San Mateo,43,D,1,,
3555,Woodside Road,Woodside,San Mateo,42,C,4,,
Lot 1,Why Worry Farms,Woodside,San Mateo,42,C,4,,
15760,Simoni Drive,San Jose,Santa Clara,56,C,3,,
4906,Wellington Park Dr.,San Jose,Santa Clara,67,E,5,,
,Celeo Lane,San Jose,Santa Clara,56,C,6,612- 09-020,
306,Ramona Road,Portola Valley,San Mateo,51,C,2,,
80,Ranch Road,Woodside,San Mateo,63A,C,4,,
75,Ranch Road,Woodside,San Mateo,63A,C,4,,
22061,Lindy Lane,Cupertino,Santa Clara,64,D,1,,
Lindy,,Cupertino,Santa Clara,64,,,,D1
9739,Cabrillo Highway,Pescadero,San Mateo,56A,B,1,,
320,Santa Rosa Drive,Los Gatos,Santa Clara,71,D,5,,
6209,Valley Glen Court,San Jose,Santa Clara,72,E,3,,
,Lands Of Shackley,Los Altos Hills,Santa Clara,,,,,
125,Sunrise Drive,Woodside,San Mateo,46,C,1,,
27233,Deer Springs Way,Los Altos Hills,Santa Clara,51,A,6,,
7655,Chestnut Way,Pleasanton,Alameda,35,E,6,,
3834,Perie Lane,Milpitas,Santa Clara,49,A,6,,
2969,Woodside Road,Woodside,San Mateo,42,E,2,,
,Fern Ave. Bridge,Pescadero,San Mateo,57,D,3,,
21054,Sarahills Drive,Saratoga,Santa Clara,64,E,5,,
4450,Quimby Road,San Jose,Santa Clara,63A,C,3,,
617,Patrol Road,Woodside,San Mateo,42,B,3,,
15172,Peach Hill Road,Saratoga,Santa Clara,70,A,2,,
14011,Palomino Way,Saratoga,Santa Clara County,64,D,5,,
503,Madrone Ave.,Pescadero,San Mateo,57,D,3,,
34,Coquito Court,Menlo Park,San Mateo,50,B,1,,
12230,Windsor,Los Altos Hills,Santa Clara,51,A,5,,
230,Branbury,Campbell,Santa Clara,65,F,2,,
2182,S. King Road,San Jose,Santa Clara,63,A,4,,
12130,Foothill Lane,Los Altos Hills,Santa Clara,51,B,5,,
21,Santa Maria Ave,Portola Valley,San Mateo,46,E,2,,
,,,,40,E,3,,
750,Loma Court,San Carlos,San Mateo,36,B,2,,
24700,OLIVE TREE COURT,LOS ALTOS HILLS,,,,,000-000-000,
24700,OLIVE TREE COURT,LOS ALTOS HILLS,,,,,000-000-000,
3,Wakefield Court,Belmont,San Mateo,32,E,5,,
1460,Bird Ave.,San Jose,Santa Clara,61,F,4,,
"Unit 1, Lo",Solero Court,E. San Jose,Santa Clara,,,,,
25,Mission Trail,Woodside,San Mateo,42,C,2,,
140,Escanyo Way,,San Mateo,47,C,1,,
171,Cuesta Real,La Honda,San Mateo,50,B,5,,
623,East View Way,Woodside,San Mateo,36,B,5,,
,,Woodside,San Mateo,,,,,
575,Eastview Way,Woodside,Santa Clara,36,B,5,,
112,Russell Avenue,Portola Valley,San Mateo,46,E,3,,
1111,Los Trancos Road,Portola Valley,San Mateo,51,C,1,,
1077,Portola Road,Portola Valley,San Mateo,46,F,3,,
1161,Millbrae Ave.,Millbrae,San Mateo,26,C,6,,
1000,Thornton Way,San Jose,Santa Clara,,,,,
,,,,,,,,
855,Espinosa Road,Woodside,San Mateo,46,D,2,075-220-250,
,Fifth & Keyes,San Jose,Santa Clara,62,C,4,,
3635,El Grande Dr.,San Jose,Santa Clara,55,F,1,,
,Starwood,Skylonda,San Mateo,46,B,3,075-321-150,
222,Mt. Madonna Road,Watsonville,Santa Cruz,65,,63,,108
16354,Redwood Lodge Rd.,Santa Cruz Co,Santa Cruz,27,66,35,,
Lot 10,Las Pulgas Estates,San Carlos,San Mateo,42,D,1,,
,Miguelita Road,San Jose,Santa Clara,56,C,3,,
33,Toledo Dr.,Lafayette,Contra Costa,71,E,1,,
Lands of V,La Questa Way,Woodside,San Mateo,42,D,2,,
,,,,,,,,
"Unit 1, Lo",Solero Court,San Jose,Santa Clara,,,,,
15001,Jeanette Lane,San Jose,Santa Clara,56,B,4,,
150,La Sandra Way,Portola Valley,San Mateo,47,A,1,,
3316,Tabora Drive,Antioch,Contra Costa,55,E,2,,
13395,Clayton Road,Unincorporated,Santa Clara,56,E,5,,
,,,,,,,,
,Soquel/San Jose Rd.,Santa Cruz Co.,Santa Cruz,52,,,97-041-07,
,,Scotts Valley,Santa Cruz,33,55,42,,
16185,Yona Vista,San Jose,Santa Clara,56,A,2,,
210,Montalvo Road,Palomar Park,San Mateo,36,B,3,051-440-027,
5974,Friar Way,San Jose,Santa Clara,60,C,6,,
,Bear Gulch Road,Woodside,San Mateo,42,A,6,,
3019,San Juan Blvd.,Belmont,San Mateo,32,D,4,043-191-010,
6,Leroy Way,Portola Valley,San Mateo,46,E,3,,
,Beggs Road,Santa Clara Co.,Santa Clara,72K,F,1,,
10933,Northcrest Lane,Los Altos Hills,Santa Clara,58,D,1,,
155,Sunrise,Woodside,San Mateo,46,D,1,,
Lot 19,Vista Verde,San Mateo,San Mateo,51,C,3,,
1102,Summerset,San Jose,Santa Clara,55,E,1,,
12920,Atherton Court,Los Altos Hills,San Mateo,51,C,4,,
140,Escanyo Way,Portola Valley,San Mateo,47,C,1,,
476,Edelweiss,San Jose,Santa Clara,67,E,5,,
,Glenwood Drive,Los Gatos,Santa Clara,26,61,38,,
16460,Cyprus Way,Los Gatos,Santa Clara,71,A,5,,
14125,Seven Acre Lane,Los Altos Hills,Santa Clara,51,C,3,,
15833,STONEBROOK DRIVE,,SANTA CLARA,,,,000-000-000,
15833,STONEBROOK DRIVE,LOS ALTOS HILLS,,,,,000-000-000,
15833,STONEBROOK DRIVE,LOS ALTOS HILLS,,,,,000-000-000,
15833,STONEBROOK DRIVE,LOS ALTOS HILLS,,,,,000-000-000,
15833,STONEBROOK DRIVE,LOS ALTOS HILLS,,,,,000-000-000,
177,Grove Drive,Portola Valley,San Mateo,47,A,3,,
13493,Pierce Road,Saratoga,Santa Clara,64,E,4,,
,,Santa Clara County,,,,,,
59,Hernandez Avenue,Los Gatos,Santa Clara,70,C,4,,
5974,Friar Way,San Jose,Santa Clara,60,C,6,,
1590,S. Cabrillo Hwy,Half Moon Bay,San Mateo,39,F,2,,
730,W. California St.,Woodside,San Mateo,36,B,5,,
1057,Woodview Lane,Woodside,San Mateo,65,A,6,,
1,Shadowbrook Lane,Woodside,San Mateo,42,E,5,,
1,Shadowbrook Lane,Woodside,San Mateo,42,E,5,,
,,Woodside,,,,,,
,,Woodside,,,,,,
,,Woodside,,,,,,
290,Golden Hills Dr.,Portola Valley,San Mateo,47,B,2,,
290,Golden Hills Dr.,Portola Valley,San Mateo,,,,,
136,Jane Drive,Woodside,San Mateo,42,D,2,,
70,Stonington Court,Danville,Contra Costa,98,C,1,,
940,La Mesa Drive,,San Mateo,47,C,1,,
5374,Avineda Almendros,San Jose,Santa Clara,72,E,1,,
1528,Vine Street,Belmont,San Mateo,33,B,4,,
555,Summit Springs Road,Woodside,San Mateo,42,B,3,,
Lands of I,Pescadero Road,,San Mateo,57,A,1,,
Lands of I,Pescadero Road,Pescadero,San Mateo,,,,,
Lands of I,Pescadero Road,Pescadero,San Mateo,,,,,
16379,Skyline Blvd.,San Mateo County,San Mateo,46,A,2,,
17,Starwood Drive,Skylonda,San Mateo,46,B,3,,
26459,Taffe Road,Los Altos Hills,Santa Clara,51,B,5,,
,,Los Altos Hills,Santa Clara,,,,,
2060,Old Page Mill Lane,Palo Alto,Santa Clara,50,F,1,182- 31-021,
3030,Three Springs Court,San Jose,Santa Clara,56,F,5,,
400,Kebet Ridge Road,Skylonda,San Mateo,46,C,3,075-321-200,
,,Skylonda,San Mateo County,,,,,
400,Kebet Ridge Road,Skylonda,San Mateo,46,C,3,,
21107,Michaels Drive,Saratoga,Santa Clara,64,E,6,,
228,Manor Drive,San Carlos,San Mateo,33,B,6,,
2855,Joselyn Lane,Woodside,San Mateo,42,B,2,,
280,Greek Road,Woodside,San Mateo,42B,,,,
285,Joselyn Lane,Woodside,,,,,,
,,,,,,,,
14525,Deer Park Road,Los Gatos,Santa Clara,71,D,5,,
,Kenny Lane,Santa Clara Co.,Santa Clara,56,C,4,,
162,Swett Road,San Mateo County,San Mateo,41,C,4,,
700,Vine Street,Menlo Park,San Mateo,43,C,3,,
1235-37,Ruby Street,Redwood City,San Mateo,36,E,3,,
21451,Mount Eden Court,Saratoga,Santa Clara,64,C,4,,
30,Trail Lane,Woodside,San Mateo,46,F,2,,
690,Industrial Way,San Carlos,San Mateo,42,C,4,,
657,Oak Park Way,Emerald Lake,San Mateo,36,B,5,,
Lot 6,Soelro Court,E. San Jose,Santa Clara,56,B,2,,
18200,Skyline Blvd.,La Honda,San Mateo,46,D,4,078-130-160,
,,Skyline Boulevard,Santa Clara,,,,,
17391,High Street,Los Gatos,Santa Clara,70,F,5,,
51,Willowview Court,Danville,Contra Costa,78,D,7,,
51,Willowview Court,Danville,Contra Costa,78,D,7,,
11254,Mount Crest Place,Cupertino,Santa Clara,59,D,6,,
,Partition Road,Woodside,San Mateo,42,B,4,072-173-020,
21363,Saratoga Hills Road,Saratoga,Santa Clara,64,E,5,,
110,Sunrise Drive,Woodside,San Mateo,46,C,1,,
,,Mountain View,,,,,,
,,Mountain View,,,,,,
101,Oak Hill Way,Los Gatos,Santa Clara,70,E,5,,
1379,Country Club Dr.,Los Altos Hills,Santa Clara,51,F,6,,
,,Los Altos,,,,,,
136,Carmel Way,Los Trancos Woods,San Mateo,51,C,1,,
401,Sycamore Street,San Carlos,San Mateo,33,C,5,,
200,Willowbrook Dr.,Portola Valley,San Mateo,47,A,4,,
,Langley Hill Road,La Honda,San Mateo,50,C,4,078-190-120,
1077,Portola Valley Road,Portola Valley,San Mateo,46,E,2,,
155,Sunrise Drive,Woodside,San Mateo,46,C,1,,
,,,,,,,,
,Starwood Drive,Skylonda,San Mateo,46,B,3,,
51,Deerpath Lane,Los Trancos Woods,San Mateo,51,C,2,080-231-050,
5,Deerpath Lane,,San Mateo,51,C,2,,
,Macduff Court,San Jose,Santa Clara,56,C,4,,
16981,Bohlma,Saratoga,Santa Clara,69,F,4,,
141,Recreation Drive,San Mateo County,San Mateo,50,B,5,,
10,Hermosa Road,Redwood City,San Mateo,36,C,3,,
,,Hollister,,,,,,
,,Hollister,,,,,,
20328,Airline Highway,Hollister,San Benito,,,,,
,,Hollister,,,,,,
,,Hollister,,,,,,
10,Leroy Way,Portola Valley,San Mateo,46,E,3,,
,,Santa Clara County,Santa Clara,,,,,
1501,Country Club Dr.,Los Altos,Santa Clara,52,A,6,,
352,Parkside Dr.,Palo Alto,Santa Clara,44,E,5,,
,,Los Altos Hills,,,,,,
6771,Armour Drive,Oakland,Alameda,6,C,5,,
1460,Bird Ave.,San Jose,Santa Clara,62,A,5,,
1039,Woodview Place,San Jose,Santa Clara,75,F,1,,
248,Sylvan Way,Redwood City,San Mateo,36,B,4,,
,,Woodside,San Mateo,,,,,
136,Jane Road,Woodside,San Mateo,42,D,2,,
1103,Somerset Lane,San Jose,Santa Clara,55,E,1,,
,,E. San Jose,Santa Clara,,,,,
21440,Arrowhead Lane,Saratoga,Santa Clara,64,E,2,,
,Old La Honda Road,Woodside,San Mateo,46,D,3,,
parcel 174,Lariat Lane,San Jose,Santa Clara,56,A,1,,
400,Santa Rosa Dr.,Los Gatos,Santa Clara,71,E,5,,
540,Crawford Ave.,Sunnyvale,Santa Clara,52,F,5,,
11655,Skyline Boulevard,Cupertino,Santa Clara,63F,A,3,351-31 -4,
2446,Lake Boulevard,Redwood City,San Mateo,36,C,4,,
862,Lathrop Drive,Stanford,Santa Clara,44,A,5,,
,,Stanford,,,,,,
700,Kings Mountain Road,Woodside,San Mateo,42,A,2,,
186,Corte Madera Road,Portola Valley,San Mateo,47,B,4,,
1909,Portola Road,Woodside,San Mateo,42,D,6,,
25,Mission Trail,Woodside,San Mateo,42,C,2,,
Lot 1,Palomar Drive,Palomar Park,San Mateo,36,C,3,,
,Palomar Drive,Palomar Park,San Mateo,36,C,3,,
Paloma,,Palomar Park,San,36,C,3,,
155,Sunrise Dr.,Woodside,San Mateo,46,C,2,,
11824,Hilltop Drive,Los Altos Hills,Santa Clara,51,E,6,,
1244,Elm Street,San Carlos,San Mateo,36,D,1,,
2,Grove Court,Portola Valley,San Mateo,47,A,3,,
,,Santa Cruz County,,,,,,
161,Corona Way,Ladera Heights,San Mateo,47,D,1,,
Lot 5,Why Worry Farm,Woodside,San Mateo,42,C,4,,
947,White Drive,Santa Clara,Santa Clara,60,F,2,,
200,Willowbrook,Portola Valley,San Mateo,47,A,4,,
7450,Highway 9,Felton,Santa Cruz,40,45,46,,
,Woodland Vista,Unincorporated,San Mateo,,,,083-310-140,
17391,Hyde Street,Los Gatos,Santa Clara,60,D,5,,
100,Why Worry Lane,Woodside,San Mateo,42,C,4,,
,,,,,,,,
6,Applewood Lane,Portola Valley,San Mateo,47,B,4,,
Lot 8,Old Spanish Trail,Los Trancos Woods,San Mateo,51,C,2,,
Lot 1,Alpine Road,Los Trancos Woods,San Mateo,51,B,2,,
133,S. Navarra Road,Scotts Valley,Santa Cruz,42,59,47,,
2230,Camino A Los Cerros,Menlo Park,San Mateo,43,B,2,,
,,Menlo Park,,,,,,
12445,Robleda Rd.,Los Altos Hills,Santa Clara,51,C,5,,
13005,Clayton Rd.,San Jose,Santa Clara,56,E,5,,
1111,Los Trancos Rd.,Los Trancos Woods,San Mateo,51,C,1,,
,,Los Trancos Woods,San Mateo,,,,,
,Buena Vista Dr.,Los Altos Hills,Santa Clara,50,F,5,182-029-049,
,Starwood Drive,Skylonda,San Mateo,46,B,3,,
2,Madrone Ave.,Mt. Herman,Santa Cruz,41,49,50,,
2351,Galway Rd.,San Pablo,Contra Costa,2,C,5,,
21185,Haymeadow Dr.,Saratoga,Santa Clara,69,E,1,,
118,Grove Drive,Portola Valley,San Mateo,47,A,3,,
,Skyline Boulevard,La Honda,San Mateo,51,B,4,080-120-120,
3555,Vista Del Mar,San Jose,Santa Clara,55,F,1,,
24797,Northcrest Lane,Los Altos,Santa Clara,58,D,1,,
,,,,,,,,
,,Oyster Point,,,,,,
,,Pescadero,San Mateo,,,,,
,,Cupertino,Santa Clara,,,,,
,,Seal Cove,,,,,,
,,,,,,,,
,,,,,,,,
,,,,,,,,
425,Sycamore St.,San Carlos,San Mateo,33,C,5,,
759,Temescal Way,Redwood City,San Mateo,36,C,5,,
2235,Tioga Dr.,Menlo Park,San Mateo,40,B,3,,
30100,Union City Blvd.,Union City,San Mateo,60,D,7,,
,Ranch Rd.,San Jose,Santa Clara,63A,B,4,659-029-01,
972,Moreno,Palo Alto,San Mateo,44,C,2,,
22292,Skyline Blvd.,La Honda,San Mateo,51A,F,2,080-410-180,
101,Coquito Way,Ladera Heights,San Mateo,47,C,1,,
,,Loma Prieta,Santa Clara,78J,F,3,562-019-009,
,EAST OTIS AVENUE,WOODSIDE,,,,,000-000-000,
15217,Sobey Road,Saratoga,Santa Clara,65,L,6,,
Lots 34-36,Sophist Dr.,San Jose,Santa Clara,49,A,6,,
32500,Loma Chaquita Road,,Santa Clara,78G,F,4,,
4135,Alpine Rd.,Portola Valley,San Mateo,47,C,3,,
301,San Juan Blvd.,Belmont,San Mateo,32,E,4,,
379,Stockbridge Avenue,Atherton,San Mateo,42A,F,2,,
34,Coquito Ct.,Ladera Heights,San Mateo,47,B,1,,
14100,Arnerich Rd.,Los Gatos,Santa Clara,71,D,6,,
18,Coleman Ct.,San Carlos,San Mateo,33,B,6,,
1080,Continental Dr.,Menlo Park,San Mateo,43,B,3,,
,Clayton Road,San Jose,Santa Clara,56,D,6,,
10156,Bon Vista Court,E. San Jose,Santa Clara County,56,D,3,,
,Skyline Boulevard,,San Mateo,56,D,3,076-291-060,
,Skyline Blvd.,,San Mateo,51,L,4,,
252,Belblossom,Los Gatos,Santa Clara,71,D,3,,
252,Belblossom Way,Los Gatos,Santa Clara,,,,,
,,,,,,,,
18750,Oak Dr.,Saratoga,Santa Clara,70,C,2,,
27440,Elena Rd.,Los Altos Hills,Santa Clara,51,B,5,182-004-045,
24250,Hillview Dr.,Los Altos Hills,Santa Clara,,,,,
173,Raymundo Dr.,Woodside,San Mateo,42,B,1,,
1010,Lassen Dr.,Menlo Park,San Mateo,43,B,3,,
116,Foxwood Dr.,Portola Valley,San Mateo,51,C,1,,
116,Foxwood Road,Portola Valley,San Mateo,,,,,
235,Kent Rd.,Pacifica,San Mateo,20,D,6,,
136,Los Trancos Circle,Portola Valley,San Mateo,57,C,1,,
814,Guildford Ave.,San Mateo,San Mateo,,,,,
14560,Miranda Road,Los Altos Hills,San Mateo,51,C,3,,
3603,Woodside Road,Woodside,San Mateo,,,,,
,Skyline Boulevard,,San Mateo,41,C,2,067-080-230,
5360,Alum Rock Ave.,San Jose,Santa Clara,56,B,3,,
51,Willowview,Danville,Alameda,,,,,
235,Byron Street,Palo Alto,Santa Clara,38,A,6,,
,Alram Rd.,Almaden,Santa Clara County,76,B,5,742-020-08,
Claitor,,E. San Jose,Santa Clara County,,,,,
131,OLIVE HILL LANE,WOODSIDE,,,,,072-130-290,
131,OLIVE HILL LANE,WOODSIDE,,,,,072-130-290,
131,OLIVE HILL ROAD,WOODSIDE,,,,,000-000-000,
131,OLIVE HILL ROAD,WOODSIDE,,,,,000-000-000,
10428,So. Foothill Blvd.,Cupertino,Santa Clara County,,,,357-030-71,
,,Cupertino,,,,,,
,Off Pescadero Creek,,San Mateo County,49,A,7,,
,Off Pescadero Creek,,San Mateo County,49,A,7,082-070-050,
,,San Mateo County,San Mateo County,,,,,
18929,Alcott Way,Saratoga,Santa Clara,,,,,
124,Alta Vista Rd.,Woodside,San Mateo,,,,,
655,Malarin Ave.,Santa Clara,Santa Clara,,,,,
60,Joaguin Road,,San Mateo,51,C,2,,
60,Joaguin Road,,San Mateo,51,c,2,,
140,Otis Avenue,Woodside,San Mateo County,42,D,2,,
19500,Montevina Rd.,,Santa Clara,70,A,6,,
1170,Bear Gulch Road,,San Mateo County,42,A,6,,
266,Casitas Blvd.,Los Gatos,,,,,,
Lot 1,Saratoga Estates,Saratoga,Santa Clara County,,,,,
,,Woodside,,,,,,
,,Skyline,,,,,,
,,Cupertino,Santa Clara County,,,,,
,Heacox Road,,San Mateo County,51,B,3,080-110-060,
,Redwood Terrace,,San Mateo,49,F,6,082-020-010,
,,Santa Clara County,Santa Clara County,,,,,
1007,Tierra Subdivision,,Monterey,,,,606-185-15,
10713,Celeo Lane,San Jose,Santa Clara County,56,C,3,,
,,E. San Jose,Santa Clara County,,,,,
17990,Skyline Blvd.,Skyline,Santa Clara,72K,E,1,,
10512,Stiles,San Jose,Santa Clara,,,,,
14193,Wild Plum Lane,Los Altos Hills,Santa Clara,51,C,3,,
,Samantiono/Isabella,Point Carmel,Monterey,,,,009-404-023,
145,Happy Acres Road,Los Gatos,,71,B,4,,
,,Belmont,,,,,,
13850,Pierce Road,Saratoga,Santa Clara,64,D,5,,
14301,Clayton Rd.,San Jose,Santa Clara,56,E,5,,
,,San Mateo County,San Mateo County,,,,,
21315,Lumbertown Lane,Saratoga,Santa Clara,,,,,
Upper Page,,Palo Alto,Santa Clara,51,E,2,,
391,El Portal Ave.,San Mateo,San Mateo,29,B,4,,
,,San Jose,Santa Clara County,,,,,
Lot 33,Suncrest Drive,San Jose,Santa Clara,,,,,
,Doherty Ridge Road,,San Mateo County,59,D,5,085-080-190,
,,Antioch,Contra Costa,,,,,
,,,,,,,,
Lot 3,Why Worry Lane,Woodside,San Mateo,,,,,
,Little Basin Way,,Santa Cruz County,16,20,29,,
15,Austin Ct.,Orinda,Contra Costa,71,A,4,,
Trail,,Santa Clara County,Santa Clara County,78,,,,F3
,Trail Ridge Road,,Santa Clara County,78,F,3,558-040-6,
25,Holden Court,Portola Valley,San Mateo,47,C,3,,
100,Roquena Drive,La Honda,San Mateo,50,B,5,,
25390,La Rena Lane,Los Altos Hills,Santa Clara,51,D,4,,
2671,Northwood Dr.,Milpitas,Santa Clara,,,,,
,,Felton,Santa Cruz,,,,,
12180,Padre Ct.,Los Altos Hills,Santa Clara,51,C,6,,
5030,Alpine,Portola Valley,San Mateo,46,F,6,,
5030,Alpine,Portola Valley,San Mateo,46,F,6,,
722,Morgan Drive,Los Altos,Santa Clara,51,F,5,,
4680,Alpine Rd.,Portola Valley,San Mateo,47,B,5,,
,Silver Leaf Dr.,Watsonville,Santa Cruz,81,98,78,,
20959,Hiddenview Dr.,Saratoga,Santa Clara County,69,E,1,,
,,Santa Cruz County,Santa Cruz County,,,,,
,,Saratoga,Santa Clara County,,,,,
11552,Hillpark Lane,,Santa Clara County,58,E,1,,
5,Valley Oak,Portola Valley,San Mateo,47,B,5,,
7496,Drumm Ct.,San Jose,Santa Clara,72,F,5,,
,Celeo Lane,,Santa Clara County,56,C,3,612-090-19,
139,Russell Ave,Portola Valley,San Mateo,46,E,3,,
,,Atherton,,,,,,
,,Atherton,,,,,,
27905,Roble Blanco,Los Altos Hills,Santa Clara,50,F,3,,
,,San Mateo County,San Mateo County,,,,,
1043,Lupine Drive,Sunnyvale,Santa Clara County,53,C,5,,
400,Kings Mountain Road,Woodside,San Mateo,42,B,3,,
24565,Soquel/San Jose Rd.,,Santa Cruz,27,72,35,,
,Crothers Rd.,E. San Jose,Santa Clara,56,B,2,,
27664,Vogue Ct.,Los Altos Hills,Santa Clara,51,B,4,,
Dianne,,Los Altos Hills,Santa Clara,51,,,,D5
12675,Dianne Drive,Los Altos Hills,Santa Clara,51,D,5,,
,,,,,,,,
,,,,,,,,
6646,Barnsdale Ct.,San Jose,Santa Clara,,,,,
,,Santa Clara County,Santa Clara County,,,,,
19656,Braemar,Saratoga,Santa Clara County,65,B,4,,
1368,Longfellow Lane,San Jose,Santa Clara,,,,,
385,Golden Oak Drive,Portola Valley,San Mateo,47,C,2,,
1020,Continental Dr.,Menlo Park,San Mateo,,,,,
,Niblick Ave.,Los Altos,Santa Clara,58,F,1,,
,,Woodside,,,,,,
,Trial Ridge Road,,Santa Clara,,,,558-250-9,
13402,Beresford Ave.,Belmont,San Mateo,32,D,4,,
,Vista Verde Way,,San Mateo,51,,,080-170-070,
18396,Knuth Road,,Santa Clara,63F,D,6,,
2725,Sequoia Way,Belmont,San Mateo,32,E,3,,
,,Woodside,,,,,,
,,Woodside,,,,,,
,Piercy Road,Santa Clara County,Santa Clara County,72A,F,1,678- 11-004,
,,Santa Clara County,Santa Clara County,,,,,
,,Santa Clara County,Santa Clara County,,,,,
1171,Washoe Drive,San Jose,Santa Clara,72,C,5,,
,Vista Grande Way,Los Gatos,Santa Clara,73,D,2,,
,Vista Grande Way,Los Gatos,Santa Clara,73,D,2,,
602,Farley St.,Mountain View,Santa Clara,45,A,6,,
210,Wayside Road,Portola Valley,San Mateo,46,E,3,076-237-070,
,,,,,,,,
19353,Pinnacle Cr.,Saratoga,Santa Clara,,,,397-035-017,
200,S. Santa Cruz Avenue,Los Gatos,Santa Clara,70,D,5,,
25744,Adams Road,,Santa Cruz,27,74,37,,
20075,Old Santa Cruz Hghwy,,Santa Clara,73,D,5,,
2316,Mt. Pleasant Road,San Jose,Santa Clara,63,D,1,,
995,Lassen Dr.,Menlo Park,San Mateo,43,B,3,,
,,Saratoga,,,,,,
,,Saratoga,Santa Clara,,,,,
207,Purissima Road,,San Mateo,41,C,1,067-022-020,
1579,Fairway Dr.,Los Altos Hills,Santa Clara,51,F,6,,
,,Scotts Valley,,,,,,
110,Hidden Valley Road,Ben Lomond,Santa Cruz,33,46,43,,
905,Espinosa Rd.,Woodside,San Mateo,,,,,
17970,Skyline Blvd.,,Santa Clara County,72,E,1,,
,,Los Altos Hills,,,,,,
,Roberts Road,Ben Lomond,Santa Cruz,24,39,43,,
4,Maple Square,Mt. Hermon,Santa Cruz,41,50,48,,
890,Via Palo Alto,Aptos,Santa Cruz,,,,,
21459,Saratoga Hills Rd.,Saratoga,Santa Clara,,,,,
1332,Rimrock Drive,San Jose,Santa Clara,,,,,
23651,Hutchinson Road,,Santa Cruz,26,57,34,,
,Indian Trial Road,,Santa Cruz,,,,088-211-029,
552,"Bean Creek Dr., #151",Scotts Valley,Santa Cruz,41,54,48,,
10711,Eloise Circle,Los Altos Hills,Santa Clara,58,F,2,,
10711,Eloise Circle,Los Altos Hills,Santa Clara,58,F,2,,
405,Blair Ranch Rd.,Scotts Valley,Santa Cruz,,,,,
23496,Bel Air Court,,Santa Cruz,27,68,34,,
,,Santa Cruz County,,,,,,
21770,Congress Hall Lane,Saratoga,Santa Clara,,,,,
,,Portola Valley,,,,,,
24200,Summit Woods Drive,Santa Cruz,,27,68,35,,
Summit,,Summit,Sant6a Cruz,27,,,,68/35
24182,Summerhill Ave.,Los Altos Hills,Santa Clara,51,E,6,,
5030,Alpine Road,Portola Valley,San Mateo,46,F,6,,
,,Santa Clara County,,,,,,
22800,Midpine Court,Los Gatos,Santa Cruz,26,61,3,,
20930,Panorama Drive,,Santa Clara,73,F,6,,
11701,Winding Way,Los Altos,Santa Clara,,,,,
,,Santa Cruz County,,,,,,
1909,Heatherdale Ave.,San Jose,Santa Clara,,,,,
474,Edelweiss Dr.,San Jose,Santa Clara,67,E,5,,
,,Summit,,,,,,
3555,Vista Del Mar,San Jose,Santa Clara County,,,,,
,,Los Altos Hills,,,,,,
18460,Main Boulevard,,Santa Cruz,26,61,36,,
,,Santa Cruz County,Santa Cruz County,,,,,
552-150,Bean Creek Rd.,Scotts Valley,Santa Cruz,,,,,
3434,Spring,Milpitas,Santa Clara,48,E,1,,
,Quail Hill Lane,El Sobrante,Contra Costa,36,C,4,,
20645,Sigal Drive,Saratoga,Santa Clara,69,F,2,,
,,Portola Valley,,,,,,
,,Corralitos,,,,,,
14,West Central Ave.,Los Gatos,Santa Clara,70,E,6,,
,,Santa Cruz County,Santa Cruz County,,,,,
2430,Lake Boulevard,Redwood City,San Mateo,,,,,
,,Santa Clara County,Santa Clara County,,,,,
10665,Eloise Circle,,Santa Clara County,58,F,2,331-160-54,
18480,Main Boulevard,Los Gatos,Santa Cruz,26,61,36,,
,,Lexington,,,,,,
900,Cottrell Way,Stanford,,44,A,5,,
,,Los Gatos,Santa Clara County,,,,,
1011,Vine Hill Road,,Santa Cruz County,,,,,
16970,Laurel Road,,Santa Cruz County,26,64,38,,
,,Santa Cruz County,Santa Cruz County,,,,,
,,Woodside,,,,,,
,,Santa Clara County,Santa Clara County,,,,,
,Godetia Drive,Woodside,San Mateo,36,C,6,068-302-07,
60,Tripp Court,Woodside,San Mateo,42,B,3,072-091-060,
,,Atherton,,,,,,
24991,,Santa Cruz County,Santa Cruz County,27,,,,72-37
24991,SKYLAND ROAD,,SANTA CRUZ,,,,000-000-000,
,,,,,,,,
1,Applewood Lane,Portola Valley,San Mateo,47,B,4,,
,,Los Gatos,Santa Clara County,,,,,
,,Los Gatos,,,,,,
41,Pine Ave.,Mt. Herman,Santa Cruz,41,49,50,,
1244,Lakeside Drive,Felton,Santa Cruz,49,44,53,,
4141,Old Trace Rd.,Palo Alto,Santa Clara,51,C,1,,
700,Vine St.,Menlo Park,San Mateo,43,C,3,,
,,Santa Cruz County,Santa Cruz County,,,,,
,,Santa Clara County,Santa Clara County,,,,,
,Steele Ranch,,San Mateo County,48A,F,5,087-120-040,
24780,Miller Hill Road,Los Gatos,Santa Cruz,27,71,38,097-091-22,
,,Santa Clara County,Santa Clara County,,,,,
17355,Melody Lane,Los Gatos,Santa Clara,78G,E,3,,
2145,Hillside Drive,San Leandro,Contra Costa,25,E,5,,
635,Patrol Road,Woodside,San Mateo,42,B,3,,
,,Woodside,,,,,,
10455,Bershire Drive,,Santa Clara County,58,E,2,,
25325,La Loma Dr.,Los Altos Hills,Santa Clara,58,C,1,,
21559,Santa Ana Road,Los Gatos,Santa Clara,78G,D,2,,
,,Woodside,,,,,,
,,San Jose,Santa Clara County,,,,,
3635,El Grande Dr.,San Jose,Santa Clara,55,F,1,,
3155,Weston Road,Scotts Valley,Santa Cruz,26,57,41,074-241-02,
26435,Anacapa Dr.,Los Altos Hills,Santa Clara,51,B,3,,
1001,Palomar,Redwood City,San Mateo,36,B,3,,
3605,Vista Del Valle,San Jose,Santa Clara,55,F,1,,
1515,Alta Glen Dr.,San Jose,Santa Clara,66,E,2,,
134,Russell Avenue,Portola Valley,San Mateo,46,E,3,,
,Clayton Road,,Santa Clara County,56,E,5,612-410-40,
14821,Bohlman Rd,Saratoga,Santa Clara County,69,E,1,,
10184,Colby Ave.,Cupertino,Santa Clara,60,B,4,,
20140,Thompson Road,,Santa Clara County,73,A,4,,
548,Old La Honda Road,Woodside,San Mateo,46,D,3,076-110-040,
20,Why Worry Lane,Woodside,San Mateo,42,C,4,,
160,Meadowood Dr.,Portola Valley,San Mateo,47,A,2,,
,,Los Gatos,,,,,,
3278,Hicherson Dr.,San Jose,Santa Clara,56,B,6,,
,,Los Gatos,,,,,,
,Old Spanish Trail,,San Mateo,51,C,3,080-152-003,
,,,,,,,,
23649,Skyline Terrace,,Santa Cruz,27,66,34,,
14965,Bohlman Road,Saratoga,Santa Clara County,69,E,1,,
865,Valley View Drive,Ben Lomond,Santa Clara,32,43,44,072-091-35,
133,South Navarra Rd.,Scotts Valley,Santa Cruz,,,,,
133,So. Navarra Rd.,Scotts Valley,,,,,,
20620,"Sigal Drive, Lot 2",Saratoga,Santa Clara,69,F,2,,
,,,,,,,,
24125,Miller Cut-Off,Los Gatos,Santa Clara,78H,C,3,,
56,Hillbrook Drive,Portola Valley,San Mateo,47,B,3,,
22356,Riva Ridge Drive,,Santa Cruz,20,61,31,006-361-010,
27440,Sherlock Court,Los Altos Hills,Santa Clara,50,F,6,,
174,Alta Mesa Road,Woodside,San Mateo,42,D,2,,
,,Cupertino,,,,,,
16321,Redwood Lodge Rd.,Los Gatos,Santa Clara,27,67,35,,
23885,Wrights Station Rd.,,Santa Clara,78H,C,3,,
12316,La Lena Street,,Santa Cruz County,25,50,7,075-043-32,
1692,Sandy Rock Lane,San Jose,Santa Clara,66,E,2,,
810,Fanning Grade,Ben Lomond,Santa Cruz County,32,40,41,078-121-12,
430,Auburn Way,San Jose,Santa Clara,60,E,4,,
,,Portola Valley,San Mateo,,,,,
19800,Skyline Blvd.,,Santa Clara,57,A,3,,
,Dry Well Rd.,,Santa Cruz,12,33,23,085-011-40,
,,Portola Valley,,,,,,
,,San Jose,Santa Clara County,,,,,
18360,Los Cumbres Road,Los Gatos,Santa Clara,14,46,16,,
46990,Ocotillo Court,Fremont,Alameda,110,E,1,,
,,Saratoga,Santa Clara County,,,,,
431,Dawson,San Jose,Santa Clara,62,3,6,,
,,Los Gatos,Santa Clara County,,,,,
5075,Porter Gulch Rd.,Aptos,Santa Cruz,52,73,57,,
25505,Soquel-San Jose Rd.,,Santa Cruz County,27,69,63,097-171-06,
13260,Skyline Blvd.,,San Mateo County,41,C,1,,
25396,La Loma Drive,Los Altos,Santa Clara,51,C,6,,
12,Blossom Way,Scotts Valley,Santa Cruz,42,60,48,,
,,Santa Clara County,Santa Clara County,,,,,
,,Santa Clara County,Santa Clara County,,,,,
,,Los Gatos,Santa Clara County,,,,,
21447,Roaring Water Wy.,,Santa Clara County,73,F,6,558-024-008,
,,Portola Valley,San Mateo County,,,,,
21964,Gillette Drive,,Santa Clara County,78G,E,1,689-240-27,
21964,GILLETTE DRIVE,LOS GATOS,SANTA CLARA,,,PG 78G E-1,000-000-000,
,Hayfields Rd.,Portola Valley,San Mateo,46,E,3,,
22,Starwood,Woodside,San Mateo County,46,C,3,,
,,San Martin,,,,,,
308,Olive Hill Lane,Woodside,San Mateo,42,B,2,,
10400,Miguelita Road,,Santa Clara,56,C,3,,
1227,Upper Happy Vly. Rd.,Lafayette,Contra Costa,71,C,3,,
10675,Clubhouse Lane,Cupertino,Santa Clara,59,C,5,,
20,Old La Honda Rd.,Woodside,San Mateo,46,D,1,075-134-210,
23600,Ravensbury Ave.,Los Altos Hills,Santa Clara,58,E,2,,
123,Central Avenuw,Los Gatos,Santa Clara,70,E,5,,
21391,Aldercroft Hts Rd.,Santa Clara County,Santa Clara County,73,E,6,,
,,Salinas,,,,,,
140,Russell Avenue,Portola Valley,San Mateo,46,E,3,,
,,Santa Clara County,Santa Clara County,,,,,
25350,Adams Road,Los Gatos,Santa Cruz,,,,,
25350,Quail Ridge Road,,Santa Cruz,,,,,
4757,Blue Ridge Drive,San Jose,Santa Clara County,65,B,1,,
,Damon Court,Saratoga,Santa Clara County,64,D,5,,
23644,Mountain Charlis Rd,Summit,Santa Cruz,78G,D,4,093-311-03,
21555,PROSPECT ROAD,SARATOGA,,,,,000-000-000,
21555,PROSPECT ROAD,SARATOGA,,,,,000-000-000,
21555,PROSPECT ROAD,SARATOGA,,,,,000-000-000,
10775,Stevens Canyon Road,Cupertino,,,,,000-000-000,
10775,Stevens Canyon Road,Cupertino,,,,,000-000-000,
10775,STEVENS CANYON ROAD,CUPERTINO,,,,,000-000-000,
,,Los Gatos,,,,,,
3689,El Grande Drive,San Jose,Santa Clara,5,F,1,,
1145,Palomar Drive,Redwood City,San Mateo,36,B,3,,
12989,Vista Del Valle,Los Altos Hills,Santa Clara,,,,,
,,Cupertino,,,,,,
,,Santa Clara County,Santa Clara County,,,,,
23450,Ravensbury,Los Altos Hills,Santa Clara,58,E,2,,
,,Portola Valley,,,,,,
26346,Esperanza Rd.,Los Altos Hills,Santa Clara,51,B,3,,
1036,SIERRA DRIVE,MENLO PARK,,,,,000-000-000,
1036,SIERRA DRIVE,MENLO PARK,,,,,000-000-000,
1036,SIERRA DRIVE,MENLO PARK,,,,,000-000-000,
1036,SIERRA DRIVE,MENLO PARK,,,,,000-000-000,
15561,Glen Una Dr.,Los Gatos,Santa Clara,70,A,2,,
225,Woodland Dr.,Scotts Valley,Santa Clara,26,61,39,,
28168,Radcliffe Lane,Los Altos Hills,Santa Clara,50,F,2,,
555,Manzanita Way,Woodside,San Mateo,,,,,
1000,Mountain Home Rd.,Woodside,San Mateo,,,,,
,,Saratoga,,,,,,
170,Golden Oak Drive,Portola Valley,San Mateo,47,C,3,,
22767,San Juan Rd.,Cupertino,Santa Clara County,59,B,5,,
,,Cupertino,,,,,,
,,Menlo Park,,,,,,
25355,Spanish Ranch Road,Los Gatos,Santa Cruz County,78,F,5,,
14134,Dorene Court,Saratoga,Santa Clara,,,,,
10591,La Honda Road,La Honda,San Mateo,,,,,
,,San Jose,,,,,,
9,Homer Lane,Menlo Park,San Mateo,,,,,
17230,Phillips Ave.,Los Gatos,Santa Clara,,,,,
18054,Virginia Drive,Redwood Estates,Santa Clara,,,,,
,,San Carlos,,,,,,
13430,Country Way,Los Altos Hills,Santa Clara,50,F,4,,
12106,Beauchamps Lane,Saratoga,Santa Clara,64,E,2,,
,,San Jose,Santa Clara County,,,,,
,,Saratoga,Santa Clara County,,,,,
10955,Edgemont Dr.,E. San Jose,Santa Clara,56,B,2,,
,,Santa Cruz County,Santa Cruz County,,,,,
1701,Hillman Ave.,Belmont,San Mateo,,,,,
,,Hillsborough,,,,,,
1430,Glacier Ave.,San Jose,Santa Clara,,,,,
,,Woodside,,,,,,
,,,,,,,,
,,Los Altos Hills,,,,,,
,,Los Altos Hills,,,,,,
,,Los Trancos Woods,,,,,,
,Carmel Valley Road,Carmel,Monterey,,,,,
21247,Chiquita Way,Saratoga,Santa Clara,,,,,
21247,Chiquita Way,Saratoga,Santa Clara,,,,,
21247,Chiquita Way,Saratoga,Santa Clara,,,,,
205,Miseltoe Rd.,Los Gatos,Santa Clara,65,D,6,,
,,San Carlos,,,,,,
24627,Olive Tree Lane,Los Altos Hills,Santa Clara,,,,,
,Old Piedmont Rd.,San Jose,Santa Clara,,,,,
1830-1836,Stone Avenue,San Jose,Santa Clara,67,C,1,,
7145,La Honda Rd.,La Honda,San Mateo,49A,,,,
20135,Beatty Ridge Rd.,,Santa Cruz,9,46,16,,
1490,Elsman Ct.,San Jose,Santa Clara,,,,,
1264,Curtis Ave.,San Jose,Santa Clara,,,,,
1007,Mazzone Dr.,San Jose,Santa Clara,72,D,3,,
20770,Montalvo Way,Saratoga,Santa Clara,69,F,2,,
55,Orchard Hills Way,Atherton,San Mateo,3,A,1,,
55,Orchard Hills Way,Atherton,San Mateo,,,,,
,,Atherton,,,,,,
55,ORCHARD HILLS WAY,ATHERTON,,,,,000-000-000,
55,ORCHARD HILLS WAY,ATHERTON,,,,,000-000-000,
3489,Kaylene Drive,San Jose,Santa Clara,56,L,5,612-630-16,
4866,Alum Rock Ave.,San Jose,Santa Clara,,,,,
24787,Soquel-San Jose Rd.,,Santa Cruz,27,70,36,,
195,Paloma Drive,Portola Valley,San Mateo,47,A,1,,
,Moss Landing Road,Moss Landing,Monterey,,,,133-201-05,
21097,Comer Drive,Saratoga,Santa Clara,64,E,4,,
400,Kebet Ridge Road,Sky Londa,San Mateo,46,C,3,075-321-200,
,Bean Hollow Rd.,,San Mateo,,,,,
,Yosemite Court,Woodside,San Mateo,36,B,3,068-291-130,
,Blue Oak Ranch,,Santa Clara,56,C,3,,
,,,,,,,,
,,Saratoga,,,,,,
,,Los Trancos Woods,,,,,,
,,Los Trancos Woods,,,,,,
266,Flamingo Drive,Campbell,Santa Clara,66,D,3,,
,,,,,,,,
3884,Sophist Drive,San Jose,Santa Clara,,,,,
,,,,,,,,
885,Portola Road,Portola Valley,San Mateo,46,F,3,,
102,Tynan Way,Portola Valley,San Mateo,46,E,3,,
,,San Jose,,,,,,
,,,,,,,,
6076,Marla Court,San Jose,Santa Clara,71,F,4,,
17935,Oak Drive,Redwood Estates,Santa Clara,,,,,
14341,Miranda Way,Los Altos Hills,Santa Clara,51,C,2,,
,,Los Gatos,,,,,,
1165,Barcelona Dr.,Pacifica,San Mateo,25,A,6,,
,,,,,,,,
117,Belwood Gateway,Los Gatos,Santa Clara,71,E,3,,
100,University Ave.,Palo Alto,San Mateo,,,,,
,,,,,,,,
22,Starwood Dr.,,San Mateo,46,B,3,,
156,Alice Lane,Orinda,Contra Costa,73,C,1,,
,,,,,,,,
,Quartuccio Way,E. San Jose,Santa Clara,63A,A,3,662-180-04,
20620,"Sigal Dr,Lot2,PCL B",Saratoga,Santa Clara,69,F,2,,
,,Morgan Hill,,,,,,
27050,MOODY ROAD,LOS ALTOS HILLS,SANTA CLARA,,,,000-000-000,
27050,MOODY ROAD,LOS ALTOS HILLS,SANTA CLARA,,,,000-000-000,
27050,MOODY ROAD,LOS ALTOS HILLS,SANTA CLARA,,,,000-000-000,
27050,MOODY ROAD,LOS ALTOS HILLS,SANTA CLARA,,,,000-000-000,
18475,Murphy Springs Ct.,Morgan Hill,Santa Clara,79,C,3,,
,,Woodside,,,,,,
20,Old La Honda Road,Woodside,San Mateo,,,,,
1716,Vine Hill Road,,Santa Cruz,34,62,45,,
21174,Sarahills Dr.,Saratoga,Santa Clara,64,E,5,503-053-014,
19201,Harleigh Dr.,Saratoga,Santa Clara,65,B,5,,
,,San Francisco,,,,,,
,,,,,,,,
,Lariat Lane,San Jose,Santa Clara,56,B,1,595-206-5,
1085,Deanna St.,Menlo Park,San Mateo,43,B,3,,
112,Foxwood Rd.,,San Mateo,51,C,1,,
,Heacox Road,,San Mateo,51,B,3,,
2315,Tioga Drive,Menlo Park,San Mateo,43,B,3,,
21221 r,Canyon View Dr.,Saratoga,Santa Clara,64,E,6,503-028-108,
,Bean Hollow Rd/Rt 1,Pescadero,San Mateo,56,B,5,,
1635,Bryant Street,Palo Alto,Santa Clara,44,B,2,,
261,Durazno Way,,San Mateo,47,C,1,,
261,Durazno Way,,San Mateo,47,C,1,,
48900,Mines Road,,Santa Clara,42D,B,6,070-180-07,
3806,E. Lake Way,,San Mateo County,36,C,5,,
30,Patrol Court,Woodside,San Mateo,,,,072-074-05,
4,Valley Oak,Portola Valley,San Mateo,47,B,5,,
944,Willow Road,Menlo Park,San Mateo,38,A,4,062-214-110,
23151,Mora Glen Drive,,Santa Clara County,58,F,2,,
12541,Corbetta Lane,Los Altos Hills,Santa Clara,51,B,6,,
3,Sunhill,Portola Valley,San Mateo,47,B,5,,
,,Saratoga,Santa Clara County,,,,,
20555A,Skyline Boulevard,,San Mateo,57,C,4,080-120-140,
151,Ramona Road,Los Trancos Woods,San Mateo,51,C,1,,
16442,Eugenia Way,Los Gatos,Santa Clara,71,A,6,,
,,Los Gatos,,,,,,
19240,Mountain Way,Los Gatos,Santa Clara,,,,,
135,Summerhill Lane,Woodside,San Mateo,36,E,6,,
21315,Lumbertown Lane,Saratoga,Santa Clara,64,E,6,,
384,Greendale Way,Redwood City,San Mateo,,,,,
3466,Arden Road,Hayward,Alameda,60,B,3,,
,,Los Gatos,,,,,,
853,San Jude,Palo Alto,Santa Clara,,,,,
,,Los Gatos,,,,,,
,,Los Gatos,,,,,,
,Rapley Ranch Road,,San Mateo,,,,,
1590,Spring Grove Rd.,Hollister,San Benito,,,,,
425,Manzanita Way,Woodside,San Mateo,42,E,4,,
,,Santa Clara County,,,,,,
7011,Devon Way,Oakland,Alameda,2,B,2,,
,East Avenue,Montara,San Mateo,30,D,1,036-310-080,
,,Montara,San Mateo,30,D,1,036-310-090,
1165,Barcelona Drive,Pacifica,,25,F,6,,
,Grandview Drive,Woodside,San Mateo,46,D,2,076-220-170,
225,Winding Way,Woodside,San Mateo,42,D,4,,
431,Conil Way,Ladera,San Mateo,47,C,1,,
10869,Mora Drive,Los Altos Hills,Santa Clara,,,,,
22000,Rolling Hills Rd.,Saratoga,Santa Clara,64,D,3,,
,,Menlo Park,,,,,,
1255,La Canada Rd.,Hillsborough,San Mateo,29,A,5,,
460,Cypress Park Court,San Jose,Santa Clara,67,E,5,,
18350,Laurel Dr.,Monte Sereno,Santa Clara,70,D,2,,
,Above Old Well Road,,Santa Clara,73,C,6,,
12348,Melody Lane,Los Altos Hills,Santa Clara,51,A,4,,
2102,Harnil Way,San Jose,Santa Clara,67,A,1,,
,Hobart Avenue,San Jose,Santa Clara,56,A,5,601-22 -51,
13641,Paseo Del Roble,Los Altos Hills,Santa Clara,50,F,3,,
4442,Adragna Court,San Jose,Santa Clara,67,F,5,,
3475,Oakwood Dr.,Morgan Hill,Santa Clara,80,E,5,,
1025,Trinity Drive,Menlo Park,San Mateo,,,,,
14440,Pike Road,Saratoga,Santa Clara,64,D,5,,
,,Woodside,,,,,,
683,Windmill Lane,Pleasanton,Alameda,66,E,5,,
1052,Remo Way,San Carlos,San Mateo,36,B,1,,
1060,Continental Dr.,Menlo Park,Santa Clara,43,B,3,,
15160,Sobey Rd.,Saratoga,Santa Clara,,,,,
140,Degas Rd.,Portola Valley,San Mateo,47,B,2,077-101-140,
25591,Chapin Rd.,Los Altos Hills,Santa Clara,51,D,4,,
13831,La Paloma Rd.,Los Altos Hills,Santa Clara,51,C,4,175-350-80,
,Winchester/Lark,Los Gatos,Santa Clara,,,,,
,Highway 1,,San Mateo County,48A,B,6,086-250-130,
15967,Hidden Dr.,Monte Sereno,Santa Clara County,70,B,3,,
19656,Breamar Dr.,Saratoga,Santa Clara County,65,B,4,,
,Robles Drive,Woodside,San Mateo,42,D,4,072-201-310,
22150,Loma Prieta Way,Los Gatos,Santa Clara County,78G,F,2,558-100-36,
398,Walsh Rd.,Atherton,Santa Clara,42,A,3,073-212-030,
6214,Evangeline Dr.,San Jose,Santa Clara County,72,E,4,,
498,La Mesa Court,Merlo Park,San Mateo,43,C,6,,
,,Santa Clara,Santa Clara,,,,,
32513,Loma Chiquita Rd.,Los Gatos,Santa Clara County,78L,C,4,742-150-18,
32513,LOMA CHIQUITA ROAD,LOS GATOS,SANTA CLARA,,,,000-000-000,
,White Oaks Road,Campbell,Santa Clara,66,B,6,,
48942,Rose Garden Court,Fremont,Alameda,113,A,5,,
48952,Rose Garden Court,Fremont,Alameda,113,A,5,,
105,Arbor Court,Woodside,San Mateo,42,C,2,,
,Love Harris Road,Santa Clara County,Santa Clara County,74,A,5,558-047-005,
21290,Glenmont Dr.,Saratoga,Santa Clara County,64,E,6,503-028-054,
5396,Avenida,San Jose,Santa Clara County,72,F,1,,
106,Claitor Way,San Jose,Santa Clara County,56,B,1,545-020-020,
,,,,,,,,
250,Bohen Road,,Santa Cruz County,34,44,67,,
,,Mountain View,Santa Clara,52,B,1,,
602,Farley,Mountain View,Santa Clara,45,A,6,,
,,San Jose,Santa Clara County,,,,,
112,Cabrillo St.,Capitola,Santa Cruz,,,,,
851,Cape Verde Place,San Jose,Santa Clara,,,,,
1335,Muench Ct.,San Jose,Santa Clara County,,,,,
1039,Woodview Place,San Jose,Santa Clara County,,,,,
15645,Orbit Dr.,Saratoga,Santa Clara County,69,E,3,,
18920,Loree Ave,San Jose,Santa Clara County,60,C,5,,
,,Los Gatos,,,,,,
846,Harliss Ave,San Jose,Santa Clara County,62,B,5,,
,,Los Altos Hills,Santa Clara,,,,,
2805,White Acres Dr.,San Jose,Santa Clara,63,D,5,,
6113,Strelow,San Jose,Santa Clara County,72,B,4,,
,Old Santa Clara Hwy.,Summit,Santa Clara,78G,E,2,,
,,Woodside,San Mateo County,,,,,
,Quimby Road,,Santa Clara County,63,F,3,654-002-003,
,,,,,,,,
1138,Valley Quail Ct.,San Jose,Santa Clara,75,E,1,,
985,Woodview Place,San Jose,Santa Clara County,,,,,
227,"N. 1st St., Ste. 300",San Jose,Santa Clara,68,A,6,,
192,Hawthorne,Atherton,San Mateo,37,D,4,,
1039,Woodview Place,San Jose,Santa Clara County,75,E,1,,
19620,Redbury Dr.,Los Gatos,Santa Clara,70,B,3,,
1675,Rogers Ave.,San Jose,Santa Clara County,54,E,4,,
1125,Walsh Road,Atherton,San Mateo County,43,A,3,,
,,Mountain View,Santa Clara,45,A,5,,
,,Woodside,San Mateo County,,,,,
275,Spreckles Dr.,Aptos,Santa Cruz,70,77,65,041-042-15,
Lot 10,Kings Mtn. Park,Skyline,San Mateo,41,D,4,,
Lot 44,Grape Vine Court,Fremont,Alameda,111,A,4,,
310-350,Madison Ave.,San Bruno,San Mateo,25,F,4,,
63,Redding Rd.,Campbell,Santa Clara County,66,B,5,,
,2 Mi. West Loma Mar,Pescadero,San Mateo,,,,,
1305,Woodale Court,San Jose,Santa Clara County,63,B,1,,
365,Reed St.,Santa Clara,Santa Clara County,54,5,C,,
1340,Sharp Ave.,Campbell,Santa Clara County,66,B,5,,
400,Old La Honda Rd.,Woodside,San Mateo,46,D,2,,
2316,Crest Lane,Menlo Park,San Mateo,,,,,
3859,Polton Place Way,San Jose,Santa Clara County,68,C,2,,
7011,Graystone Lane,San Jose,Santa Clara County,72,F,5,,
115,Harwood Court,Los Gatos,Santa Clara,71,E,4,,
2331,Westmoreland Dr.,San Jose,Santa Clara County,66,E,3,,
16480,Rustling Oak,Morgan Hill,Santa Clara,,,,,
85,Robles Drive,Woodside,San Mateo County,42,D,4,,
460,Raymundo Drive,Woodside,San Mateo County,42,A,1,,
2327,Olympic Ave.,Menlo Park,San Mateo,43,C,4,,
21240,Canyon View Dr.,Saratoga,Santa Clara County,64,E,5,,
103,Fey Drive,Burlingame,San Mateo County,,,,,
16095,Redwood Lodge Road,Summit,Santa Clara,27,,,,
1014,Balboa Ave.,Capitola,Santa Cruz,69,70,64,,
21166,Haymeadow Drive,Saratoga,Santa Clara County,69,E,1,,
1666,Whitham Ave.,Los Altos,Santa Clara County,58,F,1,,
190,Golden Hills Drive,Portola Valley,San Mateo County,47,A,2,,
,,Fremont,,,,,,
,,Fremont,,,,,,
3115,Del Monte St.,San Mateo,San Mateo,32,D,2,,
16201,Highland Drive,,Santa Clara,56,B,2,,
170,Valdeflores Drive,Burlingame,San Mateo,28,D,3,,
,,,,,,,,
455,Aspen Way,Los Altos,Santa Clara County,59,B,2,,
18641,Withey Road,Monte Sereno,Santa Clara County,,,,,
,,Monte Sereno,,,,,,
,,Monte Sereno,,,,,,
2322,Venn Ave.,San Jose,Santa Clara,71,B,1,,
837,Palm Street,San Jose,Santa Clara County,62,A,4,,
1611,Bird Ave.,San Jose,Santa Clara County,62,B,6,,
150,Erica Way,,San Mateo County,47,C,1,,
,,Campbell,Santa Clara County,,,,,
1,Bridle Lane,Woodside,San Mateo County,,,,,
7247,Mesa Dr.,Aptos,Santa Cruz County,61,75,63,,
20878,Jacks Road,Saratoga,Santa Clara County,,,,,
13,Memory Lane,La Honda,San Mateo County,50,B,5,,
,Cristich/Vietenheim,Campbell,Santa Clara County,66,B,4,,
1136,Palomar Dr.,Redwood City,San Mateo County,36,B,3,051-417-200,
1855,Cowper Street,Palo Alto,Santa Clara County,44,B,2,,
,,Monte Sereno,Santa Clara County,,,,,
5993,Vista Loop,San Jose,Santa Clara County,71,E,4,,
123,Madera Court,Los Gatos,Santa Clara,71,D,4,,
1681,Hallowcreek Court,San Jose,Santa Clara,,,,,
,,Belmont,,,,,,
,,San Jose,Santa Clara,,,,,
560,Summit Springs,Woodside,San Mateo,42,C,4,,
65,Robles Drive,Woodside,San Mateo,,,,072-201-042,
2,Hayfields Road,Portola Valley,San Mateo,46,E,2,,
415,Alpine Drive,Boulder Creek,Santa Cruz,12,34,24,,
,Willowbrook Lane,Aptos,Santa Cruz,,,,,
,,Portola Valley,,46,E,3,,
,Skyline Blvd.,,San Mateo,46,D,4,078-130-140,
155,Wildwood Way,Woodside,San Mateo,42,E,1,,
624,Loyola Drive,Los Altos,Santa Clara,58,F,1,,
,Slate Creek Road,,San Mateo,51A,B,6,,
,Rapley Ranch Road,San Mateo County,San Mateo,50,F,3,080-320-020,
,Rapley Ranch Road,,San Mateo,50,F,3,080-320-020,
21201,Sullivan Way,Saratoga,Santa Clara,64,E,6,,
,,Saratoga,Santa Clara,,,,,
21536,Aldercroft Heights,,Santa Clara,78G,F,1,,
,,,,,,,,
,,,,,,,,
574,Summit Road,,Santa Cruz,,,,,
1250,Crossgates Lane,San Jose,Santa Clara,72,C,4,,
17354,Grosvenor Court,Monte Sereno,Santa Clara,70,F,2,,
1521,Hervey Lane,San Jose,Santa Clara,62,B,6,,
710,Railroad Ave.,Winters,,,,,,
1711,Hillman Ave.,Belmont,,,,,,
155,Bear Gulch Dr.,Portola Valley,San Mateo,47,C,3,,
21518,Saratoga Heights Dr.,Saratoga,Santa Clara,64,D,6,,
21518,Saratoga Heights Dr.,Saratoga,Santa Clara,64,D,6,,
159,Ramona Road,,San Mateo,51,C,1,,
,,,,,,,,
,,,,,,,,
,WILLOW STREET,SAN JOSE,,,,,000-000-000,
,WILLOW STREET,SAN JOSE,,,,,000-000-000,
,WILLOW STREET,SAN JOSE,,,,,000-000-000,
,WILLOW STREET,SAN JOSE,,,,,000-000-000,
,WILLOW STREET AND MINNESOTA AV,SAN JOSE,,,,,000-000-000,
1041,Sierra Drive,,San Mateo,43,B,3,,
6,Russell Ave.,Portola Valley,San Mateo,46,E,3,,
1633,Babero Ave.,San Jose,Santa Clara,,F,5,66,
14473,Oak Place,Saratoga,Santa Clara,64,F,6,,
,,,,,,,,
25829,Springhill Dr.,Los Altos Hills,,51,C,2,,
1299,Pine Avenue,San Jose,Santa Clara,66,F,2,,
,,,,,,,,
,Partition Road,Woodside,San Mateo,42,B,4,072-173-020,
159,Ramona Road,,San Mateo,51,C,1,,
4042,Hobart Avenue,San Jose,Santa Clara,56,A,5,601-022-033,
,Wedgewood Ave.,Los Gatos,Santa Clara,65,F,6,,
13400,Country Way,Los Altos Hills,Santa Clara,,,,,
27525,Edgerton Rd.,Los Altos Hills,Santa Clara,51,A,4,,
,,Santa Cruz,,,,,,
16,PRESTON ROAD,WOODSIDE,,,,,000-000-000,
16,PRESTON ROAD,WOODSIDE,,,,,000-000-000,
31,WILLOW ROAD,MENLO PARK,,,,,000-000-000,
1411,NATIVE SONS OF THE GOLDEN WEST,,SAN MATEO,,,,000-000-000,
20850,VERDE VISTA LANE,SARATOGA,,,,,000-000-000,
19800,SKYLINE BOULEVARD,,SANTA CLARA,,,,000-000-000,
610,WATERBURY LANE,FOSTER CITY,,,,,000-000-000,
4022,VILLA VERA,PALO ALTO,,,,,000-000-000,
10671,Dorman Court,San Jose,,,,,000-000-000,
10671,Dorman Court,San Jose,,,,,000-000-000,
10671,Dormar,San Jose,Santa Clara,,,,,
,,,,,,,,
,,,,,,,,
1305,WOODALE COURT,SAN JOSE,,,,,000-000-000,
13648,VAQUERO COURT,SARATOGA,,,,,050-314-042,
13648,VAQUERO COURT,SARATOGA,,,,,000-000-000,
13648,VAQUERO COURT,SARATOGA,,,,,050-314-042,
13646,VAQUERO COURT,SARATOGA,,,,,000-000-000,
,,,,,,,000-000-000,
,,Woodside,San Mateo,,,,,
1230,REDCLIFF DRIVE,SAN JOSE,,,,,000-000-000,
21451,CONTINENTAL CIRCLE,CUPERTINO,,,,,000-000-000,
,,SAN FRANCISCO,,,,,000-000-000,
6466,VALLEY CIRCLE BOULEVARD,CANOGA PARK,,,,,000-000-000,
7411,DELCO PLACE,CANOGA PARK,,,,,000-000-000,
5413,COLONY GREEN DRIVE,SAN JOSE,,,,,000-000-000,
5407,COLONY GREEN DRIVE,SAN JOSE,,,,,000-000-000,
5440,COLONY GREEN DRIVE,SAN JOSE,,,,,000-000-000,
5413,COLONY GREEN DRIVE,SAN JOSE,,,,,000-000-000,
5362,COLONY GREEN DRIVE,SAN JOSE,,,,,000-000-000,
5401,COLONY GREEN DRIVE,SAN JOSE,,,,,000-000-000,
5355,COLONY GREEN DRIVE,SAN JOSE,,,,,000-000-000,
5452,COLONY FIELD DRIVE,SAN JOSE,,,,,000-000-000,
,,,,,,,,
,MINNESOTA AVENUE,SAN JOSE,,,,,000-000-000,
,Minnesota & Curtiss Avenue,San Jose,Santa Clara,,,,,
13638,VALLEY HEART DRIVE,SHERMAN OAKS,,,,,000-000-000,
20259,GIFFORD STREET,CANOGA PARK,,,,,000-000-000,
20614,WYANDOTTE STREET,CANOGA PARK,,,,,000-000-000,
4625,TOBIAS AVENUE,SHERMAN OAKS,,,,,000-000-000,
880,W. Ridge Drive,Portola Valley,San Mateo,47,B,2,,
103,ANGEL COURT,LOS GATOS,,,,,000-000-000,
15243,Del Gado Drive,Sherman Oaks,,531,H,5,,
8554,Langdon Ave.,Sepulveda,,531,G,1,,
5153,Tampa Avenue,Tarzana,,500,G,3,,
13750,Surrey Lane,Saratoga,Santa Clara,64,F,4,,
534,Harmony Ln.,San Jose,Santa Clara,68,B,4,,
5051,Campo Road,Woodland Hills,,560,B,3,,
5865,E. Briar Wood Lane,Agoura,,528,A,2,,
7535,Yarmouth Avenue,Resada,,531,A,5,,
4456,Conchita Way,Tarzana,,560,4,,,F
2068,Howard Street,Semi Valley,,,,,,
19038,Schoolcraft,Reseda,,,,,,
19423,Vanowen Street,Reseda,,530,J,3,,
,,,San Mateo,,,,,
,,,,,,,,
7119,Rivol Rd.,West Hills,,529,D,5,,
16111,Meadowview Dr.,Encino,,,,,,
21105,Lopez Street,Woodland Hills,,560,3,B,,
15045,Sylvan St.,Van Nuys,,531,H,7,,
19447,Rosita Street,Tarzana,,560,F,4,,
10925,Stonebrook Drive,,Santa Clara,58,D,1,,
12107,Marine Street,Los Angeles,Los Angeles,672,2,B,,
5021,Berryman Ave.,Culver City,,672,E,4,,
12613,Everglade St.,Los Angeles,Los Angeles,672,B,3,,
8517,Hargis Ave.,Los Angeles,Los Angeles,632,J,7,,
6340,Wynne Ave.,Reseda,,500,H,3,,
1493,Japaul Lane,San Jose,Santa Clara,48,D,6,,
22427,Venido Road,Woodland Hills,,559,J,3,,
17418,Pasco Carmelo,Los Gatos,Santa Clara,71,A,5,,
8226,Redbush Lane,Panorama City,,,,,,
9432,Swinton Ave.,Sepulveda,Los Angeles,501,E,6,,
20422,Lander Drive,Woodland Hill,,560,D,4,,
1978,Moore Road,Woodside,San Mateo,42,F,3,,
246,Monroe Ave.,Mountain View,Santa Clara,44,E,5,,
5608,Oso Avenue,Woodland Hills,Los Angeles,560,D,2,,
5803,Irvine Ave.,North Hollywood,Los Angeles,562,H,1,,
4065,Glenalbyn Dr.,Los Angeles,Los Angeles,595,A,5,,
1112,E. 65th St.,Inglewood,Los Angeles,673,E,7,,
13941,Observatory Drive,East San Jose,Santa Clara,56,C,3,,
22471,Venido Rd.,Hoodland Hills,Los Angeles,559,J,3,,
21315,Lumberton Rd.,Saratoga,Santa Clara,69,E,1,,
17665,Bryan Place,Granada Hills,,481,6,A,,
22267,Buenaventura Street,Woodland Hills,,559,4,J,,
369,Wayside Road,Portola Valley,San Mateo,46,E,3,,
22434,Venido Rd.,Woodland Hills,Los Angeles,559,J,3,,
4901,Vista Del Monte Ave.,Sherman Oaks,,,,,,
3347,Emerson Street,Palo Alto,Santa Clara,44,D,4,,
20569,Califa Street,Woodland Hills,,560,1,D,,
17262,San Frndo Misn. Blvd,Granada Hills,,,,,,
17147,Weddington St.,Encino,,561,C,2,,
10840,Mora Drive,Los Altos Hills,Santa Clara,58,F,2,,
11663,Par Avenue,Los Altos Hills,Santa Clara,58,E,1,,
,,Danville,Alameda,,,,,
,Starwood Drive,Woodside,San Mateo,,,,,
,STARWOOD DRIVE,,SAN MATEO,,,,000-000-000,
125,Tynan Way,Portola Valley,San Mateo,46,E,3,,
21151,Canyon View Drive,Saratoga,Santa Clara,64,E,6,,
14827,East Hills Drive,,Santa Clara,56,B,4,,
175,Palomar Drive,Redwood City,San Mateo,36,C,3,,
,Favre Ridge Road,,Santa Cruz,9,47,17,,
,,,,,,,,
139,East Sidlee Street,Thousand Oaks,,,,,,
4108,Spyglass Court,Antioch,Contra Costa,56,A,3,,
25222,Sagecrest Circle,Newhall,,460,D,2,,
22861,Margarita Drive,Woodland Hills,,559,J,5,,
472,Selby Lane,Atherton,San Mateo,37,B,6,,
1524,Marion Drive,Glendale,,564,G,7,,
22257,Miranda Street,Woodland Hills,,559,J,1,,
1730,Fernside St.,Woodside,San Mateo,36,E,6,,
,,,,,,,,
1425,Hawk Court,Sunnyvale,Santa Clara,60,B,1,,
71,Santiago Ave.,Atherton,San Mateo,43,C,1,,
,,,,,,,,
1132,Roy Ave.,San Jose,Santa Clara,67,A,3,,
14562,Horseshoe Drive,Saratoga,Santa Clara,70,A,1,,
1483,Stonecreek Drive,San Jose,Santa Clara,48,D,5,,
,,,,,,,,
9,Reservoir Road,Los Gatos,Santa Clara,70,E,5,,
,Jacinto Road,Cupertino,Santa Clara,59,B,5,342-021-028,
,Waverly Commons,Livermore,Alameda,51,A,4,,
23750,Albers St.,Woodland Hills,,529,E,2,,
,,Atherton,San Mateo,,,,,
167,Ramona Road,,San Mateo,51,C,1,,
,,Woodland Hills,,,,,,
12644,Amber Meadow St.,Moorpark,,,,,,
,,,,,,,,
407 & 409,South 1st St.,San Jose,Santa Clara,62,B,3,,
22438,Venido Road,Woodland Hills,,559,3,J,,
5600,Mason Ave.,Woodland Hills,,560,D,2,,
5463,Penfield Ave.,Woodland Hills,,530,E,1,,
22911,Mariano St.,Woodland Hills,,529,H,2,,
22331,Mulholland Drive,Woodland Hills,,560,5,A,,
1899,Westridge Road,Los Angeles,,,,,,
4488,Estrondo Drive,Encino,,531,D,4,,
,,,,,,,,
4500,La Barca Drive,Tarzana,,560,5,G,,
22903,Mariano Street,Woodland Hills,Los Angeles,529,F,2,,
3394,North Knoll Drive,Los Angeles,Los Angeles,563,D,7,,
4418,Gable Drive,Encino,Los Angeles,561,A,4,,
915,Channing Ave.,Palo Alto,Santa Clara,44,B,1,,
920,Micheltorena Street,Los Angeles,Los Angeles,594,C,6,,
1519,Easterly Terrace,Los Angeles,,594,D,6,,
24526,Calvert Street,Woodland Hills,,,,,,
85,Queens Court,Atherton,San Mateo,43,A,1,,
14649,La Cota Place,Sherman Oaks,Los Angeles,561,J,5,,
5913,Lubao Ave.,Woodland Hills,,560,E,1,,
139,Brooklyn Ave.,San Jose,Santa Clara,61,D,3,,
106,Amato Avenue,Campbell,Santa Clara,65,F,3,,
5257,Sylmar Avenue,Sherman Oaks,Los Angeles,562,A,2,,
4365,Indigo Dr.,San Jose,Santa Clara,67,D,5,,
26535,Altamont Road,Los Altos Hills,Santa Clara,51,B,6,,
4850,Winnetka Ave.,Woodland Hills,,560,E,4,,
6019,Ellenview Avenue,Woodland Hills,,529,D,1,,
,,Redwood City,,,,,,
1189,Los Trancos Road,,San Mateo,51,C,1,,
240,La Questa Way,Woodside,San Mateo,42,D,2,,
19540,Redberry Drive,Los Gatos,Santa Clara,70,B,3,,
4143,Middle Park Dr.,San Jose,Santa Clara,63,E,6,,
14314,Old Wood Road,Saratoga,Santa Clara,65,C,6,,
22950,Burbank Blvd.,Woodland Hills,,,2,G,,
23422,Sunset Road,,Santa Cruz,78H,A,2,,
21903,Villa Oaks Lane,Saratoga,Santa Clara,64,D,4,,
15865,Miradero Ave.,San Jose,Santa Clara,56,B,2,,
,,,,,,,,
9835,Lemona Avenue,Los Angeles,,501,5,H,,
730,Brewer Dr.,Hillsborough,San Mateo,29,A,3,,
6231,Alhambra Ave.,Pleasant Hill,Contra Costa,44,B,1,,
,,,,,,,,
23720,Mariano Street,Resada,,,2,E,,
,Allen Road,,San Mateo,46,A,3,075-340-270,
26786,Robleda Court,Los Altos Hills,Santa Clara,51,D,3,,
289,Kings Mountain Road,Woodside,San Mateo,42,C,3,,
,,Woodside,,,,,,
19235,Hidden Springs Lane,Boulder Creek,Santa Cruz,14,47,23,089-391-010,
7010,Heaton Moor Dr.,San Jose,Santa Clara,72A,E,5,,
17640,Racoon Ct.,Morgan Hill,Santa Clara,80,C,1,,
1671,Canyon View Dr.,San Jose,Santa Clara,48,E,5,,
1671,Canyon View Dr.,San Jose,Santa Clara,48,E,5,,
,,San Jose,Santa Clara,,,,,
840,Las Palmas Dr.,Santa Clara,Santa Clara,60,F,2,,
,,Woodside,San Mateo,,,,,
,,,,46,C,3,,
,Skyline Blvd.,Woodside,Woodside,,,,,
,Allen Road,,San Mateo,46,A,3,075-340-270,
132,El Nido Road,,San Mateo,,,,,
,,Los Altos Hills,San Mateo,,,,,
,,Woodside,San Mateo,,,,,
23846,Bessemer Street,Woodland Hills,,559,E,1,,
922,North 1st Street,San Jose,Santa Clara,54,F,6,,
,Wayside Road,Portola Valley,San Mateo,,,,,
,,,,,,,,
4761,Larkwood Avenue,Woodland Hills,Los Angeles,559,G,4,,
,,Los Angeles,,,,,,
,,Menlo Park,,,,,,
26946,Dezahara Way,Los Altos Hills,,51,B,5,,
,,San Jose,,,,,,
,,Palo Alto,,,,,,
,,San Carlos,,,,,,
4270,Meg Dr.,San Jose,Santa Clara,67,D,5,,
15101,Kennedy Road,Los Gatos,Santa Clara,71,C,5,,
1203,Los Trancos Road,,San Mateo,51,c,1,,
175,Arroyo Way,San Jose,Santa Clara,62,C,2,,
,,,,,,,,
,,,,,,,,
991,Azalea Dr.,Sunnyvale,Santa Clara,53,B,4,,
1508,Country Club Dr.,Los Altos,Santa Clara,58,F,1,,
"Lots 2, 4 ",Story Court,San Jose,Santa Clara,56,C,6,612-035-076,
,Skyline Boulevard,,San Mateo,51,B,4,080-120-120,
,,,,,,,,
21787,Ulmus Drive,,Los Angeles,560,A,6,,
,,Danville,,,,,,
,,Hillsborough,,,,,,
1,Valley Oak,Portola Valley,San Mateo,47,B,5,,
1,Valley Oak,Portola Valley,San Mateo,47,B,5,,
5208,Baron Park Drive,San Jose,Santa Clara,67,E,6,,
15812,Alta Vista Way,San Jose,Santa Clara,56,B,2,,
2402,Pebble Beach Dr.,San Jose,Santa Clara,67,B,3,,B3
109,Palatine Drive,Alhambra,Los Angeles,595,H,5,,
1527,Cross Way,San Jose,Santa Clara,62,B,6,,B6
21610,Edward Way,Cupertino,Santa Clara,59,D,6,,
,,,,,,,,
99,Pullman,San Jose,Santa Clara,67,E,3,,
331,DeAnza Boulevard,San Carlos,San Mateo,36,C,2,,
1183,Fruitdale Avenue,San Jose,Santa Clara,61,E,5,,
6580,Leyland Park Drive,San Jose,Santa Clara,72,B,5,,B5
2120,Old Page Mill Road,Palo Alto,Santa Clara,,,,,
1211,Middlefield Rd.,Palo Alto,Santa Clara,44,B,1,,B1
,,Castro Valley,,,,,,
,,Redwood City,,,,,,
19582,Chardonnay Ct.,Saratoga,Santa Clara,65,B,4,,
,,Redwood City,,,,,,
230,Wooded View Dr.,Los Gatos,Santa Clara,71,B,5,,
330,Cowper St.,Palo Alto,Santa Clara,44,A,1,,
,,Woodside,,,,,,
,,Saratoga,Santa Clara,,,,,
1414,South ""B"" Street,San Mateo,San Mateo,29,E,5,,
3019,OAK KNOLL DRIVE,Redwood City,,,,PG 36 C-4,000-000-000,
,,,,,,,,
,,Saratoga,Santa Clara,,,,,
,,,,,,,,
50,HILLVIEW COURT,Daly City,SAN MATEO,,,PG 21 C-6,000-000-000,
1314,Parkinson Avenue,Palo Alto,San Mateo,44,B,1,,
1317,Edgecliffe Drive,Los Angeles,,594,B,6,,
,,Sherman Oaks,,,,,,
2561,Morley Street,Simi Valley,,,C,10,,
,,,,,,,,
,,Eureka,,,,,,
220,CIRCLE DRIVE,FELTON,Santa Cruz,,,,000-000-000,
2089,PORTOLA ROAD,Woodside,SAN MATEO,,,PG 42 D-6,000-000-000,
201,South Coronado St.,Los Angeles,,634,C,2,,
11219,Stauffer Lane,Cupertino,Santa Clara,,,,,
204,JOSSELYN LANE,Woodside,,,,,000-000-000,
,,Duncan Mills,,,,,,
1010,LUPIN WAY,San Carlos,San Mateo,,,PG 36 C-1,000-000-000,
,,Santa Clara,Santa Clara,,,,,
,,Milpital,,,,,,
214,Howes Drive,Los Gatos,Santa Clara,71,D,2,,
,,Boulder Creek,,,,,,
1605-1607,REDWOOD AVENUE,Redwood City,SAN MATEO,,,PG 37 F-4,000-000-000,
,,Oakland,,,,,,
,,,,,,,,
,,,,,,,,
,,Watsonville,,,,,,
,,,,,,,,
82,Sutherland Drive,Atherton,San Mateo,43,A,2,,
,,,,,,,,
,,Cupertino,Santa Clara,,,,,
471,SANTA ROSA DRIVE,Los Gatos,SANTA CLARA,,,PG 71 E-5,000-000-000,
,,Boulder Creek,,,,,,
15201,NORTON ROAD,Saratoga,SANTA CLARA,,,PG 60 F-2,000-000-000,
329,WALSH ROAD,Atherton,SAN MATEO,,,PG 43 A-2,000-000-000,
,,,Santa Clara,,,,,
3643,Jefferson Ave,Redwood City,San Mateo,36,D,4,,
,,Pacifica,,,,,,
,,Los Gatos,Santa Clara,,,,,
,,Watsonville,Santa Clara,,,,,
,,Los Altos Hills,,,,,,
,,,Santa Clara,,,,,
,,Chatsworth,,,,,,
,,Simi Valley,,,,,,
,,Santa Monica,,,,,,
,,,,,,,,
23,KIRKWOOD WAY,San Carlos,SAN MATEO,,,PG 33 B-5,000-000-000,
,,Cupertino,,,,,,
3600,TRIPP DRIVE,Woodside,SAN MATEO,,,PG 42 B-4,000-000-000,
15812,ALTA VISTA WAY,San Jose,SANTA CLARA,,,PG 56 B-2,000-000-000,
,,Woodside,,,,,,
6189,ROCKY GLEN COURT,San Jose,SANTA CLARA,,,PG 72 E-3,000-000-000,
,,Los Gatos,Santa Clara,,,,,
,,Los Altos Hills,Santa Clara,,,,,
19190,OVERLOOK ROAD,Los Gatos,SANTA CLARA,,,PG 70 D-4,000-000-000,
,,Saratoga,Santa Clara,,,,,
,,Woodside,Santa Clara,,,,,
,,Walnut Creek,,,,,,
,,Woodside,,,,,,
,,,,,,,,
3419,RAMONA STREET,Palo Alto,SANTA CLARA,,,PG 44 D-4,000-000-000,
,,Santa Clara,,,,,,
,,Morgan Hill,,,,,,
,,Redwood City,,,,,,
,,Saratoga,,,,,,
,,Monte Sereno,,,,,,
509,Coleridge Avenue,Palo Alto,San Mateo,,,,,
,,,,,,,,
20972,HIDDEN VIEW LANE,Saratoga,,,,,000-000-000,
,,,,,,,,
1043,LUPINE DRIVE,Sunnyvale,SANTA CLARA,,,,000-000-000,
701,EVELYN AVENUE,Milpitas,SANTA CLARA,,,PG 53 A-3,000-000-000,
11250,CHULA VISTA DRIVE,,SANTA CLARA,,,,000-000-000,
,,,,,,,,
1978,MOORE ROAD,Woodside,,,,,000-000-000,
1144,MOORE ROAD,Woodside,,,,,000-000-000,
,,,,,,,,
,,,,,,,,
,,,,,,,,
,,,,,,,,
,,,,,,,,
,,,,,,,,
,,,,,,,,
,,,,,,,,
,,,,,,,,
,,,,,,,,
,,,,,,,,
,,,,,,,,
,,,,,,,,
3555,VISTA DEL MAR,San Jose,SANTA CLARA,,,PG 55 F-1,000-000-000,
175,ELEANOR DRIVE,Woodside,,,,PG 42 F-2,000-000-000,
35,OAK ROAD,Orinda,CONTRA COSTA,,,PG 42 E-7,000-000-000,
,,,,,,,,
120,SUGAR MAPLE DRIVE,San Jose,SANTA CLARA,,,PG 67 F-4,000-000-000,
946,MADISON DRIVE,Mountain View,SANTA CLARA,,,PG 52 A-5,000-000-000,
,,,,,,,,
1635,HOWARD AVENUE,San Carlos,SAN MATEO,,,PG 33 D-6,000-000-000,
221,JONES ROAD,Los Gatos,,,,PG 70 D-5,000-000-000,
3770,FARM HILL BOULVEARD,Redwood City,,,,PG 36 D-5,000-000-000,
,,,,,,,,
15720,SIMONI DRIVE,San Jose,SANTA CLARA,,,PG 56 B-3,000-000-000,
509,ranch Road,Woodside,,,,,000-000-000,
13970,TRINITY COURT,Saratoga,SANTA CLARA,,,PG 64 F-5,000-000-000,
,,,,,,,,
,,,,,,,,
70,RANCH ROAD,Woodside,,,,,000-000-000,
1599,SILACCI DRIVE,Campbell,SANTA CLARA,,,PG 65 E-4,000-000-000,
,,,,,,,,
,,,,,,,,
234,SHAWNEE PASS,Portola Valley,,,,PG 47 A-3,000-000-000,
,North Skyline,,,,,,,
,,Woodside,,,,,,
,,Cupertino,,,,,,
,,Woodside,,,,,,
,,Saratoga,,,,,,
,,Cupertino,,,,,,
,,Los Gatos,,,,,,
838,CALAVERAS RIDGE DRIVE,Milpitas,SANTA CLARA,,,,000-000-000,
115,TOYONE COURT,Woodside,,,,,000-000-000,
21315,LUMBERTON ROAD,Saratoga,,,,,000-000-000,
,,Los Gatos,,,,,,
480,Las Pulgas Drive,Woodside,San Mateo,,,,000-000-000,
,,Woodside,,,,,,
18211,SARATOGA/LOS GATOS ROAD,Monte Sereno,SANTA CLARA,,,PG 70 D-3,000-000-000,
197,Paloma,Portola Valley,,,,,,
,,Monterey,,,,,,
,,,Santa Clara,,,,,
,,Cupertino,,,,,,
,,Cupertino,,,,,,
,,Cupertino,,,,,,
,,Cupertino,,,,,,
,,Sharon Heights,,,,,,
559,LANFAIR CIRCLE,San Jose,SANTA CLARA,,,PG 67 D-4,000-000-000,
626,GIANNINI DRIVE,Santa Clara,SANTA CLARA,,,PG 60 C-3,000-000-000,
,,Eureka,,,,,,
,,San Jose,,,,,,
,,Salinas,,,,,,
,,Santa Clara,,,,,,
,,San Jose,,,,,,
,,Saratoga,,,,,,
,,San Jose,,,,,,
,,Saratoga,,,,,,
,,Los Gatos,,,,,,
,,Woodside,,,,,,
,,Los Altos,,,,,,
,,Milpitas,,,,,,
,,Saratoga,,,,,,
150,NORTH JACKSON AVENUE,San Jose,SANTA CLARA,,,PG 55 E-5,000-000-000,
,,Los Altos Hills,,,,,,
,,Los Altos Hills,,,,,,
,,Alameda,,,,,,
,,Los Altos Hills,,,,,,
,,,,,,,,
148,Ramoso,Portola Valley,,,,,,
,,Los Gatos,,,,,,
234,Shawnee Pass,Portola Valley,,,,,,
,,Los Gatos,,,,,,
,,Santa Clara,,,,,,
26998,BEAVER LANE,Los Altos Hills,,,,,000-000-000,
,,Pacifica,,,,,,
,,Atherton,,,,,,
,,Los Gatos,,,,,,
,,Los Altos Hills,,,,,,
,,,San Mateo,,,,,
,,Los Banos,,,,,,
,,Morgan Hill,,,,,,
19606,Via Escuela Drive,Saratoga,Santa Clara,,,,,
,,Saratoga,,,,,,
,,Los Altos Hills,,,,,,
122,Maybury Place,Woodside,San Mateo,,,,,
,,Cupertino,,,,,,
,,Lafayette,,,,,,
2315,TIOGA DRIVE,Menlo Park,,,,,000-000-000,
2315,TIOGA DRIVE,Menlo Park,,,,,000-000-000,
2499,HUERTO DRIVE,San Jose,,,,,000-000-000,
501,SIXTH AVENUE,,SAN MATEO,,,,000-000-000,
15780,SIMONI DRIVE,San Jose,,,,,000-000-000,
18300,CHADBOURNE LANE,Monte Sereno,,,,,000-000-000,
2255,CAREMELITA DRIVE,San Carlos,,,,,000-000-000,
22776,MERCEDES ROAD,Cupertino,,,,,000-000-000,
19747,LITTLE BROOK,Los Gatos,SANTA CLARA,,,,000-000-000,
19747,LITTLE BROOK,Los Gatos,SANTA CLARA,,,,000-000-000,
8519,LUPINE COURT,Pleasanton,,,,,000-000-000,
873,SEABREEZE WAY,Santa Rosa,,,,,000-000-000,
2610,Hallmark Drive,Belmont,,,,,000-000-000,
2610,Hallmark Drive,Belmont,,,,,000-000-000,
,,,,,,,,
445,PORTOLA VALLEY ROAD,Portola Valley,,,,,000-000-000,
351,LA QUESTA WAY,Woodside,,,,,000-000-000,
3435,LAVA ROCK COURT,Morgan Hill,SANTA CLARA,,,,000-000-000,
10240,MEADOW LANE,,SANTA CLARA,,,,000-000-000,
881,BAUER DRIVE,San Carlos,,,,,000-000-000,
140,GLENWOOD DRIVE,Woodside,,,,,000-000-000,
140,GLENWOOD DRIVE,Woodside,,,,,000-000-000,
140,Glenwood Avenue,Woodside,San Mateo,,,,,
958,POCATELLO STREET,Sunnyvale,,,,,000-000-000,
23291,SUMMIT ROAD,Los Gatos,,,,,000-000-000,
,ALPINE ROAD,Portola Valley,,,,,000-000-000,
,WILLOW GLEN WAY,San Jose,,,,,000-000-000,
,,Fremont,,,,,,
,Niles Canyon Road,Fremont,Alameda,,,,,
,,San Jose,,,,,,
,,Sonora,,,,,,
,,Fremont,,,,,,
,,Los Altos,,,,,,
25023,SAN JOSE/SOQUEL ROAD,,Santa Cruz,,,,000-000-000,
,,Woodside,,,,,,
,,Saratoga,,,,,,
22183,VILLA OAKS LANE,Saratoga,SANTA CLARA,,,PG 64 D-4,000-000-000,
,LOS TRANCOS ROAD,,SAN MATEO,,,,080-092-180,
1227,LOS TRANCOS ROAD,,SAN MATEO,,,,000-000-000,
,LOS TRANCOS ROAD,,SAN MATEO,,,,080-092-170,
,,Sunnyvale,,,,,,
,,Campbell,,,,,,
,McClellan Road,Cupertino,,,,,000-000-000,
22261,McClellan Road,Cupertino,,,,,000-000-000,
,,Los Gatos,,,,,,
,,Menlo Park,,,,,,
,,Ben Lomond,,,,,,
,,East San Jose,,,,,,
,,,Monterey,,,,,
,,Ladera Heights,,,,,,
,,Woodside,,,,,,
,,Monte Sereno,,,,,,
,,Los Trancos Woods,,,,,,
,,,San Mateo,,,,,
,,,,,,,,
,,Los Altos Hills,,,,,,
,,Redwood Estates,,,,,,
,,Palo Alto,,,,,,
,,Portola Valley,,,,,,
,,,Santa Clara,,,,,
2799,MCLAUGHLIN AVENUE,San Jose,,,,,000-000-000,
22101,LINDY LANE,Cupertino,,,,,000-000-000,
15765,SHARON ROAD,Los Gatos,,,,,000-000-000,
,Congress Springs Road,,Santa Clara,,,,503-043-014,
,,,,,,,,
,Congress Springs Road,,Santa Clara,,,,,
2083,KENT DRIVE,Los Altos,,,,,000-000-000,
,ABBOTT AVENUE,Milpitas,,,,,000-000-000,
10211,BYRNE AVENUE,Cupertino,,,,,000-000-000,
17528,TOURNEY ROAD,Los Gatos,,,,,000-000-000,
118,GROVE DRIVE,Portola Valley,SAN MATEO,,,PG 47 A-3,000-000-000,
118,Grove Drive,Portola Valley,,,,,,
15550,QUICKERT ROAD,Saratoga,,,,,000-000-000,
,,East San Jose,,,,,,
,,San Jose,,,,,,
,,Saratoga,,,,,,
,,Los Altos Hills,,,,,,
14038,CHESTER AVENUE,Saratoga,SANTA CLARA,,,PG 64 C-5,000-000-000,
,,Saratoga,,,,,,
,,Los Gatos,,,,,,
,,,,,,,,
,CONGRESS SPRINGS ROAD,Saratoga,SANTA CLARA,,,,000-000-000,
,Congress Springs Road,,Santa Clara,,,,,
,,Los Trancos Woods,,,,,,
,,,San Mateo,,,,,
,,Woodside,,,,,,
,,San Jose,,,,,,
,,San Jose,,,,,,
,,Palo Alto,,,,,,
,,Saratoga,,,,,,
10175,VISTA VALLE COURT,,SANTA CLARA,,,,000-000-000,
,,San Francisco,,,,,000-000-000,
1080,CONTINENTAL DRIVE,Menlo Park,SAN MATEO,,,PG 43 B-3,000-000-000,
,,Los Gatos,,,,,,
10319,CUMBRA VISTA COURT,Los Altos Hills,SANTA CLARA,,,PG 51 B-4,000-000-000,
,,,San Mateo,,,,,
815,EAST FREMONT AVENUE,Sunnyvale,SANTA CLARA,,,PG 59 D-1,000-000-000,
25325,LA LOMA DRIVE,Los Altos Hills,SANTA CLARA,,,,000-000-000,
,LINDBERG AVENUE,Redwood Estates,SANTA CLARA,,,PG 78G D-2,000-000-000,
2650,TENNANT AVENUE,Morgan Hill,SANTA CLARA,,,PG 79 F-6,000-000-000,
,,Monte Sereno,,,,,,
,ARNERICH ROAD,,SANTA CLARA,,,,537-011-007,
,ARNERICH ROAD,,SANTA CLARA,,,,537-011-007,
22100,MOUNT EDEN ROAD,Saratoga,SANTA CLARA,,,PG 64 C-4,000-000-000,
4268,SOLAR WAY,Fremont,ALAMEDA,,,PG 110 B-5,000-000-000,
Lot 49,IDYLWILD DRIVE,,SANTA CLARA,,,PG 73 D-5,558-040-056,
,IDYLWILD DRIVE,,SANTA CLARA,,,,000-000-000,
Lot 49,IDYLWILD DRIVE,,SANTA CLARA,,,,005-580-456,
,,Santa Clara,,,,,,
,,San Jose,,,,,,
688,Lariat Lane,San Jose,Santa Clara,,,PG 56 A-1,000-000-000,
688,Lariat Lane,San Jose,Santa Clara,,,,000-000-000,
,,San Jose,,,,,,
501,LUCY LANE,,SAN MATEO,,,PG 44 C-2,000-000-000,
15835,POPPY LANE,Monte Sereno,SANTA CLARA,,,PG 70 E-3,000-000-000,
,,,,,,,,
,,San Jose,,,,,,
,,San Jose,,,,,,
15270,NORTON ROAD,Saratoga,SANTA CLARA,,,PG 69 F-2,000-000-000,
,,Los Altos Hills,,,,,,
15240,ROSEMAR AVENUE,San Jose,SANTA CLARA,,,PG 56 C-4,000-000-000,
,,pebble beach,,,,,,
365,NORTHRIDGE DRIVE,Scotts Valley,Santa Cruz,,,,000-000-000,
250,OLYMPIA WAY,Pacifica,SAN MATEO,,,PG 20 D-6,000-000-000,
1430,CURTISS AVENUE,San Jose,SANTA CLARA,,,PG 62 A-6,000-000-000,
629,YOSEMITE COURT,Woodside,SAN MATEO,,,,000-000-000,
20910,CANYON VIEW DRIVE,Saratoga,SANTA CLARA,,,PG 64 C-1,000-000-000,
20910,Canyon View Drive,Saratoga,Santa Clara,,,,,
22701,SAN JUAN ROAD,Cupertino,SANTA CLARA,,,PG 59 B-5,000-000-000,
,,Belmont,,,,,,
,,Saratoga,,,,,,
,,Los Altos Hills,,,,,,
,,Palo Alto,,,,,,
5455,DEL ORO DRIVE,San Jose,SANTA CLARA,,,PG 71 D-3,000-000-000,
,,Woodside,,,,,,
,,San Jose,,,,,,
,,Palo Alto,,,,,,
,,Santa Clara,,,,,,
19425,REDBERRY DRIVE,Los Gatos,SANTA CLARA,,,PG 70 B-3,000-000-000,
,,Fremont,,,,,,
2233,Caballo Rancho Court,Diablo,,,,,,
2233,Caballo Street,Diablo,,,,,,
6731,CRYSTAL SPRINGS DRIVE,San Jose,SANTA CLARA,,,PG 75 6-C,000-000-000,
,,Los Altos Hills,,,,,,
,,San Francisco,,,,,,
22101,SHILLINGSBURG AVENUE,San Jose,,,,,000-000-000,
22101,SHILLINGSBURG AVENUE,San Jose,,,,,000-000-000,
,CHADBOURNE LANE,Monte Sereno,SANTA CLARA,,,PG 70 D-2,000-000-000,
21720,RAINBOW DRIVE,Cupertino,SANTA CLARA,,,PG 64 D-1,000-000-000,
223,BELGATOS ROAD,Los Gatos,SANTA CLARA,,,PG 71 D-3,000-000-000,
25295,LA LOMA DRIVE,Los Altos Hills,SANTA CLARA,,,PG 51 C-6,000-000-000,
10,VISTA VERDE WAY,Portola Valley,,,,,000-000-000,
10,VISTA VERDE WAY,Portola Valley,,,,,000-000-000,
393,ATHERTON AVENUE,Atherton,SAN MATEO,,,PG 43 A-2,000-000-000,
2564,GREENRODK ROAD,Milpitas,SANTA CLARA,,,PG 48 D-3,000-000-000,
,,Los Altos Hills,,,,,,
3900,UIMBY ROAD,,SANTA CLARA,,,PG 63A B-3,659-026-004,
12155,EDGECLIFF PLACE,Los Altos Hills,SAN MATEO,,,,000-000-000,
,,San Mateo,,,,,,
,,Redwood City,,,,,,
,,Stanford,,,,,,
19011,RALEIGH PLACE,Saratoga,SANTA CLARA,,,PG 65 C-3,000-000-000,
715,UPLAND ROAD,Redwood City,San Mateo,,,PG 36 D-3,000-000-000,
19555,REDBERRY DRIVE,Los Gatos,SANTA CLARA,,,PG 70 B-3,000-000-000,
,REDWOOD ESTATES,,SANTA CLARA,,,,000-000-000,
,,Los Gatos,,,,,,
,,San Jose,,,,,,
,,Cupertino,,,,,,
6659,MOUNT HOLLY DRIVE,San Jose,SANTA CLARA,,,PG 72 D-5,000-000-000,
,,San Jose,,,,,,
,,Woodside,,,,,,
,,Menlo Park,,,,,,
,,Woodside,,,,,,
12832,STAR RIDGE COURT,Saratoga,SANTA CLARA,,,PG 64 E-3,000-000-000,
,,San Jose,,,,,,
17495,OLD SUMMIT ROAD,,Santa Cruz,,,,000-000-000,
,,Hillsborough,,,,,,
,,Saratoga,,,,,,
,,Woodside,,,,,,
,,San Jose,,,,,,
,,Los Gatos,,,,,,
,,Los Gatos,,,,,,
178,Jackson,Los Gatos,Santa Clara,,,,,
,,Modesto,,,,,,
,,San Jose,,,,,,
,,San Jose,,,,,,
,,San Jose,,,,,,
163,Ramona Road,,San Mateo,,,,,
,,Los Gatos,,,,,,
,,Campbell,,,,,,
,,Oakland,,,,,,
,,Foster City,,,,,,
,,San Jose,,,,,,
,,San Carlos,,,,,,
,,Los Trancos Woods,,,,,,
701,Madera Drive,San Mateo,San Mateo,,,,,
,,Boulder Creek,,,,,,
,,Mountain View,,,,,,
21231,SULLIVAN WAY,Saratoga,,,,,000-000-000,
21231,SULLIVAN WAY,Saratoga,,,,,000-000-000,
,,Atherton,,,,,,
,,San Jose,,,,,,
1174,LINCOLN AVENUE,San Jose,SANTA CLARA,,,,000-000-000,
10821,Ridgeview Drive,,Santa Clara,,,,,
,,San Mateo,,,,,,
,,,,,,,,
,,,,,,,,
,,,,,,,,
23555,MOUNT EDEN ROAD,Saratoga,SANTA CLARA,,,"Pg. 64, C-",000-000-000,
,,,,,,,,
60,WHY WORRY LANE,Woodside,SAN MATEO,,,"Pg. 42, C-",000-000-000,
15681,LOMA LANE,Los Gatos,SANTA CLARA,,,"Pg. 70, B-",000-000-000,
1230,SOMMERSET DRIVE,San Jose,SANTA CLARA,,,"pg. 49, E-",000-000-000,
,,,,,,,,
,,,,,,,,
,SKYLINE BOULEVARD,,SAN MATEO,,,"Pg. 21, B-",000-000-000,
,,Woodside,San Mateo,,,,,
19866,CHARTERS AVENUE,Saratoga,SANTA CLARA,,,"Pg. 65, A-",000-000-000,
2415,GOLF LINKS CIRCLE,Santa Clara,SANTA CLARA,,,,000-000-000,
,,,,,,,,
409,SYCAMORE,San Carlos,SAN MATEO,,,"Pg. 3, C-5",000-000-000,
,,Pescadero,San Mateo,,,,,
5962,VISTA LOOP,San Jose,SANTA CLARA,,,"Pg. 71, F-",000-000-000,
115,LAKE ROAD,Portola Valley,SAN MATEO,,,"Pg. 51, C-",000-000-000,
,,,,,,,,
124,JANE DRIVE,Woodside,SAN MATEO,,,"Pg. 42, D-",000-000-000,
119,LOS PATIOS,Los Gatos,,,,,000-000-000,
21,OAKHAVEN WAY,Woodside,,,,,000-000-000,
1,TERRACE WAY,FELTON,,,,,000-000-000,
,TRINIDAD DRIVE,San Jose,,,,,000-000-000,
,,,,,,,,
1346,RIMROCK DRIVE,San Jose,,,,,000-000-000,
1346,RIMROCK DRIVE,San Jose,,,,,000-000-000,
27855,BLACK MOUNTAIN ROAD,Los Altos Hills,SAN MATEO,,,"Pg. 51, A-",000-000-000,
228,ELEANOR DRIVE,Woodside,,,,,000-000-000,
228,ELEANOR DRIVE,Woodside,,,,,000-000-000,
177,MOSSWOOD COURT,Santa Cruz,,,,,000-000-000,
13889,UPPER HILL COURT,Saratoga,,,,,000-000-000,
13889,UPPER HILL COURT,Saratoga,,,,,000-000-000,
13889,UPPER HILL COURT,Saratoga,,,,,000-000-000,
13889,UPPER HILL COURT,Saratoga,,,,,000-000-000,
,,,,,,,,
,,,,,,,,
25,ROAN PLACE,Woodside,SAN MATEO,,,"Pg. 42, A-",000-000-000,
,,,,,,,,
,,,,,,,,
251,DURAZNO WAY,,SAN MATEO,,,"Pg. 43, C-",000-000-000,
251,DURAZNO WAY,,SAN MATEO,,,,000-000-000,
,,,,,,,,
20555 B,SKYLINE BOULEVARD,,SAN MATEO,,,,000-000-000,
20770,SKYLINE BOULEVARD,,SAN MATEO,,,,000-000-000,
,,,,,,,,
17050,MONTE BELLO ROAD,Cupertino,SANTA CLARA,,,,000-000-000,
4025,HASTINGS PARK COURT,San Jose,,,,,000-000-000,
21118,SARAHILLS DRIVE,Saratoga,,,,,000-000-000,
,,,,,,,,
2163,LA MIEL WAY,Campbell,,,,,000-000-000,
19584,VIA GRANDE DRIVE,Saratoga,,,,,000-000-000,
22325,REGNART ROAD,Cupertino,,,,,000-000-000,
165,RAVINE DRIVE,Woodside,,,,,000-000-000,
22770,MERCEDES ROAD,Cupertino,,,,,000-000-000,
22770,MERCEDES ROAD,Cupertino,,,,,000-000-000,
1991,NOBILI AVENUE,Santa Clara,,,,,000-000-000,
19221,MOUNTAIN WAY,,SANTA CLARA,,,,000-000-000,
2331,ROOSEVELT AVENUE,Redwood City,,,,,000-000-000,
491,FLETCHER DRIVE,Atherton,,,,,000-000-000,
26335,ESPERANZA DRIVE,Los Altos Hills,,,,,000-000-000,
26335,Esperanza Dr,Los Altos Hills,,,,,,
16001,STEPHENIE LANE,Los Gatos,,,,,000-000-000,
,,,,,,,,
20911,LOCUST DRIVE,Los Gatos,,,,,000-000-000,
20911,LOCUST DRIVE,Los Gatos,SANTA CLARA,,,,000-000-000,
1413,CASABLANCA CIRCLE,Gilroy,,,,,000-000-000,
,SANTA TERESA BOULEVARD,San Jose,,,,,708-021-004,
45,Adair Lane,Portola Valley,San Mateo,,,,000-000-000,
45,ADAIR LANE,Portola Valley,,,,,000-000-000,
2080,SILENCE DRIVE,San Jose,,,,,000-000-000,
,,,,,,,,
,,,,,,,,
,,,,,,,,
,,,,,,,,
,,,,,,,,
,,,,,,,,
,,,,,,,,
,,,,,,,,
,,,,,,,,
,,,,,,,,
13375,CLAYTON ROAD,San Jose,,,,,000-000-000,
13375,CLAYTON ROAD,San Jose,SANTA CLARA,,,,000-000-000,
Jarvis,Road,,,,,,,
,,,,,,,,
,,,,,,,,
,,,,,,,,
,,,,,,,,
,,,,,,,,
,,,,,,,,
1361,EL SOLYO AVENUE,Campbell,,,,,000-000-000,
,,,,,,,,
,,,,,,,,
800,IRONWOOD DRIVE,San Jose,,,,,000-000-000,
800,IRONWOOD DRIVE,San Jose,,,,,000-000-000,
800,IRONWOOD DRIVE,San Jose,,,,,000-000-000,
800,IRONWOOD DRIVE,San Jose,,,,,000-000-000,
,,,,,,,,
,,,,,,,,
,,,,,,,,
,,,,,,,,
,,,,,,,,
,,,,,,,,
,,,,,,,,
,,,,,,,,
,,,,,,,,
,,,,,,,,
435,GOLDEN OAK DRIVE,Portola Valley,,,,,000-000-000,
405,MINOCA ROAD,Portola Valley,,,,,000-000-000,
,,,,,,,,
,,,,,,,,
,,,,,,,,
,,,,,,,,
,,,,,,,,
,,,,,,,,
,,,,,,,,
,,,,,,,,
,,,,,,,,
26170,FREMONT ROAD,Los Altos Hills,,,,,000-000-000,
26170,FREMONT ROAD,Los Altos Hills,,,,,000-000-000,
,,,,,,,,
,,,,,,,,
4460,FREEDOM BOULEVARD,Aptos,,,,,000-000-000,
4460,FREEDOM BOULEVARD,Aptos,,,,,000-000-000,
4460,FREEDOM BOULEVARD,Aptos,,,,,000-000-000,
,,,,,,,,
,,,,,,,,
,,,,,,,,
,,,Santa Clara,,,,,
,,,,,,,,
24168,Congress Springs Road,,Santa Clara,,,,000-000-000,
24168,Congress Springs Road,,Santa Clara,,,,,
,,,,,,,,
,,,,,,,,
,,,,,,,,
,,,,,,,,
,,,,,,,,
,,,,,,,,
,,,,,,,,
13730,Pierce Road,Saratoga,Santa Clara,,,,,
,,,,,,,,
,,,,,,,,
,,,,,,,,
,,,,,,,,
,,,,,,,,
,,,,,,,,
1231,Carlton Avenue,Menlo Park,,,,,000-000-000,
430,Lincoln Avenue,Redwood City,,,,,000-000-000,
,,,,,,,,
,,,,,,,,
,,,,,,,,
,,,,,,,,
,,Portola Valley,San Mateo,,,,,
430,Mimoca Road,Portola Valley,,,,,,
,,,,,,,,
,,,,,,,,
,,,,,,,,
,,,,,,,,
,Scenic Drive,,San Mateo,,,,000-000-000,
,Scenic Drive,,San Mateo,,,,,
,,,,,,,,
,,,,,,,,
,,,,,,,,
,,,,,,,,
,,,,,,,,
,,,,,,,,
,,,,,,,,
,,,,,,,,
,,Cupertino,,,,,,
1171,Lynhurst Way,San Jose,Santa Clara,67,B,5,,
,,,,,,,,
,,,,,,,,
,,,,,,,,
,,,,,,,,
,,,,,,,,
,,,,,,,,
,,,,,,,,
,,,,,,,,
,,,,,,,,
,,,,,,,,
,,,,,,,,
,,,,,,,,
15671,Glen Una Drive,Saratoga,,,,,000-000-000,
15671,Glen Una Drive,Saratoga,,,,,000-000-000,
,,,,,,,,
,,,,,,,,
,,,,,,,,
,,,,,,,,
,,,,,,,,
,,,,,,,,
,,,,,,,,
,,,,,,,,
,,,,,,,,
,,,,,,,,
,,,,,,,,
,,,,,,,,
11715,Skyline Boulevard,Los Gatos,,,,,000-000-000,
,,,,,,,,
,,,,,,,,
,,,,,,,,
27,Preston Road,Woodside,,,,,,
,,,,,,,,
2182,Shadow Ridge Way,Silver Creek,,,,,,
,,,,,,,,
1411,Avondale Road,Hillsborough,,,,,000-000-000,
1411,Avondale Road,Hillsborough,,,,,000-000-000,
127,Smith Creek,Los Gatos,,,,,,
6456,Standridge Court,San Jose,Santa Clara,,,,,
16500,Matilija Drive,Unincorporated,Santa Clara,,,,,
,,,,,,,,
2947/2941,Sherwood Drive,San Carlos,San Mateo,,,,,
22631,Mt. Eden Road,Saratoga,Santa Clara,,,,,
,,,,,,,,
395,Preston Road,Woodside,,,,,,
359,Preston Road,Woodside,,,,,000-000-000,
359,Preston Road,Woodside,,,,,000-000-000,
359,Preston Road,Woodside,,,,,000-000-000,
359,Preston Road,Woodside,,,,,000-000-000,
359,Preston Road,Woodside,,,,,,
3861,Ballantree Lane,Unincorporated,Monterey,,,,,
21813,Terrace Drive,Cupertino,Santa Clara,,,,,
1735,Willow Creek Drive,San Jose,Santa Clara,,,,,
,,,,,,,,
5474,Blackhawk Drive,Danville,,,,,,
1090,Bear Gulch Road,Unincorporated,San Mateo,,,,,
1090,Bear Gulch Road,Portola Valley,Santa Clara,,,,,
16451,Wood Acres Road,Los Gatos,Santa Clara,,,,000-000-000,
23995,Schultheis Road,Unincorporated,Santa Cruz,,,,,
17845,Elain Court,Morgan Hill,Santa Clara,,,,,
9755,La Honda Road,Unincorporated,San Mateo,,,,,
100,South Palomar Drive,Unincorporated,San Mateo,,,,,
21453,Arrowhead Lane,Saratoga,Santa Clara,,,,,
21453,Arrowhead Lane,Unincorporated,Santa Clara,,,,,
596,Military Way,Palo Alto,,,,,,
355,Wayside Road,Portola Valley,,,,,,
726,Jacaranda Circle,Hillsborough,,,,,000-000-000,
16160,Alum Rock Avenue,San Jose,Santa Clara,,,,,
,,,,,,,,
17755,Navaho Trail,Unincorporated,Santa Clara,,,,,
3540,Ambra Way,San Jose,Santa Clara,,,,,
1158,Chilanian Lane,San Jose,Santa Clara,,,,,
2205,Diana Road,Morgan Hill,,,,,,
,,,,,,,,
"Lots 2, 3,",Cinnabar Hills Road,Unincorporated,Santa Clara,,,,,
358,Alamas Road,Portola Valley,,,,,,
242,Kelton Avenue,San Carlos,,,,,,
"Parcels 1,",Cabrillo Highway,Unincorporated,San Mateo,,,,,
16400,Soda Springs Road,Unincorporated,Santa Clara,,,,,
,,,,,,,,
,,,,,,,,
1206,Johnson Street,Redwood City,,,,,,
Lot 56,Camelot Court,San Carlos,,,,,,
7571,Sunset Way,Aptos,,,,,,
,,,,,,,,
735,West Seacliff Drive,Aptos,,,,,000-000-000,
735,West Seacliff Drive,Aptos,,,,,000-000-000,
261,Duranzo Way,Portola Valley,,,,,000-000-000,
20561,Montalvo Lane,Saratoga,Santa Clara,,,,,
,,,,,,,,
644,Mohican Drive,Saratoga,Santa Clara,,,,,
14831,Pierce Road,Unincorporated,Santa Clara,,,,,
1655,Alameda De Las Pulgas,San Carlos,,,,,,
2265,Summit Drive,Hillsborough,,,,,000-000-000,
2265,Summit Drive,Hillsborough,,,,,000-000-000,
19361,Mountain Way,Los Gatos,,,,,,
5360,La Honda Road,,San Mateo,,,,000-000-000,
5360,LA HONDA ROAD,,SAN MATEO,,,,000-000-000,
5360,LA HONDA ROAD,,SAN MATEO,,,,000-000-000,
304,Santi Rita Avenue,Menlo Park,,,,,,
17017,Bolman Road,Unincorporated,Santa Clara,,,,,
540,El Pintado,Danville,,,,,,
24696,Olive Tree court,Los Altos Hills,,,,,000-000-000,
2972,Howell Avenue,Santa Clara,,,,,000-000-000,
21356,Diamond Oaks,Saratoga,,,,,000-000-000,
1761,Lorenzen Drive,San Jose,,,,,000-000-000,
16376-1638,FOOTHILL BOULEVARD,San Leandro,,,,,000-000-000,
15990,Stephanie Lane,Los Gatos,,,,,000-000-000,
,Chesbro Lake Drive,Morgan Hill,,,,,000-000-000,
11559,Hillpark Lane,Los Altos Hills,,,,,000-000-000,
11559,Hillpark Lane,Los Altos Hills,,,,,000-000-000,
1344,Tiffany Canyon Court,San Jose,,,,,000-000-000,
1344,Tiffany Canyon Court,San Jose,,,,,000-000-000,
10089,Cinnabar Hills Road,,SANTA CLARA,,,,000-000-000,
3528,Appleton Drive,San Jose,,,,,000-000-000,
14174,Liddicoat Drive,Los Altos Hills,,,,,000-000-000,
,UNIVERSITY OF CA,San Francisco,,,,,000-000-000,
204,Forrester Road,Los Gatos,,,,,,
,Cinnabar Hills Road,Unincorporated,Santa Clara,,,,,
1108,Somerset Drive,San Jose,,,,,000-000-000,
795,Gailen Avenue,Palo Alto,,,,,000-000-000,
1341,Cerro Verde,San Jose,,,,,000-000-000,
235,Ocean View,Santa Cruz,,,,,000-000-000,
10320,South Tantou Avenue,Cupertino,Santa Clara,,,,,
610,Mission Street,Santa Clara,,,,,000-000-000,
3550,Stevens Creek Boulevard,San Jose,Santa Clara,,,,,
,Arrowhead Lane,Saratoga,,,,,000-000-000,
22434,St. Andrews Avenue,Cupertino,,,,,000-000-000,
210,Scenic Drive,Unincorporated,San Mateo,,,,000-000-000,
6328,Monte Cresta Avenue,Richmond,,,,,000-000-000,
720,Hilmar Street,Santa Clara,,,,,000-000-000,
,Bowman's Wash,Unincorporated,San Bernadino,,,,,
525,Vista Drive,San Carlos,,,,,000-000-000,
3520,Ramstad Drive,San Jose,,,,,000-000-000,
2085,Portola Road,Woodside,,,,,000-000-000,
370,Summit Avenue,San Rafael,,,,,000-000-000,
165,Sausal Drive,Portola Valley,,,,,000-000-000,
6013,Chesbro Avenue,San Jose,,,,,000-000-000,
435,Golden Oak Drive,Portola Valley,,,,,000-000-000,
44,Coronado Avenue,San Carlos,,,,,000-000-000,
13145,NEW AVENUE,San Martin,,,,,000-000-000,
,Great Mall Drive,Milpitas,,,,,,
132,Otis Avenue,Woodside,,,,,,
20421,Skyline Boulevard,,San Mateo,,,,000-000-000,
200,Forrester Road,Los Gatos,,,,,000-000-000,
2947,Sherwood Drive,San Carlos,,,,,000-000-000,
650,Monte Carlo Drive,Hollister,,,,,000-000-000,
165,TIPTOE LANE,,SAN MATEO,,,,000-000-000,
Tank B & C,BONITA ROAD,,SAN MATEO,,,,000-000-000,
Tank E & F,VISTA VERDE WAY,,SAN MATEO,,,,000-000-000,
Tank B & C,BONITA ROAD,,SAN MATEO,,,,000-000-000,
Tank D,OLD SPANISH TRAIL,,SAN MATEO,,,,000-000-000,
2941,Sherwood Drive,San Carlos,San Mateo,,,,000-000-000,
2941,Sherwood Drive,San Carlos,,,,,,
552,ESPLANADE AVENUE,Pacifica,,,,,000-000-000,
,,,,,,,,
11837,CLEAR CREEK ROAD,,Santa Cruz,,,,000-000-000,
116,SUNNYDALE AVENUE,San Carlos,,,,,000-000-000,
202,CALVERT STREET,Cupertino,,,,,000-000-000,
1431,Carmel Drive,San Jose,,,,,000-000-000,
756,Jefferson Street,Santa Clara,,,,,000-000-000,
756,JEFFERSON STREET,Santa Clara,,,,,000-000-000,
10,Leroy Way,Portola Valley,,,,,000-000-000,
535,Hazel Dell Road,,Santa Cruz,,,,000-000-000,
535,HAZEL DELL ROAD,,Santa Cruz,,,,000-000-000,
535,HAZEL DELL ROAD,,Santa Cruz,,,,000-000-000,
11375,Sacramento Street,San Francisco,,,,,000-000-000,
20,Searsville Court,Hillsborough,,,,,000-000-000,
2885,Woodside Road,Woodside,,,,,,
234,Scenic Drive,Unincorporated,San Mateo,,,,,
346,WALSH ROAD,Atherton,,,,,000-000-000,
98,BROADACRES ROAD,Atherton,,,,,000-000-000,
2316,Park Avenue,Santa Clara,Santa Clara,,,,,
16451,Wood Acres Road,Los Gatos,,,,,,
,,,,,,,,
4774,THURBER LANE,Santa Cruz,,,,,000-000-000,
7215,SOQUEL DRIVE,,Santa Cruz,,,,000-000-000,
6621,Graham Hill Road,Felton,,,,,,
17721,FOSTER ROAD,Los Gatos,,,,,000-000-000,
,,,,,,,,
759,TEMESCAL WAY,,SAN MATEO,,,,000-000-000,
759,TEMESCAL WAY,,SAN MATEO,,,,000-000-000,
21461,SARATOGA HILLS ROAD,Saratoga,,,,,000-000-000,
801,Clintonia Ave,San Jose,Santa Clara,,,,,
17,OAK VALLEY,San Mateo,,,,,000-000-000,
755,LAS OLAS DRIVE,Aptos,,,,,000-000-000,
7,Heritage Road,La Honda,,,,,,
190,ISBELL DRIVE,Santa Cruz,,,,,000-000-000,
610,Pullman Road,Hillsborough,,,,,,
20,WHY WORRY LANE,Woodside,,,,,000-000-000,
1832,Alice Street,Santa Cruz,,,,,,
4165,Norton Avenue,Oakland,Alameda,,,,,
,,,,,,,,
262,Elk Street,Santa Cruz,,,,,,
,Nighway 1,Pacifica,,,,,,
,ALPINE ROAD,Portola Valley,,,,,000-000-000,
,ALPINE ROAD,Portola Valley,,,,,000-000-000,
,ALPINE ROAD,Portola Valley,,,,,000-000-000,
5010,ALPINE ROAD,Portola Valley,,,,,000-000-000,
,,,,,,,,
88,Prospect Ave,Los Gatos,,,,,,
80,VISTA VERDE WAY,Portola Valley,,,,,000-000-000,
80,VISTA VERDE WAY,Portola Valley,,,,,000-000-000,
80,VISTA VERDE WAY,Portola Valley,,,,,000-000-000,
Lot 3,Kate Drive,Los Altos Hills,,,,,,
945,MacDuff Court,San Jose,,,,,,
3885,Page Mill Road,Palo Alto,,,,,,
979,Ketch Place,San Jose,,,,,,
,,,,,,,000-000-000,
515,LAKE BOULEVARD,Redwood City,,,,,000-000-000,
514,ROCKY WAY,Woodside,,,,,000-000-000,
514,ROCKY WAY,Woodside,,,,,000-000-000,
1773,HAVANA STREET,Seaside,,,,,000-000-000,
15,CARIBOU COURT,Monterey,,,,,000-000-000,
112,MADELINE DRIVE,Aptos,,,,,000-000-000,
,,,,,,,,
14550,DEER PARK COURT,Los Gatos,,,,,000-000-000,
14550,DEER PARK COURT,Los Gatos,,,,,000-000-000,
14550,DEER PARK COURT,Los Gatos,SANTA CLARA,,,,000-000-000,
3887,SUNCREST AVENUE,San Jose,,,,,000-000-000,
10284,CRESTON DRIVE,Cupertino,,,,,000-000-000,
24001,STEVENS CREEK BOULEVARD,Cupertino,,,,,000-000-000,
24001,STEVENS CREEK BOULEVARD,Cupertino,,,,,000-000-000,
24001,STEVENS CREEK BOULEVARD,Cupertino,,,,,000-000-000,
511,STOCKTON STREET,Salinas,,,,,000-000-000,
1983,DOWNING COURT,Santa Clara,,,,,000-000-000,
100,CENTRAL COURT,Los Gatos,,,,,000-000-000,
100,CENTRAL COURT,Los Gatos,,,,,000-000-000,
20545,MCKEAN ROAD,,SANTA CLARA,,,,000-000-000,
235,HEACOX ROAD,,SAN MATEO,,,,000-000-000,
10679,SANTA LUCIA ROAD,Cupertino,,,,,000-000-000,
12943,PIERCE ROAD,Saratoga,,,,,000-000-000,
747,BOULDER DRIVE,San Jose,,,,,000-000-000,
,HIGHWAY 17,,Santa Cruz,,,,093-421-017,
291,DUCK COURT,Foster City,,,,,000-000-000,
205,CHATEAU DRIVE,Aromas,,,,,000-000-000,
2201,VALENCIA ROAD,Aptos,,,,,000-000-000,
26541,PURISIMA ROAD,Los Altos Hills,,,,,000-000-000,
26541,PURISIMA ROAD,Los Altos Hills,,,,,000-000-000,
26541,PURISIMA ROAD,Los Altos Hills,,,,,000-000-000,
2,PARROTT PLACE,Danville,,,,,000-000-000,
,,,,,,,,
23830,Putter Way,,Santa Clara,,,,000-000-000,
255,HARDWICK ROAD,Woodside,,,,,000-000-000,
81,S. Fourth Street,Campbell,,,,,000-000-000,
2455,FLINT AVENUE,San Jose,SANTA CLARA,,,,000-000-000,
991,MAZZONE DRIVE,San Jose,SANTA CLARA,,,pg 87  E-6,000-000-000,
23284,MORA HEIGHTS WAY,Los Altos Hills,SAN MATEO,,,,000-000-000,
186,CORTE MADERA ROAD,Portola Valley,,,,,000-000-000,
7084,WOODED LAKE DRIVE,San Jose,,,,,000-000-000,
,,,,,,,,
19190,OVERLOOK ROAD,Los Gatos,SANTA CLARA,,,,000-000-000,
,,,,,,,,
19190,Overlook Rd,,Santa Clara,,,,,
75,LAS CASAS ROAD,San Rafael,,,,,000-000-000,
37,,Vallejo,,,,,000-000-000,
,,Marin,Marin,,,,000-000-000,
32,SAN JUAN COURT,Los Altos,,,,,000-000-000,
25601,CHAPIN ROAD,Los Altos Hills,,,,,000-000-000,
,,Carmel Valley,,,,,000-000-000,
1748,TRUDEAN WAY,San Jose,,,,,000-000-000,
22111,OAK FLAT ROAD,Santa Cruz,Santa Cruz,,,,000-000-000,
,,,,,,,000-000-000,
22111,Oak Flat Road,Santa Cruz,,,,,,
,RECREATION DRIVE,,SAN MATEO,,,,000-000-000,
3180,CALZAR DRIVE,San Jose,,,,,000-000-000,
27089,Toffee Road,Los Altos Hills,,,,,,
700,Patrick Road,Woodside,,,,,,
510,Manzanita Way,Woodside,,,,,000-000-000,
510,MANZANITA WAY,Woodside,,,,,000-000-000,
112,Longview Drive,Daly City,,,,,000-000-000,
112,LONGVIEW DRIVE,Daly City,,,,,000-000-000,
461,SCENIC DRIVE,La Honda,,,,,000-000-000,
461,SCENIC DRIVE,La Honda,,,,,000-000-000,
3301,Paul Suite Road,Santa Cruz,Santa Cruz,,,,,
3534,AMBRA WAY,San Jose,,,,,000-000-000,
,Escondido Drive,La Honda,,,,,000-000-000,
,Clayton Road,Unincorporated,Santa Clara,,,,612-038-028,
247,Bonita,Unincorporated,San Mateo,,,,,
247,BONITA,,SAN MATEO,,,,000-000-000,
172,Otis Avenue,Woodside,,,,,,
,LOVE CREEK ROAD,,Santa Cruz,,,,009-013-106,
,LOVE CREEK ROAD,,Santa Cruz,,,,090-131-006,
410,FRITCH CREEK ROAD,,Santa Cruz,,,,090-131-006,
4005,HIGUERA ROAD,San Jose,,,,,000-000-000,
,GATE WAY,Santa Rosa,,,,,000-000-000,
27400,Elena Road,Los Altos Hills,,,,,000-000-000,
27400,Elena Road,Los Altos Hills,Santa Clara,,,,000-000-000,
175,WOODED VIEW DRIVE,Los Gatos,,,,,000-000-000,
3529,MISSION DRIVE,Santa Cruz,,,,,000-000-000,
14012,PALOMINO WAY,Saratoga,,,,,000-000-000,
323,BLAKEWOOD WAY,,SAN MATEO,,,,000-000-000,
385,PORTOFINO DRIVE,San Carlos,,,,,000-000-000,
,BEARDSLEY ROAD,,SANTA CLARA,,,,000-000-000,
,SANBORN ROAD,,SANTA CLARA,,,,517-033-013,
2448,PARK ROAD,,San Mateo,,,,000-000-000,
48468,AVALON HEIGHTS TERRACE,Fremont,,,,,000-000-000,
48468,AVALON HEIGHTS TERRACE,Fremont,,,,,000-000-000,
48468,AVALON HEIGHTS TERRACE,Fremont,,,,,000-000-000,
48468,AVALON HEIGHTS TERRACE,Fremont,,,,,000-000-000,
48468,Avalon Heights,Fremont,CA,,,,,
48468,Avalon Hts. Terrace,Fremont,Alameda,,,,,
48468,Avalon Heights Terrace,Fremont,,,,,,
22631,MOUNT EDEN ROAD,Saratoga,,,,,000-000-000,
48468,Avalon Heights Terrace,Fremont,,,,,,
22855,ASPEN DRIVE,,SANTA CLARA,,,,000-000-000,
22855,ASPEN DRIVE,,SANTA CLARA,,,,000-000-000,
,,,,,,,,
,,,,,,,,
5871,Dry Oak Drive,San Jose,Santa Clara,,,,,
230,Scenic Drive,La Honda,,,,,,
25265,Terrace Road,Unincorporated,Santa Cruz,,,,,
657,Oakpark Way,Unincorporated,San Mateo,,,,,
2922,Barkley Avenue,Santa Clara,Santa Clara,,,,,
15950,Blackberry Hill Road,Los Gatos,Santa Clara,,,,,
725,Mockingbird Ridge Road,Los Gatos,Santa Clara,,,,,
905,S. Bascom Avenue,San Jose,Santa Clara,,,,,
101,Highland Oaks Drive,Los Gatos,Santa Clara,,,,,
1050,Rebecca Drive,Boulder Creek,,,,,,
25,VERBA LEE LANE,Hillsborough,,,,,000-000-000,
1550,Portola Road,Woodside,,,,,,
3391,Cowper Street,Palo Alto,,,,,,
191,SCENIC DRIVE,La Honda,,,,,000-000-000,
191,SCENIC DRIVE,La Honda,,,,,000-000-000,
191,SCENIC DRIVE,La Honda,,,,,000-000-000,
10670,Cordova Road,Cupertino,Santa Clara,,,,,
10670,Cordova Road,Cupertino,Santa Clara,,,,,
4368,Kingspark Drive,San Jose,Santa Clara,,,,,
4030,Soelro Court,San Jose,Santa Clara,,,,,
560,FORBES BOULEVARD,South San Francisco,,,,,000-000-000,
2630,BEAR GULCH ROAD,,SAN MATEO,,,,000-000-000,
333,CREST DRIVE,San Jose,,,,,000-000-000,
,LOST VIEW ROAD,,SANTA CLARA,,,,000-000-000,
,LOST VIEW ROAD,,SANTA CLARA,,,,000-000-000,
21888,VILLA OAKS,Saratoga,,,,,000-000-000,
19475,BLACK ROAD,Los Gatos,,,,,000-000-000,
,STEVENS CANYON ROAD,Cupertino,,,,,000-000-000,
11250,Chula Vista Drive,San Jose,,,,,000-000-000,
,LAUREL GLEN ROAD,,Santa Cruz,,,,103-011-017,
6500,PASEO PADRE PARKWAY,Fremont,,,,,000-000-000,
130,LA CAADA WAY,,Santa Cruz,,,,000-000-000,
15455,SHANNON ROAD,Los Gatos,,,,,000-000-000,
15455,SHANNON ROAD,Los Gatos,,,,,000-000-000,
18350,KINGS CREEK ROAD,,Santa Cruz,,,,000-000-000,
18350,Kings Creek Road,,Santa Cruz,,,,,
20904,COMANCHE TRAIL,,SANTA CLARA,,,,000-000-000,
1035,CHULA VISTA AVENUE,Burlingame,,,,,000-000-000,
7,SOELRO COURT,,SANTA CLARA,,,,000-000-000,
380,HEARTWOOD HILL,Boulder Creek,,,,,000-000-000,
2434,JACKSON STREET,San Francisco,,,,,000-000-000,
33,UPPER BIG TREE ROAD,Woodside,,,,,000-000-000,
220,WARE ROAD,Woodside,,,,,000-000-000,
412,UPLAND ROAD,,SAN MATEO,,,,000-000-000,
412,UPLAND ROAD,,SAN MATEO,,,,000-000-000,
1567,UNION AVENUE,Redwood City,San Mateo,,,,000-000-000,
1567,UNION AVENUE,Redwood City,San Mateo,,,,000-000-000,
2550,PESCADERO ROAD,Pescadero,,,,,000-000-000,
2550,PESCADERO ROAD,Pescadero,,,,,000-000-000,
,OVERLOOK ROAD,Los Gatos,,,,,000-000-000,
,BEAR GULCH ROAD,,SAN MATEO,,,,000-000-000,
,,,,,,,,
13581,Wildcrest Drive,Los Altos Hills,,,,,000-000-000,
,,,,,,,,
122,GEMINI COURT,Los Gatos,,,,,000-000-000,
122,GEMINI COURT,Los Gatos,,,,,000-000-000,
695,WHISPERING PINES,Scotts Valley,,,,,000-000-000,
695,WHISPERING PINES,Scotts Valley,,,,,000-000-000,
,,,,,,,000-000-000,
124,FOXWOOD ROAD,,SAN MATEO,,,,000-000-000,
19471,MOUNTAIN WAY,,SANTA CLARA,,,,000-000-000,
2085,PORTOLA ROAD,Woodside,,,,,000-000-000,
386,REYMUNDO DRIVE,Woodside,,,,,000-000-000,
,FAMILY FARM ROAD,Woodside,,,,,000-000-000,
1401,FARRINGDON DRIVE,San Jose,,,,,000-000-000,
,THE GREAT MALL,Milpitas,,,,,000-000-000,
148,VIA DE TESOROS,Los Gatos,,,,,000-000-000,
7,DOVER COURT,San Carlos,,,,,000-000-000,
1491,FARRAGOT,Hollister,,,,,000-000-000,
6706,TRINIDAD DRIVE,San Jose,,,,,000-000-000,
346,DONAHE,Milpitas,,,,,000-000-000,
2318,PARK AVENUE,Santa Clara,,,,,000-000-000,
1025,TRINITY DRIVE,Menlo Park,,,,,000-000-000,
1025,TRINITY DRIVE,Menlo Park,,,,,000-000-000,
1025,Trinity Drive,Menlo Park,,,,,,
,,,,,,,,
,ROLISON ROAD,Redwood City,,,,,000-000-000,
17265,MELODY LANE,,SANTA CLARA,,,,000-000-000,
17265,MELODY LANE,,SANTA CLARA,,,,000-000-000,
261,WEST HILTON DRIVE,Boulder Creek,,,,,000-000-000,
261,WEST HILTON DRIVE,Boulder Creek,,,,,000-000-000,
,TYNAN WAY,Portola Valley,,,,,016-234-020,
220,GREER ROAD,Woodside,,,,,000-000-000,
5858,PILAR COURT,San Jose,,,,,000-000-000,
2526,14TH AVENUE,San Francisco,,,,,000-000-000,
3514,ORTEGA STREET,San Francisco,,,,,000-000-000,
33003,CANYON DRIVE,Burlingame,,,,,000-000-000,
265,ESTATE DRIVE,Ben Lomond,,,,,000-000-000,
25616,FERNHILL AVENUE,Los Altos Hills,,,,,000-000-000,
25615,FERNHILL DRIVE,Los Altos Hills,,,,,000-000-000,
,OVERLOOK DRIVE,,SANTA CLARA,,,,510-025-012,
14740,SOBEY ROAD,Saratoga,,,,,000-000-000,
13393,SOUSA LANE,Saratoga,,,,,000-000-000,
13393,SOUSA LANE,Saratoga,,,,,000-000-000,
312,ATLANTA AVENUE,San Jose,,,,,000-000-000,
312,ATLANTA AVENUE,San Jose,,,,,000-000-000,
0,FERNWOOD,La Honda,,,,,000-000-000,
3643,JEFFERSON AVENUE,Redwood City,,,,,000-000-000,
10295,KENBAR STREET,Los Altos,,,,,000-000-000,
210,OLIVE HILL LANE,Woodside,,,,,000-000-000,
210,OLIVE HILL LANE,Woodside,,,,,000-000-000,
12,APPLEWOOD LANE,Portola Valley,,,,,000-000-000,
865,MESA AVENUE,Palo Alto,,,,,000-000-000,
160,SCENIC DRIVE,Trinidad,,,,,000-000-000,
,CHURCH AND MAST STREET,Morgan Hill,,,,,817-002-047,
3550,VISTA NORTE COURT,Milpitas,,,,,000-000-000,
6507,HEATHER RIDGE WAY,Oakland,,,,,000-000-000,
13434,MANDOLI,Los Altos Hills,,,,,000-000-000,
5070,FALLEN OAK DRIVE,San Jose,,,,,000-000-000,
3643,REDWOOD DRIVE,Aptos,,,,,000-000-000,
,ROURKE ROAD,Pescadero,,,,,088-020-010,
,ROURKE ROAD,Pescadero,,,,,088-020-010,
4001,CALAVERAS ROAD,,SANTA CLARA,,,,000-000-000,
26150,Pierce Road,Unincorporated,Santa Cruz,,,,,
26150,PIERCE ROAD,,Santa Cruz,,,,000-000-000,
26150,PIERCE ROAD,,Santa Cruz,,,,000-000-000,
,,Tracy,,,,,000-000-000,
726,DIABLO WAY,,SAN MATEO,,,,000-000-000,
104,ANGEL COURT,Los Gatos,,,,,000-000-000,
20933,SARAHILLS,Saratoga,,,,,000-000-000,
21346,SARAHILLS,Saratoga,,,,,000-000-000,
863,14TH AVENUE,Menlo Park,,,,,000-000-000,
4161,EL CORAL WAY,San Jose,,,,,000-000-000,
219,JACKSON STREET,Los Gatos,,,,,000-000-000,
17500,TOURNEY ROAD,Los Gatos,,,,,000-000-000,
17500,TOURNEY ROAD,Los Gatos,,,,,000-000-000,
15651,ON ORBIT DRIVE,Saratoga,,,,,000-000-000,
,,,,,,,,
,EASTBROOK AVENUE,,SANTA CLARA,,,,331-005-050,
,EASTBROOK AVENUE,,SANTA CLARA,,,,331-005-049,
,EASTBROOK AVENUE,,SANTA CLARA,,,,331-005-050,
26199,PIERCE ROAD,,Santa Cruz,,,,000-000-000,
26199,PIERCE ROAD,,Santa Cruz,,,,000-000-000,
3514,RAMSTAD DRIVE,San Jose,,,,,000-000-000,
21261,CANYON VIEW DRIVE,Saratoga,,,,,000-000-000,
971,VISTA GRAND,Millbrae,,,,,000-000-000,
1600,CARMALITA AVENUE,Burlingame,,,,,000-000-000,
2700,MELENDY DRIVE,San Carlos,,,,,000-000-000,
2700,MELENDY DRIVE,San Carlos,,,,,000-000-000,
1065,VISTA DEL MAR,San Jose,,,,,000-000-000,
1065,VISTA DEL MAR,San Jose,,,,,000-000-000,
1065,VISTA DEL MAR,San Jose,,,,,000-000-000,
22501,MOUNT EDEN ROAD,Saratoga,,,,,000-000-000,
1,SOUTHGATE DRIVE,Woodside,,,,,000-000-000,
1,Southgate Drive,Woodside,,,,,000-000-000,
1403,DAPHNE DRIVE,San Jose,,,,,000-000-000,
255,ESTATE DRIVE,Ben Lomond,,,,,000-000-000,
235,MISTLETOE ROAD,Los Gatos,,,,,000-000-000,
235,MISTLETOE ROAD,Los Gatos,,,,,000-000-000,
235,MISTLETOE ROAD,Los Gatos,,,,,000-000-000,
3786,QUIMBY ROAD,,SANTA CLARA,,,,000-000-000,
22558,COUNTRY VIEW DRIVE,San Jose,,,,,000-000-000,
163,RAMONA ROAD,,SAN MATEO,,,,000-000-000,
163,RAMONA ROAD,,SAN MATEO,,,,000-000-000,
84,FAIRVIEW AVE,Atherton,,,,,000-000-000,
16362,AZTEC RIDGE ROAD,,SANTA CLARA,,,PG 893  C-,532-026-024,
27850,CANYON ROAD,,SANTA CLARA,,,,000-000-000,
1,HOME ROAD,Woodside,,,,,000-000-000,
1,HOME ROAD,Woodside,,,,,000-000-000,
606,ALAMEDA DE LAS PULGAS,Belmont,,,,,000-000-000,
210,JOSELYN LANE,Woodside,,,,,000-000-000,
460,SUMMIT SPRINGS ROAD,Woodside,,,,,000-000-000,
15495,ARCHIBALD DRIVE,,SANTA CLARA,,,,000-000-000,
55,LORELEI LANE,Menlo Park,,,,,000-000-000,
18400,LEXINGTON DRIVE,Monte Sereno,,,,,000-000-000,
18400,LEXINGTON DRIVE,Monte Sereno,,,,,000-000-000,
16060,ALUM ROCK AVENUE,San Jose,,,,,000-000-000,
7050,RAINBOW DRIVE,Cupertino,,,,,000-000-000,
7050,Rainbow Drive,Cupertino,Santa Clara,,,,000-000-000,
,Rainbow Drive,San Jose,Santa Clara,,,,,
15410,QUITO ROAD,Saratoga,,,,,000-000-000,
28,BACK ROAD,,SAN MATEO,,,,085-013-040,
510,,San Mateo,,,,,000-000-000,
1279,PATIO DRIVE,Campbell,,,,,000-000-000,
15571,ALUM ROCK AVENUE,San Jose,,,,,000-000-000,
575,BRIMSBY LANE,Danville,,,,PG 101 A-6,000-000-000,
236,BACIGALUPI,Los Gatos,,,,PG 873,000-000-000,
3940,MELTON STREET,,Santa Cruz,,,,000-000-000,
,,Moss Beach,,,,,037-252-050,
695,WHISPERING PINES DRIVE,Scotts Valley,,,,,000-000-000,
695,WHISPERING PINES DRIVE,Scotts Valley,,,,,000-000-000,
695,Whispering Springs Drive,Scotts Valley,,,,,,
24915,SOQUEL-SAN JOSE ROAD,,Santa Cruz,,,,000-000-000,
24915,SOQUEL-SAN JOSE ROAD,Los Gatos,Santa Cruz,,,,000-000-000,
175,JAMES AVENUE,Atherton,,,,,000-000-000,
17068,SHADY LANE DRIVE,,SANTA CLARA,,,,000-000-000,
17140,MILL RISE WAY,Los Gatos,,,,,000-000-000,
12,AQUA VIEW DRIVE,La Selva Beach,,,,,000-000-000,
12,AQUA VIEW DRIVE,La Selva Beach,,,,,000-000-000,
88,FAXON,Atherton,,,,,000-000-000,
57,CLAREVIEW AVENUE,San Jose,,,,,000-000-000,
,Mount Eden Road,,Santa Clara,,,,000-000-000,
,,,,,,,,
11477,LINDY PLACE,Cupertino,,,,,000-000-000,
11477,LINDY PLACE,Cupertino,,,,,000-000-000,
2747,ALTAMONT ROAD,Los Altos Hills,,,,,000-000-000,
61,CAMELOT COURT,San Carlos,,,,,000-000-000,
61,CAMELOT COURT,San Carlos,,,,,000-000-000,
710,WEST CALIFORNIA WAY,Woodside,,,,,000-000-000,
710,WEST CALIFORNIA STREET,Woodside,,,,,000-000-000,
321,BRIARWOOD,Watsonville,,,,,000-000-000,
261,WEST HILTON DRIVE,Boulder Creek,,,,,000-000-000,
114,RUSSELL AVENUE,Portola Valley,,,,,000-000-000,
14860,MCVAY AVENUE,San Jose,,,,,000-000-000,
24700,OLIVE TREE COURT,Los Altos Hills,,,,,000-000-000,
50,HILLVIEW COURT,Daly City,,,,,000-000-000,
16550,BLACKBERRY HILL ROAD,Los Gatos,,,,,000-000-000,
170,RECREATION DRIVE,La Honda,,,,,000-000-000,
170,RECREATION DRIVE,La Honda,,,,,000-000-000,
730,EL CAMINO ROAD,Belmont,,,,,000-000-000,
720,EL CAMINO ROAD,Belmont,,,,,000-000-000,
19530,AERONAUT,,SANTA CLARA,,,,000-000-000,
,,Millbrae,,,,,000-000-000,
215,ROQUENA DRIVE,La Honda,,,,,000-000-000,
215,ROQUENA DRIVE,La Honda,,,,,000-000-000,
138,GOYA LANE,Portola Valley,,,,,000-000-000,
127,ASH,Portola Valley,,,,,000-000-000,
3821,HIGUERA ROAD,,SANTA CLARA,,,,000-000-000,
3821,HIGUERA ROAD,,SANTA CLARA,,,,000-000-000,
15810,LOMA VISTA,,SANTA CLARA,,,,000-000-000,
200,WILLOSBROOK DRIVE,Portola Valley,,,,,000-000-000,
18570,CASTLE HILL DRIVE,Morgan Hill,,,,,000-000-000,
14100,Arnerich Road,,Santa Clara,,,,,
,,,,,,,000-000-000,
118,BELRIDGE DRIVE,Los Gatos,,,,,000-000-000,
108,KENNEDY KNOLLS LANE,Los Gatos,,,,,000-000-000,
14686,SATURN DRIVE,San Leandro,,,,,000-000-000,
,Oak Ridge Way,Los Gatos,,,,,424-030-059,
,OAK RIDGE WAY,Los Gatos,,,,,424-030-059,
17580,HOLIDAY DRIVE,Morgan Hill,,,,,000-000-000,
11791,STANTON AVENUE,Castro Valley,,,,,000-000-000,
11250,CHULA VISTA DRIVE,,SANTA CLARA,,,,000-000-000,
5,SEAVIEW DRIVE,Daly City,,,,,000-000-000,
100,SKYWOOD WAY,Woodside,,,,,000-000-000,
100,Skywood Way,Woodside,San Mateo,,,,,
757,CALERO AVENUE,San Jose,,,,,000-000-000,
13350,COUNTRY WAY,Los Altos Hills,,,,,000-000-000,
2506,PARK ROAD,San Mateo,,,,,000-000-000,
101,OLIVE STREET,Los Gatos,,,,,000-000-000,
9150,CANYON OAK ROAD,Salinas,,,,,000-000-000,
,REDWOOD BOULEVARD,Novato,,,,,000-000-000,
1870,UNIVERSITY AVENUE,Palo Alto,,,,,000-000-000,
1870,UNIVERSITY AVENUE,Palo Alto,,,,,000-000-000,
7196,WOODLAKE,San Jose,,,,,000-000-000,
19993,GRAYSTONE LANE,,SANTA CLARA,,,,000-000-000,
,WHITE ROCK ROAD,,Santa Cruz,,,,000-000-000,
3562,EL GRANDE DRIVE,San Jose,,,,,000-000-000,
,El Grande Drive,San Jose,Santa Clara,,,,,
316,SCENIC DRIVE,,SAN MATEO,,,,000-000-000,
,,,,,,,,
4015,HIGUERA HIGHLANDS,,SANTA CLARA,,,,000-000-000,
14,HERITAGE ROAD,La Honda,,,,,000-000-000,
,OLD OAK WAY,Saratoga,,,,,000-000-000,
14575,RAMSTAD DRIVE,San Jose,,,,,000-000-000,
17027,TARPEY ROAD,Watsonville,,,,,181-181-008,
,,,,,,,,
1807,Crater Lake Avenue,Milpitas,,,,,000-000-000,
20201,VIA SANTA TERESA,,SANTA CLARA,,,,000-000-000,
15863,ALTA VISTA WAY,,SANTA CLARA,,,,000-000-000,
21075,Bank Mill Lane,Saratoga,,,,,000-000-000,
21075,BANK MILL LANE,Saratoga,,,,,000-000-000,
10574,Blandor Way,Los Altos Hills,,,,,000-000-000,
,,Los Altos Hills,,,,,000-000-000,
,THE GREAT MALL,Milpitas,,,,,000-000-000,
3795,OAK CANYON LANE,Morgan Hill,,,,,000-000-000,
545,HILLSDALE AVENUE,San Jose,,,,,000-000-000,
545,HILLSDALE AVENUE,San Jose,,,,,000-000-000,
545,Hillsdale Avenue,San Jose,Santa Clara,,,,,
,SUMMIT ROAD,,SANTA CLARA,,,,558-002-054,
1960,ANZAR ROAD,Aromas,SAN BENITO,,,,000-000-000,
1960,ANZAR ROAD,,SAN BENITO,,,,000-000-000,
14156,SHORT HILL COURT,Saratoga,,,,,000-000-000,
18,HIGUERA ROAD,San Jose,SANTA CLARA,,,,000-000-000,
3035,OAK LEAF LANE,Morgan Hill,Santa Clara,,,,000-000-000,
3035,OAK LEAF LANE,Morgan Hill,Santa Clara,,,,000-000-000,
27233,DEER SPRINGS WAY,Los Altos Hills,,,,,000-000-000,
27233,DEER SPRINGS WAY,Los Altos Hills,,,,,000-000-000,
27233,DEER SPRINGS WAY,Los Altos Hills,,,,,000-000-000,
687,MINOR AVENUE,San Jose,,,,,000-000-000,
124,CHESHAM AVENUE,,SAN MATEO,,,,000-000-000,
124,CHESHAM AVENUE,,SAN MATEO,,,,000-000-000,
8,BLUE JAY WAY,,SAN MATEO,,,,000-000-000,
2745,SUMMIT DRIVE,Burlingame,,,,,000-000-000,
335,JANE DRIVE,Woodside,,,,,000-000-000,
20201,VIA SANTA TERESA,,SANTA CLARA,,,,000-000-000,
71,CLUB DRIVE,San Carlos,,,,,000-000-000,
,WEST HARDER ROAD,Hayward,ALAMEDA,,,,000-000-000,
404,WEST HARDER ROAD,Hayward,,,,,000-000-000,
,,,,,,,,
201,MOUNTAIN WOOD LANE,Woodside,,,,PG 809 G-1,000-000-000,
201,MOUNTAIN WOOD LANE,Woodside,,,,,000-000-000,
300,WAYSIDE ROAD,Portola Valley,,,,,076-244-060,
300,WAYSIDE ROAD,Portola Valley,,,,,000-000-000,
300,WAYSIDE ROAD,Portola Valley,,,,,000-000-000,
300,WAYSIDE ROAD,Portola Valley,,,,,000-000-000,
,,,,,,,,
20755,MONTE SUNSET DRIVE,,SANTA CLARA,,,,000-000-000,
20755,Monte Sunset Drive,,Santa Clara,,,,,
,,,,,,,,
988,Godetia Drive,Woodside,San Mateo,,,,,
3113,VISTA MONT DRIVE,San Jose,,,,,000-000-000,
,,,,,,,,
175,CULVERT DRIVE,Cupertino,,,,,000-000-000,
1145,PALOMAR DRIVE,,SAN MATEO,,,,000-000-000,
726,JACARANDA CIRCLE,Hillsborough,,,,,000-000-000,
1670,SHASTA AVENUE,San Jose,,,,,000-000-000,
1092,CATHCART WAY,Stanford,,,,,000-000-000,
5070,ALPINE ROAD,Portola Valley,,,,,000-000-000,
215,STATE STREET,San Mateo,,,,,000-000-000,
215,STATE STREET,San Mateo,,,,,000-000-000,
13815,PIERCE ROAD,Saratoga,,,,,000-000-000,
750,LOMA COURT,Palomar Park,SAN MATEO,,,,000-000-000,
136,LANSBERRY COURT,Los Gatos,,,,,000-000-000,
,GLENCOVE LANDING,Vallejo,,,,,000-000-000,
26411,ESHNER COURT,Los Altos Hills,,,,,000-000-000,
26411,Eshner Court,Los Altos,San Mateo,,,,,
345,KINGS MOUNTAIN ROAD,Woodside,,,,,000-000-000,
23374,DEERFIELD ROAD,,Santa Cruz,,,,000-000-000,
16451,WOOD ACRES ROAD,,SANTA CLARA,,,,000-000-000,
16701,KENNEDY ROAD,,SANTA CLARA,,,,000-000-000,
,LAZO GRANDE DRIVE,,SANTA CLARA,,,,776-008-002,
22999,VOSS AVENUE,Cupertino,,,,,000-000-000,
221,PEARL STREET,Santa Cruz,,,,,000-000-000,
264,FAIRFIELD COURT,Palo Alto,,,,,000-000-000,
,DEER CREEK ROAD,,SANTA CLARA,,,,000-000-000,
5,ZACHARY COURT,Menlo Park,,,,,000-000-000,
21063,BANK MILL LANE,Saratoga,,,,,000-000-000,
3553,LONDONBERRY DRIVE,Santa Clara,,,,,000-000-000,
1051,VILLA MARIA COURT,San Jose,,,,,000-000-000,
215,OAKFORD ROAD,Woodside,,,,,000-000-000,
215,Oakford Road,Woodside,,,,,,
2655,PINE STREET,San Francisco,,,,,000-000-000,
25541,CHAPIN ROAD,Los Altos Hills,,,,,000-000-000,
136,RUSSELL AVENUE,Portola Valley,,,,,000-000-000,
22714,ALCALDE ROAD,Cupertino,,,,,000-000-000,
264,FAIRFIELD COURT,Palo Alto,,,,,000-000-000,
1134,LITTLEOAK CIRCLE,San Jose,,,,,000-000-000,
13800/1381,PIERCE ROAD,Saratoga,,,,,000-000-000,
13800,PIERCE ROAD,Saratoga,,,,,000-000-000,
10,ESTRADA PLACE,,SAN MATEO,,,,000-000-000,
2260,TIOGA DRIVE,Menlo Park,,,,,000-000-000,
,,,,,,,000-000-000,
903,DOREL DRIVE,San Jose,,,,,000-000-000,
,RAMSTAD DR & STORY RD,San Jose,,,,,000-000-000,
255,WILLOWBROOK DRIVE,Portola Valley,,,,,000-000-000,
26750,ALMADEN COURT,Los Altos Hills,,,,,000-000-000,
16750,Almaden Court,Los Altos Hills,,,,,,
5800,ARBORETUM DRIVE,,SANTA CLARA,,,,000-000-000,
2362,RAMBO COURT,Santa Clara,,,,,000-000-000,
135,RUSSELL AVENUE,Portola Valley,,,,,000-000-000,
27925,ROBLE BLANCO,Los Altos Hills,,,,,000-000-000,
3631,JEFFERSON AVENUE,Redwood City,,,,,000-000-000,
3631,JEFFERSON AVENUE,Redwood City,,,,,000-000-000,
,,,,,,,,
19370,REDBERRY LANE,Saratoga,,,,,000-000-000,
274,MARGARITA AVENUE,Palo Alto,,,,,000-000-000,
8,CRAGMONT COURT,San Mateo,,,,,000-000-000,
146,BELL RIDGE ROAD,Los Gatos,,,,,000-000-000,
146,BELRIDGE DRIVE,Los Gatos,,,,,000-000-000,
146,BELRIDGE DRIVE,Los Gatos,,,,,000-000-000,
,STEVENS CANYON ROAD,Cupertino,Santa Clara,,,,000-000-000,
16450,SOUTH QUARRY ROAD,,SANTA CLARA,,,,000-000-000,
130,WESTHILL DRIVE,Los Gatos,,,,,000-000-000,
,,,,,,,,
12833,STAR RIDGE COURT,Saratoga,,,,,000-000-000,
,CHULA VISTA AVENUE,,SANTA CLARA,,,,599-030-032,
,CHULA VISTA AVENUE,,SANTA CLARA,,,,599-030-032,
69,VISTA VERDE WAY,,SAN MATEO,,,,000-000-000,
69,VISTA VERDE WAY,,SAN MATEO,,,,000-000-000,
,PRINCEVALE STREET,Gilroy,,,,,000-000-000,
1180,SAGUARE TERRACE,Fremont,,,,,000-000-000,
15534,LONGWOOD DRIVE,Los Gatos,,,,,000-000-000,
1432,CHIPLAY DRIVE,San Jose,,,,"Pg. 834, H",000-000-000,
375,CREST DRIVE,San Jose,,,,,000-000-000,
544,ROXBURY LANE,Los Gatos,,,,,000-000-000,
759,TEMESCAL WAY,Redwood City,,,,,000-000-000,
,CHULA VISTA DRIVE,,SANTA CLARA,,,,599-030-038,
3590,VISTA DEL VALLE,San Jose,,,,,000-000-000,
184,Tennyson Avenue,Palo Alto,,,,,000-000-000,
13045,ALTA TIERRA ROAD,Los Altos Hills,,,,,000-000-000,
1745,GUINDA STREET,Palo Alto,,,,,000-000-000,
23589,SKYVIEW TERRACE,,Santa Cruz,,,,000-000-000,
4050,GOLF DRIVE,San Jose,SANTA CLARA,,,,000-000-000,
1268,ALBACORE TERRACE,Fremont,,,,,000-000-000,
21097,BRUSH ROAD,,SANTA CLARA,,,,000-000-000,
1092,LAURELES DRIVE,Los Altos,,,,,000-000-000,
22536,ECHO DRIVE,Los Gatos,SANTA CLARA,,,,000-000-000,
1579,WILLOW OAKS DRIVE,San Jose,,,,,000-000-000,
,CASA LOMA ROAD,,SANTA CLARA,,,,742-031-012,
,Casa Loma Road,,Santa Clara,,,,742-31-012,
544,ROXBURY LANE,Los Gatos,,,,,000-000-000,
1410,SAN JUAN AVENUE,San Jose,,,,,000-000-000,
,SCENIC DRIVE,,San Mateo,,,,000-000-000,
9001,HIGHWAY 17,Scotts Valley,,,,,000-000-000,
5758,W. LOS POSITAS BLVD.,Pleasanton,,,,,000-000-000,
,PARK AND MADRONE AVENUE,,SAN MATEO,,,,000-000-000,
20878,JACKS ROAD,Saratoga,,,,,000-000-000,
4007,CLAITOR WAY,San Jose,,,,,000-000-000,
,STONEWOOD DRIVE,,Santa Cruz,,,,093-392-002,
,,,Santa Cruz,,,,93-392-02,
271,GABARDA WAY,,SAN MATEO,,,,000-000-000,
151,MOUNTAIN VIEW AVENUE,Los Altos,,,,,000-000-000,
7,RECREATION DRIVE,La Honda,San Mateo,,,,000-000-000,
20789,LOCUST DRIVE,,SANTA CLARA,,,,000-000-000,
,BEARDSLEY ROAD,,SANTA CLARA,,,,544-012-006,
,,La Honda,,,,,000-000-000,
5799,INDIAN AVENUE,San Jose,,,,,000-000-000,
271,GARBARDA WAY,,San Mateo,,,,000-000-000,
290,Whisky Hill Road,Woodside,,,,,000-000-000,
,,Montara,,,,,000-000-000,
2908,SCOTT BOULEVARD,Santa Clara,,,,,000-000-000,
,TERRABAY DEVELOPMENT,South San Francisco,,,,,000-000-000,
,,,,,,,,
,,,,,,,,
3147,HOSTETTER ROAD,San Jose,,,,,000-000-000,
111,ESCANYO,,SAN MATEO,,,,000-000-000,
27060,OLD TRACE LANE,Los Altos Hills,,,,,000-000-000,
125,SPRINGDALE WAY,,SAN MATEO,,,,000-000-000,
111,FARM HILL WAY,Los Gatos,,,,,000-000-000,
24662,SOQUEL-SAN JOSE ROAD,,Santa Cruz,,,,000-000-000,
2350,JARVIS ROAD,Santa Cruz,Santa Cruz,,,,000-000-000,
,MOUNT HAMILTON ROAD,,SANTA CLARA,,,,000-000-000,
213,Falcon Place,Clayton,,,,,000-000-000,
1738,CREEK DRIVE,San Jose,,,,,000-000-000,
20,OAK HOLLOW WAY,Menlo Park,San Mateo,,,,000-000-000,
362,MCDUFF AVENUE,Fremont,Alameda,,,,000-000-000,
152,TERESITA WAY,Los Gatos,Santa Clara,,,,000-000-000,
205,TONOPAH DRIVE,Fremont,Alameda,,,,000-000-000,
18410,MURPHY SPRINGS DRIVE,Morgan Hill,Santa Clara,,,,000-000-000,
19327,BEARDSLEY ROAD,,SANTA CLARA,,,,000-000-000,
980,MIDDLETON DRIVE,,Santa Cruz,,,,000-000-000,
618,FULLER AVENUE,San Jose,,,,,000-000-000,
237,MAPACHE DRIVE,Portola Valley,San Mateo,,,,000-000-000,
11276,CHUA VISTA DRIVE,San Jose,,,,,000-000-000,
6821,SILVER CREEK ROAD,,SANTA CLARA,,,,000-000-000,
762,SANTA PAULA AVENUE,Sunnyvale,Santa Clara,,,,000-000-000,
67,HILLBROOK DRIVE,Portola Valley,San Mateo,,,,000-000-000,
156,JACKSON STREET,Los Gatos,Santa Clara,,,,000-000-000,
7,MONTECITO ROAD,Woodside,San Mateo,,,,000-000-000,
1530,WELBURN AVENUE,Gilroy,Santa Clara,,,,000-000-000,
1743,ELLEN AVENUE,San Jose,,,,,000-000-000,
323,CREST DRIVE,San Mateo,,,,,000-000-000,
1035,SILVER HILL ROAD,Atherton,San Mateo,,,,000-000-000,
1035,Silver Hill Road,Redwood City,Santa Clara,,,,,
17745,MANZANITA DRIVE,,SANTA CLARA,,,,000-000-000,
16145,GREENWOOD DRIVE,Monte Sereno,Santa Clara,,,,000-000-000,
11651,JESSICA LANE,Los Altos Hills,Santa Clara,,,,000-000-000,
1445,Cree Road,Fremont,Alameda,,,,000-000-000,
,,San Francisco,San Francisco,,,,000-000-000,
12638,LA CRESTA COURT,Los Altos Hills,Santa Clara,,,,000-000-000,
,SAN ANDREAS ROAD,Aptos,Santa Cruz,,,,000-000-000,
1052,CASCADE COURT,Menlo Park,San Mateo,,,,000-000-000,
500,Seaside School Road,Unincorporated,San Mateo,,,,,
213,Falcon Place,,,,,,,
1204,SOUTHDOWN ROAD,Hillsborough,San Mateo,,,,000-000-000,
184,Fir Street,Unincorporated,San Mateo,,,,,
155,Sunrise Drive,Woodside,,,,,,
155,Sunrise Drive,Woodside,,,,,,
,,,,,,,,
,OLD LA HONDA ROAD,Woodside,San Mateo,,,,076-102-040,
,,,,,,,,
12330,Clayton Road,,Santa Clara,,,,,
15825,Concord Circle,Morgan Hill,Santa Clara,,,,,
10479,South Tantau Avenue,Cupertino,Santa Clara,,,,,
11432,Chula Vista Way,Unincorporated,Santa Clara,,,,,
14100,Arnerich Road,Unincorporated,Santa Clara,,,,,
,,,,,,,,
6946,Lariat Lane,Castro Valley,,,,,,
30,Hernandez Avenue,Los Gatos,Santa Clara,,,,,
25550,Moody Road,Los Altos Hills,,,,,,
,,,,,,,,
380,El Camino Real,Belmont,San Mateo,,,,,
27625,Red Rock Road,Los Altos Hills,,,,,,
12740,Dianne Drive,Los Altos Hills,,,,,,
,,,,,,,,
21404,Madrone Drive,Unincorporated,Santa Clara,,,,,
16th,Fairway,Clayton,,,,,,
351,La Questa Way,Woodside,,,,,,
330,Mtn. Home Road,Woodside,,,,,,
210,Harkins Road,Unincorporated,San Mateo,,,,,
65,Buena Vista Road,South San Francisco,,,,,,
,,,,,,,,
55,Orchard Hills Way,Atherton,,,,,,
13680,Rossmere Court,Saratoga,,,,,,
45,La Loma Drive,Menlo Park,,,,,,
325,Sycamore Street,San Carlos,,,,,,
918,Siskiyou Drive,Menlo Park,,,,,,
277,Grandview Drive,Woodside,,,,,,
,,Woodside,San Mateo,,,,,
165,Ravine Drive,Cupertino,,,,,,
,,,,,,,,
21446,Madrone Drive,,Santa Clara,,,,,
14540,Clearview Drive,,Santa Clara,,,,,
84,Vista Verde Way,,San Mateo,,,,,
12711,Saratoga Creek Drive,Saratoga,,,,,,
1440,Kring Way,Los Altos,,,,,,
2301-2413,Sharon Road,Sharon Heights,,,,,,
3584,Vista Del Valle,San Jose,Santa Clara,,,,,
177,Mapache,Portola Valley,,,,,,
19,Dickens Court,San Carlos,,,,,,
,Mountain Way,,Santa Clara,,,,510-53-002,
16637,San Benito Place,Morgan Hill,,,,,,
3774,Marchant Court,San Jose,Santa Clara,,,,,
21888,Villa Oaks Lane,Saratoga,Santa Clara,,,,,
3760,Sierra Road,San Jose,Santa Clara,,,,,
4066,Guildford Pl,San Jose,Santa Clara,,,,,
444,Kings Mountain Road,Woodside,San Mateo,,,,,
638,Lyonburry Pl.,San Jose,Santa Clara,,,,,
21451,Mt. Eden Court,Saratoga,Santa Clara,,,,,
1260,Roble,Millbrae,San Mateo,,,,,
5521,Country Club Pkwy,San Jose,Santa Clara,,,,,
12315,Harding,San Martin,,,,,,
1050,Rebecca Avenue,Boulder Creek,,,,,,
10715,Ridgeview Way,,Santa Clara,,,,,
,,,,,,,,
914,Foothills Drive,San Jose,Santa Clara,,,,,
2513,Squaw Ct,Antioch,Contra Costa,,,,,
San,Francisco,San Francisco,San Francisco,,,,,
380,Shelford Avenue,San Jose,Santa Clara,,,,,
3435,Lava Rock Ct.,Morgan Hill,Santa Clara,,,,,
3517,Chablis Circle,San Jose,Santa Clara,,,,,
3540,Ambra Way,San Jose,Santa Clara,,,,,
2930,Ridgeway Avenue,San Bruno,San Mateo,,,,,
,,,,,,,,
10153,Bon Vista Ct,San Jose,Santa Clara,,,,,
1414,Lupton Avenue,San Jose,Santa Clara,,,,,
21523,La Salle Drive,Los Gatos,Santa Clara,,,,,
7432,Hoylake Ct,Gilroy,Santa Clara,,,,,
,,,,,,,,
6153,Running Springs Road,San Jose,Santa Clara,,,,,
771,Nash Road,Los Altos,Santa Clara,,,,,
,Bentley Ridge,San Jose,,,,,,
3906,Altadena Lane,San Jose,Santa Clara,,,,,
782,Raymundo Avenue,Los Altos,Santa Clara,,,,,
5545,Moringside Drive,San Jose,Santa Clara,,,,,
1326,Bullion Circle,San Jose,Santa Clara,,,,,
13300,Country Way,Los Altos Hills,Santa Clara,,,,,
11701,Putter Way,,Santa Clara,,,,,
14385,Chester Avenue,Saratoga,Santa Clara,,,,,
1231,Gronwall Lane,Los Altos,Santa Clara,,,,,
25500,Loma Prieta Avenue,Los Gatos,Santa Cruz,,,,,
95,Fleur Place,Atherton,San Mateo,,,,,
16330,Cypress Way,,Santa Clara,,,,,
675,Conga Street,San Francisco,San Francisco,,,,,
23291,Partridge Lane,,Santa Clara,,,,,
287,Westridge Drive,Portola Valley,San Mateo,,,,,
291,Gordon Avenue,San Jose,Santa Clara,,,,,
,Off Hopkins Gulch Road,Boulder Creek,Santa Cruz,,,,89-111-38,
11477,Lindy Place,Cupertino,Santa Clara,,,,,
1501,Huron Avenue,San Mateo,San Mateo,,,,,
25-27,Monroe Street,Santa Clara,Santa Clara,,,,,
2888,Croft Drive,San Jose,Santa Clara,,,,,
18400,Overlook Road,Los Gatos,,,,,,
10701,Santa Lucia Road,Cupertino,Santa Clara,,,,,
,East Road,Boulder Creek,Santa Cruz,,,,082-241-74,
134,Willow Creek Street,Watsonville,Santa Cruz,,,,,
1585,Siesta Drive,Los Altos Hills,,,,,,
501,Davenport Court,Sunnyvale,Santa Clara,,,,,
,Terminal Avenue,Menlo Park,,,,,,
2420,26th Avenue,San Francisco,San Francisco,,,,,
2942,Archwood Circle,San Jose,Santa Clara,,,,,
,,,,,,,,
,,,,,,,,
,,Oakland,,,,,,
,,,,,,,,
,,,,,,,,
134,Willow Creek Street,Watsonville,,,,,,
,McNair Landing,Petaluma,Sonoma,,,,,
632,Eastview Way,Redwood City,,,,,,
3747,Hamilton Way,Unincorporated,San Mateo,,,,,
19993,Graystone Lane,,Santa Clara,,,,,
19750,Little Brook Drive,,Santa Clara,,,,,
261,Camino Al Lago,Atherton,,,,,,
,,,,,,,,
10588,Santa Lucia Road,Cupertino,Santa Clara,,,,,
,,,,,,,,
1305,Marlborough Road,Hillsborough,,,,,,
24,Mt. Hamilton Road,San Jose,Santa Clara,,,,,
3543,Altamont Way,Redwood City,,,,,,
949,East Street,Lafayette,,,,,,
1244,Los Trancos Road,,San Mateo,,,,,
1341,Hillview Drive,Menlo Park,,,,,,
2720,Cantor Drive,Morgan Hill,,,,,,
,,,,,,,,
119,Brookside Drive,Portola Valley,,,,,,
1087,Walnut Woods Court,San Jose,Santa Clara,,,,,
117,Griffith Place,Los Gatos,,,,,,
142,Willow Creek Street,Watsonville,,,,,,
130,Willow Creek Street,Watsonville,,,,,,
3111,Promontory Way,San Jose,Santa Clara,,,,,
271,N. Abbott Avenue,Milpitas,,,,,,
,Old Post Office & Kelly Building,Sunnyvale,Santa Clara,,,,,
405,Chargin Drive,Morgan Hill,,,,,,
978,Addison Ave.,Palo Alto,,,,,,
717,Charleston Court,Palo Alto,,,,,,
12329,Vista Arroyo Court,Saratoga,Santa Clara,,,,,
,,,,,,,,
34,Robenson Drive,San Francisco,San Francisco,,,,,
714,Knoll Drive,San Carlos,,,,,,
,,,,,,,,
14755,Oak Street,Saratoga,Santa Clara,,,,,
1134,Archer Way,Campbell,Santa Clara,,,,,
261,El Camino Del Lago,Atherton,,,,,,
159,Long Meadow Drive,Los Gatos,,,,,,
10875,Saratoga Hills Drive,Saratoga,Santa Clara,,,,,
15270,Oak Ridge Way,Los Gatos,,,,,,
2308,Howard Avenue,San Carlos,,,,,,
Tract 7298,East Warren Avenue,Fremont,,,,,,
,,,,,,,,
173,Third Avenue,Daly City,,,,,,
2121,Via Escalera,Los Altos,,,,,,
,,,,,,,,
138,Willow Creek Street,Watsonville,,,,,,
,,,,,,,,
,Watson Canyon Court,San Ramon,,,,,,
1299,Lynhurst Way,San Jose,Santa Clara,,,,,
,Dorel Drive,San Jose,Santa Clara,,,,595-27-36,
,,,,,,,,
13000,La Cresta Drive,Los Altos Hills,,,,,,
13000,La Cresta Drive,Los Altos Hills,,,,,,
1193,Elena Privada,Mountain View,,,,,,
365,Second Avenue,Redwood City,,,,,,
,Miller Hill Road,,Santa Cruz,,,,096-251-01,
,,,,,,,,
"130, 134,",Willowcreek Street,Watsonville,,,,,,
,,,,,,,,
123,Phillips Lane,Woodside,San Mateo,,,,,
19780,Drake Drive,Cupertino,Santa Clara,,,,,
17425,Blue Jay Drive,Morgan Hill,Santa Clara,,,,,
20471,Idylwild Drive,Los Gatos,,,,,,
2813,Forbes Avenue,Santa Clara,Santa Clara,,,,,
,,,,,,,,
15501,On Orbit Drive,Saratoga,Santa Clara,,,,,
2158,Blossom Crest Way,San Jose,Santa Clara,,,,,
4350,Opal Cliff Drive,Santa Cruz,Santa Cruz,,,,,
450,Old Oak Court,Los Altos,,,,,,
,,,,,,,,
23130,Mora Glen Drive,Los Altos,,,,,,
700,Patrol Road,Woodside,,,,,,
7098,Royal Ridge Drive,San Jose,Santa Clara,,,,,
,,,,,,,,
416,Raymundo,Woodside,,,,,,
21127,Bank Mill Road,Saratoga,Santa Clara,,,,,
24769,Soquel San Jose Road,,Santa Cruz,,,,,
24769,Soquel-San Jose Road,Los Gatos,Santa Cruz,,,,,
,,,,,,,,
,,,,,,,,
,DeLong Avenue,Daley City,,,,,002-234-010,
7056,Wooded Lake Drive,San Jose,Santa Clara,,,,,
1284,Prevost Street,San Jose,Santa Clara,,,,,
18330,Black Road,,Santa Clara,,,,,
20471,Idylwild Drive,Los Gatos,,,,,,
1567,McDaniel Avenue,San Jose,Santa Clara,,,,,
1530,Bairn Drive,Hillsborough,,,,,,
,,,,,,,,
1144,Hillslope Place,,Santa Clara,,,,,
15100,Garcal Drive,,Santa Clara,,,,,
98,Lynvale Court,Daly City,,,,,,
26861,Hoster Creek Road,Los Gatos,Santa Cruz,,,,,
48950,Green Valley Road,Fremont,Santa Clara,,,,,
,East Road,,Santa Cruz,,,,082-241-74,
,Green Hills Road,Scotts Valley,,,,,,
20,Black Fox Way,Redwood City,San Mateo,,,,,
10,Leroy Avenue,Portola Valley,,,,,,
1587,Cordilleras Road,Redwood City,,,,,,
4925,New World Drive,San Jose,Santa Clara,,,,,
,,,,,,,,
1743,Fabian Drive,San Jose,Santa Clara,,,,,
4548,Tompkins Avenue,Oakland,,,,,,
10206,Newell Creek Road,,Santa Cruz,,,,,
19836,Kane Court,Saratoga,Santa Clara,,,,,
,,,,,,,,
14672,Cornelian Glen Court,Saratoga,Santa Clara,,,,,
620,Old Mill Pond Road,Los Gatos,,,,,093-291-33,
10751,Ridgeview Avenue,San Jose,Santa Clara,,,,,
,"Devcon Drive, Bearing Drive, Zanker Rd.",San Jose,Santa Clara,,,,,
21,Oak Hill Way,Los Gatos,,,,,,
500,La Mesa Court,Portola Valley,,,,,,
1615,Columbia Drive,Mountain View,Santa Clara,,,,,
200,Forrester Road,Los Gatos,,,,,,
17629,Comanche Trail,Los Gatos,Santa Clara,,,,,
722,Elm Street,San Carlos,,,,,,
,Wood Acres Road,,Santa Clara,,,,,
,Poplar Avenue,Campbell,Santa Clara,,,,,
,,,,,,,,
25,Oakhill Drive,Woodside,San Mateo,,,,,
75,Valencia Court,Portola Valley,San Mateo,,,,,
905,W. Middlefield Road - Unit 923,Mountain View,,,,,,
6758,Glenview Drive,San Jose,Santa Clara,,,,,
11351,Enchanto Vista,,Santa Clara,,,,,
11021,Chula Vista,San Jose,Santa Clara,,,,,
16420,West La Chiquita,Los Gatos,,,,,,
,,,,,,,,
16 & 42,Santa Maria Avenue,Portola Valley,San Mateo,809,J,5,076-203-060,
16 & 42,Santa Maria Avenue,Portola Valley,San Mateo,809,H,5,076-203-060,
27673,Lupine Road,Los Altos Hills,,,,,,
,,,,,,,,
396,Jai Drive,San Jose,Santa Clara,,,,,
270,Arundel Road,San Carlos,San Mateo,,,,,
1320,Westridge Drive,Portola Valley,San Mateo,,,,,
271,,San Jose,Santa Clara,,,,,
10080,Bon Vista Court,San Jose,Santa Clara,,,,,
737,Edge Lane,Los Altos Hills,,,,,,
3011,Windmill Canyon Drive,Clayton,Contra Costa,,,,,
,,Clayton,,,,,,
,,Clayton,,,,,,
26765,Havenhill Lane,Los Gatos,Santa Clara,,,,,
,,,,,,,,
,Highway 80,Unincorporated,Placer,,,,,
,,,,,,,,
1475,Holly Avenue,Los Altos,,,,,,
33601,South Highway 1,Gualala,Mendocino,,,,,
105,Kathy Court,Los Gatos,Santa Clara,,,,,
,,,,,,,,
4134,Holly Drive,San Jose,Santa Clara,,,,,
26774,Haven Hill Lane,,Santa Cruz,,,,,
8,Russell Avenue,Portola Valley,,,,,,
,Simonic Trail,Unincorporated,San Mateo,,,,080-040-080,
,,,,,,,,
,,,,,,,,
,,,,,,,,
5886,Arboretum Drive,Los Altos,,,,,,
150,Valpariso Avenue,Atherton,,,,,,
1573,Dry Creek Road,Campbell,Santa Clara,,,,,
14490,Garcal Drive,San Jose,Santa Clara,,,,,
231,Jones Road,Los Gatos,Santa Clara,,,,,
1386,Story Court,San Jose,Santa Clara,,,,,
,,,,,,,,
,,San Francisco,,,,,,
19101,Bear Creek Road,,Santa Clara,,,,,
,,San Jose,,,,,,
,,,Santa Clara,,,,,
,,,,,,,,
17471,Farley Road West,Los Gatos,,,,,,
16050,Overlook Drive,Unincorporated,Santa Clara,,,,,
,,,,,,,,
1161,Trinity Street,Menlo Park,,,,,,
12951,Cortez Lane,Los Altos Hills,,,,,,
3000,Portola Road,Woodside,,,,,,
4010,Page Mill Road,Palo Alto,,,,,,
,,,,,,,,
14150,La Honda Road,,San Mateo,,,,,
130,Spring Creek,Unincorporated,Santa Cruz,,,,,
17605,Foster Road,Los Gatos,,,,,,
20,Brooke Court,Hillsborough,San Mateo,,,,,
221,Vista Verde Way,Portola Valley,San Mateo,,,,,
,,Palo Alto,,58,,,,
42,Wadsworth,Los Gatos,Santa Clara,,,,,
,Brown Valley Road,Corralitos,,,,,107-471-07 & 08,
6802,Heaton Moor Drive,San Jose,Santa Clara,,,,,
,Vista Valle Court,,Santa Clara,,,,,
,,,,,,,,
13641,Paseo Del Roble,Los Altos Hills,,,,,,
2121,Hoover Court,Santa Clara,Santa Clara,,,,,
10195,Cinnabar Hills Rd.,,Santa Clara,,,,742-03-12,
,,,,,,,,
1671,Farringdon Ave,San Jose,Santa Clara,,,,,
,Glenwood Drive,,Santa Cruz,,,,093-041-011,
,,,,,,,,
105,Teresita Way,Los Gatos,Santa Clara,,,,,
21432,Oneda Court,Unincorporated,Santa Clara,,,,,
1745,Guinda Street,Palo Alto,,,,,,
4730,Abbey Hill,,,,,,,
65,Barbaree Way,,Marin,,,,,
2138,Bridle Ridge Ct.,San Jose,Santa Clara,,,,,
21502,Saratoga Heights Dr.,Saratoga,Santa Clara,,,,,
,,,,,,,,
,,,,,,,,
21501,Saratoga Heights Drive,Saratoga,Santa Clara,,,,,
185,Canada Vista,,San Mateo,,,,,
905,San Mateo Drive,Menlo Park,San Mateo,,,,,
141,Russell Avenue,Portola Valley,San Mateo,,,,,
14134,Amherst Court,Los Altos Hills,,,,,,
22292,Regnart Road,Cupertino,Santa Clara,,,,,
,,,,,,,,
7278,Scarsdale Place,San Jose,Santa Clara,,,,,
,East Road,,Santa Cruz,,,,082-241-74,
,Edencrest Lane,Saratoga,Santa Clara,,,,503-12-029,
15,Lerida Court,,San Mateo,,,,,
,,,,,,,,
16189,Roseleaf Lane,Unincorporated,Santa Clara,,,,,
3165,Thomas Grade,Morgan Hill,,,,,,
,Black Mountain Rd.,,Santa Cruz,,,,105-231-68,
55,New Place Road,Hillsborough,,,,,,
27275,Loma Prieta Way,Los Gatos,Santa Clara,,,,,
16338,Hilow Road,Los Gatos,Santa Clara,,,,,
,Henwood Road,,Santa Clara,,,,701-29-032,
22530,Ricardo Road,Cupertino,Santa Clara,,,,,
14459,Deer Canyon Lane,Saratoga,Santa Clara,,,,,
161,Altura Vista,Los Gatos,Santa Clara,,,,,
16383,Shady View Lane,,Santa Clara,,,,532-03-006,
1034,Eden Bower Lane,Redwood City,,,,,,
14357,Evans Lane,Saratoga,Santa Clara,,,,,
36,Apple Valley Road,Scotts Valley,,,,,,
15096,Danielle Place,Monte Sereno,Santa Clara,,,,,
1600,Jennifer Lane,Gilroy,,,,,,
109,Las Colinas Drive,Corralitos,Santa Cruz,,,,107-481-02,
13212,Peacock Court,Cupertino,Santa Clara,,,,351-42-003,
,San Tomas Aquino Road,Campbell,Santa Clara,,,,,
80,Santiago Avenue,Atherton,,,,,,
,,,,,,,,
26910,Dezahara Way,Los Altos Hills,San Mateo,,,,,
19849,Kane Court,Saratoga,Santa Clara,,,,,
18770,Withey Road,Monte Sereno,Santa Clara,,,,,
12109,Oak Park Court,Los Altos Hills,Santa Clara,,,,,
,,Boulder Creek,Santa Cruz,,,,090-221-25,
13015,Robleda Road,Los Altos Hills,Santa Clara,,,,,
1025,Broadleaf Lane,San Jose,Santa Clara,,,,,
3180,Pleasant Valley Road,,Santa Cruz,,,,107-561-04,
193,Saratoga Avenue,Santa Clara,Santa Clara,,,,,
,Story Road,San Jose,Santa Clara,,,,612-34-044,
0,Rapley Ranch Road,,San Mateo,,,,,
315,Summit Drive,Redwood City,San Mateo,,,,057-162-220,
19235,Hidden Springs Lane,,Santa Cruz,,,,,
1083,Bird Avenue,San Jose,Santa Clara,,,,,
21095,Old Well Road,Los Gatos,Santa Clara,,,,,
,Aptos View Road,,Santa Cruz,,,,,
15854,Soda Springs Road,,Santa Clara,,,,,
18320,Vista Grande Way,Los Gatos,Santa Clara,,,,,
111,Roquena Drive,La Honda,,,,,,
20830,Panorama Drive,Santa Clara,Santa Clara,,,,,
500,Fourth Avenue,,San Mateo,,,,,
21014,Bear Creek Road,,Santa Clara,,,,,
2426,Golf Links Circle,Santa Clara,Santa Clara,,,,,
10153,Bona Vista Court,San Jose,Santa Clara,,,,,
,,,,,,,,
,,Milpitas,,,,,,
16611,Howard Road,Los Gatos,Santa Clara,,,,,
2572,Valerie Court,Santa Cruz,Santa Cruz,,,,,
457,North Fourth Street,San Jose,Santa Clara,,,,,
1272,Littman Drive,San Jose,Santa Clara,,,,,
,,,,,,,,
1025,Broad Leaf Lane,San Jose,Santa Clara,,,,,
6458,Guadalupi Mines Road,San Jose,Santa Clara,,,,,
23374,Deer field Road,,Santa Cruz,,,,,
215,Monroe Street,Santa Clara,Santa Clara,,,,,
13170,La Cresta Drive,Los Altos Hills,San Mateo,,,,,
,Madrone Avenue,,San Mateo,,,,,
,,,,,,,,
,,,,,,,,
,,,,,,,,
0,Ridge Way,Watsonville,,,,,049-271-41 & 42,
,,,Santa Clara,,,,,
490,Summit Springs Road,Woodside,,,,,,
50,Arundel Road,San Carlos,,,,,,
880,Runnymede Road,Woodside,,,,,,
27850,Canyon Road,,Santa Clara,,,,,
4725,Cherryvale Avenue,,Santa Clara,,,,,
,,,Santa Cruz,,,,076-251-20 & 26,
,,,,,,,,
1710,Industrial Road,San Carlos,,,,,,
276,Humboldt Road,Brisbane,,,,,,
730,overlook,San Jose,Santa Clara,,,,,
16371,Aztec Ridge,,Santa Clara,,,,,
16371,Aztec Ridge Drive,,Santa Clara,,,,,
704,Garner Avenue #15,Salinas,,,,,,
18087,Serramonte Drive,Los Gatos,Santa Clara,,,,,
1148,Holly Ann Place,San Jose,Santa Clara,,,,,
19233,Mountain Way,,Santa Clara,,,,,
471,Santa Rosa Drive,Los Gatos,Santa Clara,,,,,
1651,Jacob Avenue,San Jose,Santa Clara,,,,,
499,Theta Court,San Jose,Santa Clara,,,,,
21014,Bear Creek Road,Unincorporated,Santa Cruz,,,,,
101,Benedict Avenue,Unincorporated,Santa Cruz,,,,,
230,Creekside Lane,Santa Cruz,Santa Cruz,,,,,
7554,DeFoe Drive,Cupertino,Santa Clara,,,,,
26060,Kriste Lane,Los Altos Hills,Santa Clara,,,,,
,Minto Road,Watsonville,Santa Cruz,,,,051-511-35,
21290,Bertram Road,,Santa Clara,,,,742-04-020,
,,,,,,,,
,,,,,,,,
711,Larkin Valley Road,Watsonville,Santa Cruz,,,,,
1239,Talbryn Lane,Belmont,,,,,,
1060,Continental Drive,Menlo Park,San Mateo,,,,,
3453,Morgan Place,San Jose,Santa Clara,,,,,
18977,Barnhart Avenue,Cupertino,Santa Clara,,,,,
,,,,,,,,
40,Tagus Court,Portola Valley,San Mateo,,,,,
75,Denise Drive,Hillsborough,San Mateo,,,,,
,Plumas Street,Brisbane,San Mateo,,,,,
,Plumas Street,,,,,,,
,San Bruno Avenue,Brisbane,San Mateo,,,,,
,San Bruno Avenue,,,,,,,
163,Otis Avenue,Woodside,San Mateo,,,,,
,,Palo Alto,,,,,,
2342,Tulip Road,San Jose,Santa Clara,,,,,
,,,,,,,,
,Wood Acres Road,,Santa Clara,,,,510-53-018,
21225,Comer Drive,Saratoga,Santa Clara,,,,,
24964,Skyland,Los Gatos,Santa Clara,,,,,
,,,,,,,,
3845,Carlson Court,Palo Alto,Santa Clara,,,,,
10195,Cinnabar Hills Road,,Santa Clara,,,,,
22191,Old Santa Cruz Highway,,Santa Clara,,,,,
,,,,,,,,
18400,Lexington Drive,Monte Sereno,Santa Clara,,,,,
317,Belblossom Way,Los Gatos,Santa Clara,,,,,
6560,Whispering Pines Drive,San Jose,Santa Clara,,,,,
2460,Christo Rey Place,Los Altos,Santa Clara,,,,,
10225,"Cinnabar Hills Road, Lot 3",,Santa Clara,,,,742-03-013,
,,,,,,,,
1081,Noble Lane,San Jose,Santa Clara,,,,,
19560,Redberry Drive,Los Gatos,Santa Clara,,,,,
,,Upper Oak Flat,Santa Cruz,,,,,
1148,Clinton Street,Redwood City,San Mateo,,,,,
2418,Mr. Pleasant Road,,Santa Clara,,,,,
10161,Cinnabar Hills Road,,Santa Clara,,,,,
,,,,,,,,
,,,Santa Cruz,,,,099-11-01 and 06,
1205,Eagle Hill Road,,Monterey,,,,,
16290,Oakhurst Drive,Monte Sereno,Santa Clara,,,,,
526,Cuesta Real,La Honda,San Mateo,,,,,
,,,,,,,,
,,San Jose,,,,,,
2809,Flint Avenue,San Jose,Santa Clara,,,,,
1261,Willowmar Drive,San Jose,Santa Clara,,,,,
,Congress Springs Road,,Santa Clara,,,,503-44-005,
,Central Drive & Red Rock Road,Los Altos Hills,,,,,,
5623,Algonquin Way,San Jose,Santa Clara,,,,,
22548,Ravensbury Ave,Los Altos Hills,,,,,,
,,,,,,,,
22646,San Jose Road,Cupertino,Santa Clara,,,,342-18-25,
,,,,,,,,
357,Stevick Avenue,Atherton,,,,,,
,,,,,,,,
,,,,,,,,
336,Swett Road,Woodside,San Mateo,,,,,
,Cinnabar Hills Road,,Santa Clara,,,,742-04-021,
,,,,,,,,
,Pollard Tank Site,Airport Road,Santa Clara,,,,,
88,Crestline Ave.,Daly City,,,,,,
121,Laurel Avenue,Los Gatos,Santa Clara,,,,,
,,Cupertino,,,,,,
12376,Priscilla Lane,Los Altos Hills,San Mateo,,,,,
11450,Canyon View Circle,Cupertino,Santa Clara,,,,,
3633,Vista Del Valle,San Jose,Santa Clara,,,,,
,,,,,,,,
,,,,,,,,
,Littlebrook Drive,,Santa Clara,,,,510-28-005,
211,West Hill Drive,Los Gatos,Santa Clara,,,,,
815,Patrol Road,Woodside,,,,,,
16174,Highland Drive,San Jose,,,,,,
184,Fir Street,San Carlos,,,,,,
561,Montwood Circle,Redwood City,,,,,,
19403,Redberry Drive,Los Gatos,Santa Clara,,,,,
,,,,,,,,
20095,Orchard Meadow Drive,Saratoga,Santa Clara,,,,,
,Brackney Road,,Santa Cruz,,,,072-221-10,
300,Windsor Drive,San Carlos,,,,,,
23541,Skyview Terrace,,Santa Cruz,,,,096-311-38,
,,,,,,,,
21771,Heber Way,Saratoga,Santa Clara,,,,,
21771,Heber Way,Saratoga,Santa Clara,,,,,
98,Madera,San Carlos,,,,,,
12105,Oak Park Court,Los Altos Hills,,,,,,
3210,Alexis Drive,Palo Alto,,,,,182-54-008,
51,Crescent Drive,Palo Alto,,,,,,
,,,,,,,,
15555,On Orbit Drive,Saratoga,Santa Clara,,,,,
,,,,,,,,
25509,Freezeout Road,Duncan Mills,,,,,,
1753,Los Altos Drive,San Mateo,San Mateo,,,,,
2463,Rancho View Court,San Jose,Santa Clara,,,,,
90,Vasquez Avenue,San Francisco,San Francisco,,,,,
18086,Idalyn Drive,Los Gatos,Santa Clara,,,,,
5502,Sunset Hills Court,San Jose,Santa Clara,,,,,
21225,Stagecoach Road,,Santa Cruz,,,,,
,,,,,,,,
,East King Avenue,Fremont,Alameda,,,,,
,East King Avenue,Fremont,Alameda,,,,,
,East King Avenue,Fremont,Alameda,,,,,
3111,Promontory Way,San Jose,Santa Clara,,,,,
,,,,,,,,
15965,Forest Hill Drive,Boulder Creek,Santa Cruz,,,,,
1566,Llagas Road,Morgan Hill,,,,,,
345,Swett Road,,San Mateo,,,,,
1770,Jarvis Road,,Santa Cruz,,,,,
22561,Old Santa Cruz Highway,Unincorporated,Santa Clara,,,,,
470,Old Up Yonder Road,Unincorporated,Santa Cruz,,,,101-101-01,
599,40th Avenue,San Francisco,San Francisco,,,,,
10500,Creston Drive,Los Altos,,,,,,
21127,Bank Mill Road,Saratoga,Santa Clara,,,,,
490,Summit Spring Road,Woodside,,,,,,
,,,,,,,,
18300,Vista Grande Way,Los Gatos,Santa Clara,,,,,
1195,Eaglehill Road,,Monterey,,,,117-421-053,
19505,Via Monte,Saratoga,Santa Clara,,,,,
566,Miramar Drive,Half Moon Bay,,,,,,
3330,Calaveras Road,Milpitas,,,,,,
,,,,,,,,
12000,Moody Springs Court,Los Altos Hills,,,,,,
,,,,,,,,
247,Bonita Road,,San Mateo,,,,,
4167,King Arhur Ct.,Palo Alto,,,,,,
,,,,,,,,
18690,Blythswood Drive,Los Gatos,Santa Clara,,,,,
20140,Orchard Meadow Drive,Saratoga,Santa Clara,,,,,
20140,Orchard Meadow,Saratoga,Santa Clara,,,,,
3994,Claitor Way,San Jose,Santa Clara,,,,,
30,Brooks Court,Hillsborough,,,,,,
,Helen Way,,Santa Clara,,,,544-39-088,
,,,,,,,,
12897,Viscaino Place,Los Altos Hills,,,,,,
,,,,,,,,
84,Marymont Avenue,Atherton,,,,,,
2222,Terra Nova,San Jose,Santa Clara,,,,,
948,Emory Street,San Jose,Santa Clara,,,,,
,Bent Avenue,Campbell,Santa Clara,,,,,
525,Alma Street,Palo Alto,,,,,,
,,,,,,,,
12900,Tripoli Court,Los Altos Hills,,,,,,
7509,Dumas Drive,Cupertino,Santa Clara,,,,,
465,La Fonda Avenue,Santa Cruz,,,,,,
2400,Carlmont Drive,Belmont,,,,,,
,,,,,,,,
15200,Blue Gum Court,Saratoga,Santa Clara,,,,,
4716,Mendoza Avenue,San Jose,Santa Clara,,,,,
3230,Valley View Court,Morgan Hill,Santa Clara,,,,,
167,Lake Road,Portola Valley,San Mateo,,,,,
21288,Bertram Road,San Jose,Santa Clara,,,,,
2701,Witheridge Road,Belmont,,,,,,
,Lands End Apartment Complex,Pacifica,,,,,,
Lot 12,Long Ridge Road,,Santa Cruz,,,,,
15864,Alta Vista Way,San Jose,Santa Clara,,,,,
15864,Alta Vista Way,San Jose,Santa Clara,,,,,
,,,,,,,,
10029,Rose View Drive,San Jose,Santa Clara,,,,,
,Winchester & Hamilton,Campbell,Santa Clara,,,,,
,,,,,,,,
7,Acacia Lane,,Santa Clara,,,,,
30,Brooke Court,Hillsborough,,,,,,
,,,,,,,,
139,Vista Del Grande,San Carlos,,,,,,
121,Regent Drive,Los Gatos,Santa Clara,,,,,
18967,Saratoga Glen Place,Saratoga,Santa Clara,,,,,
24736,Soquel/San Jose Road,Los Gatos,Santa Cruz,,,,096-211-09,
,,,,,,,,
134,Nelli Lane,Boulder Creek,Santa Cruz,,,,,
18485,Withey Road,Monte Sereno,Santa Clara,,,,,
,,,,,,,,
4832,Lakebird Place,San Jose,Santa Clara,,,,,
,,Atherton,San Mateo,,,,,
915,Rock Canyon Circle,San Jose,Santa Clara,,,,,
3786,Quimby Road,San Jose,CA,,,,,
,,,San Mateo,,,,,
18951,Saratoga Glen Place,Saratoga,Santa Clara,,,,,
,Steinburgh Court,San Jose,Santa Clara,,,,,
,Lariat Lane,San Jose,Santa Clara,,,,"595-20-059, 061, 065",
52,Oakridge Street,Watsonville,,,,,,
10701,Dormar Court,San Jose,Santa Clara,,,,,
2301,15th Avenue,San Francisco,San Francisco,,,,,
,,,,,,,,
3552,Vista Del Valle,San Jose,Santa Clara,,,,,
2612-2614,Hallmark Drive,Belmont,,,,,,
,,San Jose,,,,,,
,,Mountain View,,,,,,
4363,Branciforte Drive,,Santa Cruz,,,,101-041-05,
,1190 Baer  Gulch Road,Woodside,San Mateo,,,,,
6824,Elwood Road,San Jose,Santa Clara,,,,,
1531,York Avenue,San Mateo,San Mateo,,,,,
146,Jackson Street,Los Gatos,Santa Clara,,,,,
22719,Mercedes Road,Cupertino,Santa Clara,,,,,
144,Los Trancos Circle,Portola Valley,,,,,,
15,Hawthorne Way,San Jose,Santa Clara,,,,,
10188,Ridgeway Drive,Cupertino,Santa Clara,,,,,
25700,Adams Road,Los Gatos,Santa Clara,,,,,
,,,,,,,,
1410,Alexander Valley Road,Healdsburg,Sanoma,,,,,
117,Broadway Road,Los Gatos,Santa Clara,,,,,
227,S. Clarement Avenue,San Jose,Santa Clara,,,,,
,,,,,,,,
,Hester Creek Road,,Santa Cruz,,,,097-231-43,
440,Commercial Avenue,S. San Francisco,San Francisco,,,,,
10195,Cinnibar Hills Road,,Santa Clara,,,,,
5226,El Mercado Parkway,Santa Rosa,Sonoma,,,,,
5226,El Mercado Parkway,Santa Rosa,Sonoma,,,,,
6235,Clayton Road,Turlock,Stanislau,,,,,
599,40th Avenue,San Francisco,San Francisco,,,,,
,,,,,,,,
,"Tank site, Panorama Heights Rd",,Santa Clara,,,,,
21865,/21857 Mesa Grande Terrace,Villa Grande,Mendocino,,,,,
,North Polo Drive,,",23,19,18 Santa Cruz",,,,"041-191-33,34,22",
,Skyview Terrace,,Santa Cruz,,,,096-334-07,
10,Snowberry Lane,Orinda,,,,,,
121,Glen Ridge Avenue,Los Gatos,,,,,,
,,,,,,,,
2824,Brittan Avenue,San Carlos,,,,,,
3289,Terre Cotta Drive,San Jose,Santa Clara,,,,,
383,Walsh Road,Atherton,,,,,,
23490,Mt. Eden Road,Saratoga,Santa Clara,,,,,
,,San Jose,Santa Clara,,,,595-20-059,
,,San Jose,Santa Clara,,,,595-20-061,
310/320,Esplanade,Pacifica,,,,,,
,Recreation Drive,,San Mateo,,,,83-080-060,
,,,,,,,,
,,Santa Rosa,Sonoma,,,,,
17601,Hicks Road,,Santa Clara,,,,,
,,,Santa Cruz,,,,,
14944,Castroville Boulevard,,Monterey,,,,,
242,San Benencio Road,Salinas,,,,,,
2446,Lake Boulevard,Redwood City,,,,,,
14671,tri,San Jose,Santa Clara,,,,,
,,,,,,,,
,,,,,,,,
,,San Jose,,,,,,
,Lanfair Avenue,San Jose,Santa Clara,,,,,
,,,,,,,,
3786,Quimby Road,San Jose,Santa Clara,,,,,
511,Chesley Court,Mountain View,,,,,,
1514,Fall Avenue,San Jose,Santa Clara,,,,,
,,,,,,,,
128,Whitney Avenue,Los Gatos,Santa Clara,,,,,
,Great Mall Drive,Milpitas,Santa Clara,,,,,
4654,Symphony Lane,San Jose,Santa Clara,,,,,
2400,Durham Road,Fremont,,,,,,
,,,,,,,,
4,Grove Court,Portola Valley,San Mateo,,,,,
,,,,,,,,
,,,,,,,,
17341,El Rancho Avenue,Monte Sereno,,,,,,
68,Mulberry Lane,Atherton,,,,,,
,,,,,,,,
,,Los Gatos,Santa Clara,,,,,
15,Aliso Way,Portola Valley,San Mateo,,,,,
8,Montecito,Woodside,San Mateo,,,,,
,,,,,,,,
3994,Claitor Way,San Jose,Santa Clara,,,,,
845,Franklin Street,Unincorporated,San Mateo,,,,,
13145,New Avenue,San Martin,Santa Clara,,,,,
17800,Navajo Trail,Unincorporated,Santa Clara,,,,,
416,Loma Prieta Dr,Aptos,,,,,,
8355,Empire Grade Road,Unincorporated,Santa Cruz,,,,080-174-26,
1495,Shaffer Drive,San Jose,Santa Clara,,,,,
240,Reynolds Drive,,Santa Clara,,,,087-081-18,
,,,,,,,,
274,Webster Drive,Ben Lomond,,,,,,
6574,Woodcliff Court,San Jose,Santa Clara,,,,,
10655,Eloise Circle,Los Altos Hills,,,,,,
,,,,,,,,
1096,Cameo Drive,Campbell,Santa Clara,,,,,
406,Belmont Avenue,San Jose,Santa Clara,,,,,
24740,Olive Tree Lane,Los Altos Hills,,,,,,
761,Loma Prieta Drive,Aptos,Santa Cruz,,,,,
5501,Copeland Court,San Jose,Santa Clara,,,,,
17545,Paso Carnello,Los Gatos,Santa Clara,,,,,
,,,,,,,,
,,,,,,,,
,,,,,,,,
,Day Valley Road,,Santa Cruz,,,,105-202-14,
Lot 6,Tract 6514; Kennedy Road,Los Gatos,Santa Clara,,,,,
,,,,,,,,
1,Borden,Moss Beach,,,,,,
,,,,,,,,
,,,,,,,,
30,Patrol Court,Woodside,,,,,,
30,Patrol Court,Woodside,CA,,,,,
30,Patrol Ct,Woodside,,,,,,
3460,Sierra Road,San Jose,Santa Clara,,,,,
,Highway 99,Modesto,Stanislaus,,,,,
,Soda Springs Road,Unincorporated,Santa Clara,,,,,
4,Honeysuckle Lane,San Carlos,,,,,,
1,Poppy Lane,San Carlos,San Mateo,,,,,
28221,Christopher Lane,Los Altos,,,,,,
11244,Mt. Crest Place,Cupertino,Santa Clara,,,,,
44,Campo Pelota,Diablo,,,,,,
,,,,,,,,
95,Lilly Way,Watsonville,Santa Cruz,,,,,
,,,,,,,,
5992,Starwood Drive,San Jose,Santa Clara,,,,,
17863,Ogallala Warpath Road,,Santa Clara,,,,,
152,Oak Hill Way,Los Gatos,Santa Clara,,,,,
2786,Gardendale Drive,San Jose,Santa Clara,,,,,
316,Balch Way,,Santa Cruz,,,,072-181-02,
22635,Lago Vista,,Santa Clara,,,,708-47-31,
2311,Saidel Drive #1,San Jose,Santa Clara,,,,,
,Los Cerros Road,Paloma Park,San Mateo,,,,,
7,Lloyd Lane,Orinda,Contra Costa,,,,,
,,Morgan Hill,Santa Clara,,,,,
240,Brookwood Road,Woodside,,,,,069-032-060,
3420,Oakwood Court,Morgan Hill,,,,,,
24936,Lincoln Lane,Carmel,,,,,,
3385,Hagen Road,Napa,,,,,,
14494,Nutwood Lane,Saratoga,Santa Clara,,,,,
23644,Mtn. Charlie Road,,Santa Cruz,,,,,
,Los Cerros Road,Redwood City,,,,,,
1111,Parrot drive,San Mateo,San Mateo,,,,,
605,Cathedral Drive,Aptos,Santa Cruz,,,,,
1089,Cottonwood Creek,San Jose,Santa Clara,,,,,
26755,Adams Road,Unincorporated,Santa Cruz,,,,,
24900,Highland Way,,Santa Cruz,,,,,
34580,Palomares Road,Castro Valley,,,,,,
22217,Mt. Eden Road,Saratoga,Santa Clara,,,,,
,,,,,,,,
365,Alamos,Portola Valley,,,,,,
265,Roquena,La Honda,,,,,,
,,,,,,,,
,,Emerald Hills,,,,,,
,S. F. Creek levee,,San Mateo,,,,,
15940,Overlook Drive,,Santa Clara,,,,,
21095,Old Well Road,,Santa Clara,,,,,
145,Arboleda Way,Ben Lomond,,,,,,
24065,Ravensbury,Los Altos Hills,,,,,,
850,Juliet Avenue,San Jose,Santa Clara,,,,,
3875,Woodside Road`,Woodside,,,,,,
18571,Withey Road,Monte Sereno,,,,,,
,Jonathan Way,Unincorporated,Santa Cruz,,,,,
,,Saratoga,,,,,,
,Alta Vista Road,Montara,,,,,,
17941,Ogallala Warpath,Unincorporated,Santa Clara,,,,,
,,,,,,,,
15139,Park Drive,Saratoga,Santa Clara,,,,,
1285,Westridge Drive,Portola Valley,,,,,,
13485,Villa Oaks Lane,Saratoga,Santa Clara,,,,,
1859,Esberg Road,Los Altos,,,,,,
27269,Byrne Park Lane,Los Altos Hills,,,,,,
2900,McKillup Road,Oakland,Alameda,,,,,
,,,,,,,,
134,Willowcreek Street,Watsonville,Santa Cruz,,,,,
550,Hillmar Street,,,,,,,
,McGill Road,Unincorporated,Santa Clara,,,,,
23670,Camino Hermoso Road,Los Altos Hills,,,,,,
,,,,,,,,
1960,Anzar Road,,San Benito,,,,,
1168,Nikette Way,San Jose,Santa Clara,,,,,
1726,Peregrino Way,San Jose,Santa Clara,,,,429 45 036/037,
,,Palo Alto,Santa Clara,,,,,
6979,Hollow Lake Way,San Jose,Santa Clara,,,,,
16040,Redwood Lodge Road,Los Gatos,Santa Clara,,,,,
271,Gabarda Way,,San Mateo,,,,"77,132,030",
29360,Loma Prieta Way,,Santa Cruz,,,,106 01 044,
,,,,,,,,
250,Crook Road,Los Gatos,Santa Clara,,,,,
7180,Hawk Court,San Jose,Santa Clara,,,,,
,,,Santa Clara,,,,742 04 017,
4137,Pepper Tree Lane,San Jose,Santa Clara,,,,,
13485,Villa Oaks Lane,Saratoga,Santa Clara,,,,,
Lot 307,Inspiration Heights,Cupertino,Santa Clara,,,,,
,,,,,,,,
Lot 307,Inspiration Heights,Cupertino,,,,,,
901,Andover Way,Los Altos,,,,,,
5301,Olstad Ct,San Jose,Santa Clara,,,,,
18527,Twin Creeks Road,Monte Sereno,Santa Clara,,,,,
3686,McNulty Way,Redwood City,,,,,,
20411,Kent Way,Los Gatos,Santa Clara,,,,,
,,,,,,,,
,,,,,,,,
,,,,,,,,
,,,,,,,,
1021,Elmwood Ct,Los Gatos,Santa Clara,,,,,
100,Woodland Vistga,La Honda,,,,,,
18505,Castle Ridge Dr,Morgan Hill,,,,,,
106,Central Avenue,Los Gatos,Santa Clara,,,,,
,,,,,,,,
1121,Olive Branch Lane,San Jose,Santa Clara,,,,,
2785,Toro Vista Ct,Morgan Hill,Santa Clara,,,,,
1030,Bearch Gulch Road,Woodside,,,,,"72,240,160",
17819,Tourney Road,Los Gatos,Santa Clara,,,,,
536,Weybridge Drive,San Jose,Santa Clara,,,,,
3430,Kohler Road,San Jose,Santa Clara,,,,,
47,Alpine Avenue,Los Gatos,Santa Clara,,,,,
,,,,,,,,
,Valencia Road,Aptos,,,,,041-07-205,
10301,Ashdale Drive,San Jose,Santa Clara,,,,,
Lot33,Suncrest Avenue,San Jose,Santa Clara,,,,,
,,Santa Clara,,,,,,
374,Madison Drive,San Jose,Santa Clara,,,,,
24230,Glenwood Drive,Los Gatos,Santa Cruz,,,,,
24230,Glenwood Drive,Los Gatos,Santa Cruz,,,,,
3820,Dove Hill Road,San Jose,Santa Clara,,,,,
324,Heath Street,Milpitas,Santa Clara,,,,,
21145,Bank Mill Way,Saratoga,,,,,,
2339,Bentley Ridge Drive,San Jose,Santa Clara,,,,,
3645,Sierra Road,San Jose,Santa Clara,,,,,
47800,Pfeiffer Ridge Road,Big Sur,,,,,"419,211,032",
761,Loma Prieta Drive,Aptos,,,,,,
23502,Sky View Terrace,,Santa Cruz,,,,,
,Kings Highway,,Santa Cruz,,,,086 171 63,
520,Conservancy Loop,,Santa Cruz,,,,100 181 01,
21857,Mesa Grande Terrace,Villa Grande,,,,,,
18,Arch Lane,San Carlos,,,,,,
17230,Deer Park Road,Los Gatos,Santa Clara,,,,,
165,Windsong Way,,Santa Cruz,,,,049 142 73,
,Larkin Vista Lane,Watsonville,Santa Cruz,,,,049 121 49,
14966,Terreno De Flores Lane,Los Gatos,Santa Clara,,,,,
686,Ocean Blvd,Moss Beach,,,,,,
24915,Soquel-San Jose Road,Los Gatos,Santa Cruz,,,,,
145,Arboleda Way,Ben Lomond,,,,,,
14631,Clayton Road,San Jose,Santa Clara,,,,,
,,,,,,,,
620,Berkley Avenue,Menlo Park,,,,,,
,,,,,,,,
15655,El Gato Lane,Los Gatos,Santa Clara,,,,,
1603,Carmel Drive,San Jose,Santa Clara,,,,,
2388,Ruby Avenue,San Jose,Santa Clara,,,,,
200,Willowbrook Drive,Portola Valley,,,,,,
220,Morgans Run,Scotts Valley,,,,,,
437,Hyland Drive,,Monterey,,,,,
,Merritt & Pool Streets,,Monterey,,,,,
138,Ramosa Road,Portola Valley,,,,,,
,,,,,,,,
1642,Juanita Avenue,San Jose,Santa Clara,,,,,
135,Russell Avenue,Portola Valley,,,,,,
,,Victorville,San Bernadino,,,,,
35 Adair,,Portola Valley,,,,,,
3758,Rosemar Avenue,San Jose,Santa Clara,,,,,
1028,Lakeview Way,,San Mateo,,,,,
136,Belcrest Drive,Los Gatos,Santa Clara,,,,,
6423,Pelham Ct,San Jose,Santa Clara,,,,,
26181,Loma Prieta Way,,Santa Cruz,,,,,
,Eureka Canyon Rd,,Santa Cruz,,,,,
,,Cupertino,,,,,,
151,Mary Beth Court,Fremont,,,,,,
6050,Scenic Meadow Lane,San Jose,Santa Clara,,,,,
,Mohr Ave & Kamp Drive,Pleasanton,,,,,,
007/ 008,Bella Madeira Lane,,Santa Clara,,,,,
13410,Old Oak Way,Saratoga,Santa Clara,,,,,
,,,Santa Cruz,,,,096-334-11,
,Cinnabar Hills Road,,Santa Clara,,,,742-04-014,
,,,,,,,,
,,,,,,,,
101,Kensington Road,Kensington,Alameda,,,,,
265,Eleanor Drive,Woodside,,,,,,
10137,Miquelita Road,,Santa Clara,,,,,
,,,,,,,,
23630,Skyview Terrace,,Santa Cruz,,,,,
94,Sir Francis Drake Boulevard,Ross,,,,,,
56,Lawrence Avenue,Watsonville,,,,,,
38,Mountain View Road,,Santa Cruz,,,,050-588-0535,
,Spyglass Hill Road,,,,,,,
100,Esplanada Avenue,Pacifica,,,,,,
15865,Miradero Avenue,San Jose,Santa Clara,,,,,
,,,,,,,,
2909,Penitencia Creek Road,San Jose,Santa Clara,,,,,
18694,Carriage Hill Drive,San Jose,Santa Clara,,,,,
,,,,,,,,
1116,Falcon Knoll Court,San Jose,Santa Clara,,,,,
11339,Eastbrook Avenue,Los Altos Hills,,,,,,
3837,Glen Haven Road,Soquel,,,,,,
16173,Roseleaf Lane,Los Gatos,Santa Clara,,,,,
260/266,Club Drive,San Carlos,,,,,,
235,South First Street,Campbell,Santa Clara,,,,,
19101,Laurel Drive,,Santa Clara,,,,544-11-025 & 026,
145,Kennedy Avenue,Campbell,Santa Clara,,,,,
7515/'25,Monterey Road,Gilroy,,,,,799-06-051/052,
168,Kensington Way,Los Gatos,Santa Clara,,,,,
5668,San Felipe Road,San Jose,Santa Clara,,,,660-07-012-00,
13375,Clayton Road,San Jose,Santa Clara,,,,,
544,Columbia Avenue,San Jose,Santa Clara,,,,,
,Surmont Court,Aromas,Santa Clara,,,,,
120,Deer Ridge Place,Danville,Contra Costa,,,,,
105,Redwood Drive,La Honda,,,,,,
812,Senda Ladera,Larkins Valley,Santa Cruz,,,,49-101-31,
,Day Valley Road,,Santa Cruz,,,,,
481,Hazel Dell Heights,Watsonville,,,,,,
4387,Piedmont Avenue,Oakland,Alameda,,,,,
3418,Gila Drive,San Jose,,,,,,
107,Colorado Court,Los Gatos,,,,,,
,,,,,,,,
,Pedro View Road,,Santa Clara,,,,,
200,Valencia Drive,Millbrae,,,,,,
168,Jackson Street,Los Gatos,Santa Clara,,,,,
383,Walsh Road,Atherton,,,,,,
121,Regent Drive,Los Gatos,Santa Clara,,,,,
531,Hillman Street,Santa Clara,Santa Clara,,,,,
8000,Cinnabar Hills Road,San Jose,Santa Clara,,,,742-02-022,
,,,,,,,,
,,,,,,,,
1265,*9 Valley Drive,San Jose,Santa Clara,,,,,
,,,,,,,,
744,El Sombroso Drive,San Jose,,,,,,
1148,Lindy Place,Cupertino,Santa Clara,,,,,
,,,,,,,,
22215,Mt. Eden Road,Saratoga,Santa Clara,,,,,
,,Boulder Creek,,,,,,
882,Morse Street,San Jose,Santa Clara,,,,,
,,,,,,,,
1261,Kaylene Drive,San Jose,Santa Clara,,,,,
3255,Sueno Drive,San Jose,Santa Clara,,,,,
212,Edgewood Avenue,San Francisco,San Francisco,,,,,
707,,Palo Alto,,,,,,
,,San Jose,,,,,,
16,Sky Meadow Lane,Scotts Valley,,,,,,
447,Whiskey Hill Road,Woodside,,,,,,
,,Unincorporated,Contra Costa,,,,,
22040,Mt. Eden Road,Saratoga,Santa Clara,,,,,
2511,Park Road,Emerald Hills,San Mateo,,,,,
22525,Rolling Hills Road,,Santa Clara,,,,,
23547,Sky View Terrace,Los Gatos,Santa Clara,,,,,
23547,Sky View Terrace,Los Gatos,Santa Clara,,,,,
10387,Aveneida Lane,Cupertino,Santa Clara,,,,,
136,Russell Avenue,Portola Valley,,,,,,
230,Prairie Dog Lane,Fremont,Alameda,,,,,
14070,Arcadia Palms Drive,Saratoga,Santa Clara,,,,,
101,Teresita Way,Los Gatos,Santa Clara,,,,,
21780,Heber Way,Saratoga,Santa Clara,,,,,
20851,Assiniboine Trail,,Santa Clara,,,,558-17-046,
220,13th Avenue,Santa Cruz,Santa Cruz,,,,,
,,Woodside,,,,,,
14225,Lora Drive,Los Gatos,Santa Clara,,,,,
16179,Camellia Terrace,Los Gatos,Santa Clara,,,,523-18-038,
150,Reef Point Road,Moss Beach,,,,,,
,,,,,,,,
15000,Pierce Road,Unincorporated,Santa Clara,,,,,
12590,Miraloma Way,Los Altos Hills,Santa Clara,,,,,
22641,Mt. Eden Road,Saratoga,Santa Clara,,,,,
4887,Arlene Place,Pleasanton,Alameda,,,,,
240,Azalea Avenue,Ben Lomond,,,,,,
35,Anquido Court,Hillsborough,,,,,,
10605,Santa Teresa Blvd,Gilroy,,,,,,
25017,Soquel/San Jose Road,,Santa Cruz,,,,,
45520,Otter Point Circle,Mendocino,Mendocino,,,,,
726,Jacaranda Circle,Hillsborough,,,,,,
,,,,,,,,
1400,Welburn Avenue,Gilroy,,,,,,
6042,Guadalupe Mines Court,San Jose,Santa Clara,,,,,
131,Lynette Drive,Aptos,Santa Cruz,,,,,
Skyview Te,Rosita Road,Los Gatos,,,,,,
,,,,,,,,
,,Los Gatos,,,,,,
643,Albion Drive,San Jose,Santa Clara,,,,,
57,Fairview Plaza,Los Gatos,Santa Clara,,,,,
56,Hernandez,Los Gatos,Santa Clara,,,,,
385,Anita Avenue,Los Altos,Santa Clara,,,,,
27820,Saddle Court,Los Altos Hills,,,,,,
1,Happy Hollow Lane,Boulder Creek,,,,,,
1259,Albion Lane,Sunnyvale,Santa Clara,,,,,
240,Azalea Avenue,Ben Lomond,Santa Cruz,,,,,
,,,,,,,,
145,Canada Vista,La Honda,,,,,,
15,Sunset Lane,Menlo Park,,,,,,
,,,,,,,,
23489,Hutchinson Road,Los Gatos,Santa Clara,,,,,
,,,,,,,,
211,Kent Road,Pacifica,San Mateo,,,,,
,,,,,,,,
17650,Kilkenny Road,Los Gatos,Santa Clara,,,,,
3375,Oswego Court,Lafayette,Contra Costa,,,,,
1865,Farragut Lane,Los Gatos,Santa Clara,,,,,
171,Birth Street,Redwood City,,,,,,
3628,Vista Del Valle,San Jose,Santa Clara,,,,,
450,Marty Road,Los Gatos,Santa Clara,,,,096-011-32,
20001,Almaden Road,San Jose,Santa Clara,,,,,
,,,,,,,,
5668,San Felipe Road,San Jose,Santa Clara,,,,,
,,Cupertino,,,,,,
271,Garbarda Way,Portola Valley,San Mateo,,,,,
1360,Elder Avenue,Menlo Park,San Mateo,,,,,
,,,,,,,,
22821,Mercedes Road,Cupertino,Santa Clara,,,,,
4090,Uellowstone Drive,San Jose,Santa Clara,,,,,
,,Monte Sereno,Santa Clara,,,,,
1411,Hunter Creek Drive,Patterson,,,,,,
,,San Jose,Santa Clara,,,,,
18508,Vina Drive,Los Gatos,Santa Clara,,,,,
333,McKinzie Drive,Santa Clara,Santa Clara,,,,,
21964,Gillette Drive,Los Gatos,Santa Clara,,,,,
25960,Estacada,Los Altos,,,,,,
317,Curie Drive,San Jose,Santa Clara,,,,,
15815,Shannon Road,Los Gatos,Santa Clara,,,,,
21518,Saratoga Heights Drive,Saratoga,Santa Clara,,,,,
3235,Oak View Lane,Morgan Hill,Santa Clara,,,,,
681,Pamlar Avenue,San Jose,Santa Clara,,,,,
,Little Uvas Road,,Santa Clara,,,,,
14830,Foothill Avenue,Morgan Hill,Santa Clara,,,,,
,,,,,,,,
3160,Oak Leaf Court,Morgan Hill,Santa Clara,,,,,
,,,,,,,,
16266,Roseleaf Lane,Los Gatos,Santa Clara,,,,,
567,Price Street,Daly City,,,,,,
248,Jared Lane,Los Gatos,Santa Clara,,,,,
3,Oak Forest Court,Portola Valley,,,,,,
6082,Almaden Expressway,San Jose,Santa Clara,,,,,
,,,,,,,,
21329,Diamond Oaks Court,Saratoga,Santa Clara,,,,,
,,,,,,,,
14900,Shannon Road,,Santa Clara,,,,,
21348,Maria Lane,Saratoga,Santa Clara,,,,,
15548,Kavin Lane,Monte Sereno,Santa Clara,,,,,
,,,,,,,,
234,Prestona Avenue,Santa Cruz,Santa Clara,,,,,
20076,Memdelsohn,Saratoga,Santa Clara,,,,,
,,,Santa Clara,,,,,
121,Brookside Drive,Portola Valley,,,,,,
19521,Manzanita Drive,,Santa Clara,,,,,
490,S. Willard Ave,San Jose,Santa Clara,,,,277-19-002,
700,Patrol Road,Woodside,,,,,,
16250,Camillia Terrace,Los Gatos,Santa Clara,,,,,
,,,,,,,,
14680,Wuito Road,Los Gatos,Santa Clara,,,,,
,,Sacramento,,,,,,
16332,E. LaCriquita Ave,San Jose,Santa Clara,,,,,
921,La Mesa Drive,Portola Valley,,,,,,
21100,Saratoga Hills Road,Saratoga,Santa Clara,,,,,
2560,Cypress Ridge Avenue,,Santa Clara,,,,,
,,,,,,,,
5360,Vicenza Way,San Jose,Santa Clara,,,,,
,,,,,,,,
1484,Japaul Lane,San Jose,Santa Clara,,,,,
,,,,,,,,
17880,Andrews Street,Monte Sereno,Santa Clara,,,,,
Lot D,Bella Madeira Lane,,Santa Clara,,,,,
8050,La Honda Road,,San Mateo,,,,,
,,,,,,,,
10195,Cinnabar HillsRoad,,Santa Clara,,,,742-03-016,
27800,Central Drive,Los Altos Hills,,,,,,
455,Vallejo,San Francisco,San Francisco,,,,,
5472,Laura Drive,San Jose,Santa Clara,,,,,
,,,,,,,,
26776,Almaden Court,Los Altos Hills,,,,,,
,,Hayward,,,,,,
24620,Miller Hill Road,,Santa Cruz,,,,,
25000,Oneonta Drive,Los Altos Hills,,,,,,
,Brush Road,Los Gatos,Santa Clara,,,,,
,,,,,,,,
,,,,,,,,
5714,Sacony Court,San Jose,Santa Clara,,,,,
15980,Matilija Drive,Monte Sereno,,,,,,
,,,,,,,,
,,,,,,,,
,,,,,,,,
,,,,,,,,
16497,Eugenia Way,Los Gatos,Santa Clara,,,,,
158,Richardso Drive,Mill Valley,,,,,,
25890,Adams Road,,Santa Cruz,,,,,
24764,Soquel San Jose Road,,Santa Cruz,,,,096-211-10,
6025,Calle De Suerte,San Jose,Santa Clara,,,,,
1777,Lucca Place,San Jose,Santa Clara,,,,,
3199,Everdale Drive,San Jose,Santa Clara,,,,,
271,Garbarda Way,,San Mateo,,,,,
370,Conil Way,,San Mateo,,,,,
910,Bern Court,San Jose,Santa Clara,,,,,
,,,,,,,,
1642,Juanita Avenue,San Jose,Santa Clara,,,,,
,,,,,,,,
,,,,,,,,
14324,Clayton Road,San Jose,Santa Clara,,,,,
0,Bertram Road,,Santa Clara,,,,,
262,Myrtle (and 271 Nevada),Redwood City,,,,,,
247,Jones Road,Los Gatos,,,,,,
16417,Peacock Lane,Los Gatos Hills,Santa Clara,,,,,
,,Los Gatos,,,,,,
667,Apache Court,San Jose,Santa Clara,,,,,
,,,,,,,,
22275,Canyon View Circle,Cupertino,Santa Clara,,,,,
,,,,,,,,
17514,Phillips Ave,Los Gatos,Santa Clara,,,,,
1850,Wharf Road,Capitola,Santa Cruz,,,,,
,,Los Gatos,Santa Clara,,,,,
47544,Avalon Heights Terrace,Fremont,,,,,,
,,,,,,,,
14174,Liddicoat Drive,Los Altos Hills,,,,,,
27836,Elena Road,Los Altos Hills,,,,,,
,,,,,,,,
114,Willowcreek Street,Watsonville,Santa Cruz,,,,,
,Central & 8th Street,Pacific Grove,,,,,,
,,,,,,,,
18091,Idalyn Drive,,Santa Clara,,,,,
,,,San Luis Obispo,,,,,
3911,Luneta Court,San Jose,Santa Clara,,,,462-06-022,
15452,El Camino Grande,Saratoga,Santa Clara,,,,,
22255,Canyon View Circle,Cupertino,Santa Clara,,,,,
16904,Sheldon Road,,Santa Clara,,,,,
22450,Summit Road,Los Gatos,Santa Clara,,,,,
15970,Flintlock Road,Cupertino,Santa Clara,,,,351-32-006,
,,,,,,,,
20855,Kittridge Rd,Saratoga,Santa Clara,,,,,
26870,Moody Road,Los Altos Hills,,,,,,
2438,Ruby Avenue,San Jose,Santa Clara,,,,,
1031,Princeton Avenue,Modesto,,,,,,
3978,Star Ridge Road,Hayward,Alameda,,,,,
,,,,,,,,
1850,Wharf Road,Capitola,Santa Cruz,,,,,
1265,Echo Valley Drive,San Jose,Santa Clara,,,,,
,,,,,,,,
13065,Bell Road,,Santa Cruz,,,,093-011-41,
,,,,,,,,
170,Recreation Drive,La Honda,,,,,,
1223,Terra Nova Blvd,Pacifica,,,,,,
2160,Oakley Avenue,Menlo Park,,,,,,
,,,,,,,,
12553,Parker Ranch Court,Saratoga,Santa Clara,,,,,
2112,Old Page Mill Road,Palo Alto,,,,,,
,,Ukiah,,,,,,
5525,Sunspring Circle,San Jose,Santa Clara,,,,,
205,Cuesta Real,,San Mateo,,,,,
205,Cuesta Real,La Honda,San Mateo,,,,,
100,Olive Springs Road,,Santa Cruz,,,,103-181-13,
15499,Bohlman Road,Saratoga,Santa Clara,,,,,
1,Memory Lane,La Honda,,,,,,
6585,Rolling Oaks Drive,San Jose,Santa Clara,,,,,
7225,Longhill Way,San Jose,Santa Clara,,,,,
2735,Concord Way,San Bruno,,,,,,
131,Fox Hollow Road,Woodside,,,,,,
,,,,,,,,
20961,Canyon View Drive,Saratoga,Santa Clara,,,,,
19995,Graystone Lane,San Jose,Santa Clara,,,,,
100/106,Mountain View Rd.,Watsonville,,,,,050-341-04,
,Saratoga Hills Rd,Saratoga,Santa Clara,,,,503-29-068,
0,Harbor Court,San Jose,Santa Clara,,,,612-34-040,
,,,,,,,,
14065,Saratoga Ave,Saratoga,Santa Clara,,,,,
21454,Sarahills Court,Saratoga,Santa Clara,,,,,
109,Spreckles Avenue,Los Gatos,Santa Clara,,,,,
128,Santa Maria Avenue,Portola Valley,,,,,076-235-090,
1725,Edgebrook Dr #D,Modesto,,,,,,
7,Still Creek Road,Woodside,,,,,,
2032,Bishop Road,Belmont,,,,,,
19550,Littlebrook Drive,Los Fatos,Santa Clara,,,,,
150,Reef Point Road,Moss Beach,,,,,,
16227,Camellia Terrace,Los Gatos,Santa Clara,,,,523-18-041,
15995,Grandview Ave,Monte Sereno,,,,,,
22,Starwood Drive,Woodside,CA,,,,,
350,Allen Road,,San Mateo,,,,,
,,,,,,,,
,,,,,,,,
170,Knightshaven Way,San Jose,Santa Clara,,,,,
6473,Rainbow Dr.,San Jose,Santa Clara,,,,,
660,Manzanita Way,Woodside,,,,,,
660,Manzanita Way,Woodside,San Mateo,,,,,
104,Fancher Court,Los Gatos,Santa Clara,,,,,
223,Exeter Ave.,San Carlos,,,,,,
130,Belridge Drive,Los Gatos,Santa Clara,,,,,
18157,Wagner Road,,Santa Clara,,,,,
,,,,,,,,
,,,,,,,,
18157,Wagner Road,,Santa Clara,,,,,
,Nicks Road,,Santa Clara,,,,575-11-020,
,,,,,,,,
8861,Acorn Way,Gilroy,Santa Clara,,,,,
20,East 20th Avenue,San Mateo,San Mateo,,,,,
791,Willow Glen Way,San Jose,Santa Clara,,,,"434-31-022, 032, 033",
,,,,,,,,
405,Capitol Ave,Capitola,Santa Cruz,,,,,
,Higuera Rancho Road,,Santa Clara,,,,654-16-001,
3852,W. Naughton Ave,Belmont,,,,,,
17770,Tourney Road,,Santa Clara,,,,,
,,,,,,,,
1261,Kaylene Court,San Jose,CA,,,,,
1261,Kayline Ct,San Jose,Santa Clara,,,,,
102,Wideview Court,,Santa Clara,,,,,
8108,Bertram Road,San Jose,Santa Clara,,,,,
17986,Redwood Drive,,Santa Clara,,,,,
460,Santa Rosa Drive,Los Gatos,Santa Clara,,,,,
Lot33,Suncrest Avenue,San Jose,Santa Clara,,,,,
35,Vista Verde Way,,San Mateo,,,,,
,Noble Lane,San Jose,Santa Clara,,,,595-26-047,
10,Spiros Way,Menlo Park,,,,,,
1580,Capitancillos Drive,San Jose,Santa Clara,,,,,
120,Andeta Way,,San Mateo,,,,,
21660,Rainbow Court,Cupertino,Santa Clara,,,,,
16245,Greenridge Terr,Los Gatos,Santa Clara,,,,,
,,,,,,,,
,,,,,,,,
1197,Linda Vista Dr,Cupertino,Santa Clara,,,,356-26-023,
231,Vine Street,Menlo Park,,,,,,
206,Thoms Drive,Los Gatos,CA,,,,,
206,Thomas Drive,Los Gatos,Santa Clara,,,,,
192,Pecora Way,,San Mateo,,,,700-143-110,
,,,,,,,,
22263,N. DeAnza Circle,Cupertino,Santa Clara,,,,,
1126,Barnes Lane,San Jose,Santa Clara,,,,,
21085,Wardell Road,Saratoga,Santa Clara,,,,503-17-023,
21293,Cinnibar Hills Road,,Santa Clara,,,,,
5222,Henderson Court,Antioch,,,,,,
170,S. 17th Street,San Jose,Santa Clara,,,,,
150,Farm Road,Woodside,,,,,,
2033,"Gateway Place, Suite 502",San Jose,CA,,,,,
1172,Nevada Avenue,San Jose,,,,,,
3250,Jay Street,Santa Clara,Santa Clara,,,,,
11300,& 11312 Chula Vista Drive,,Santa Clara,,,,,
15175,Larocca Ct,Morgan Hill,Santa Clara,,,,,
1095,Dunsford Way,Sunnyvale,Santa Clara,,,,,
15658,Blossom Hill Road,San Jose,Santa Clara,,,,,
2146,Pasetta Drive,Santa Clara,Santa Clara,,,,,
261,Carlton Court,Los Gatos,Santa Clara,,,,,
201,Playa Boulevard,Watsonville,CA,,,,,
201,Playa Blvd,,Santa Cruz,,,,,
48431,Milmont Drive,Fremont,Alameda,,,,,
193,Bacigalupi Drive,Los Gatos,Santa Clara,,,,,
,Hwy 238 & Ashland Avenue,Hayward,Alameda,,,,,
,,,,,,,,
24600,Miller Hill Road,,Santa Cruz,,,,,
22273,N. DeAnza Circle,Cupertino,Santa Clara,,,,,
11650,Regnant Canyon Drive,Cupertino,Santa Clara,,,,,
5,Applewood Lane,Portola Valley,CA,,,,,
1836,Frobisher Way,San Jose,CA,,,,,
1836,Frobisher Way,San Jose,Santa Clara,,,,,
1836,Frobisher Way,San Jose,Santa Clara,,,,,
26776,Almaden Court,Los Altos Hills,Santa Clara,,,,,
183,Gramercy Place,San Anselmo,Santa Clara,,,,,
West of,14155 Arnerick Road,Los Gatos,Santa Clara,,,,537-11-033,
16,and 42 Santa Maria Avenue,Portola Valley,San Mateo,,,,,
,,,,,,,,
,,Woodside,,,,,,
1623,Canyon View Drive,San Jose,Santa Clara,,,,595-22-030,
104,Alerche Drive,Los Gatos,Santa Clara,,,,,
147,Pinon Drive,Portola Valley,San Mateo,,,,,
21142,Sarahills Drive,Saratoga,Santa Clara,,,,,
3823,Steinbaugh Court,San Jose,Santa Clara,,,,,
1978,Willow Springs Road,Morgan Hill,Santa Clara,,,,764-07-006,
1009,Capuchino Avenue,Burlingame,San Mateo,,,,,
3088,Alcazar Drive,Burlingame,San Mateo,,,,,
11335,Eastbrook Avenue,Los Altos,Santa Clara,,,,,
,Mission Boulevard,Fremont,Alameda,,,,507-0124-021-2,
,Cinnibar Hills Road,San Jose,Santa Clara,,,,742-04-014,
,Cinnabar Hills Road,Unincorporated,Santa Clara,,,,742-02-021,
17735,Cherokee Trail,Los Gatos,Santa Clara,,,,558-15-044,
3786,Quimby Road,Unincorporated,Santa Clara,,,,,
10258,Merkley Row,San Jose,Santa Clara,,,,,
,,San Jose,Santa Clara,,,,,
16330,South Kennedy Road,Los Gatos,Santa Clara,,,,532-19-023,
496,Valley View Drive,Los Altos,Santa Clara,,,,,
12441,Parker Ranch Road,Saratoga,Santa Clara,,,,,
4460,Freedom Boulevard,Aptos,Santa Cruz,,,,,
6261,Valroy Dive,San Jose,Santa Clara,,,,68-93-71-08,
14005,Center Avenue,San Martin,Santa Clara,,,,825-20-056,
3570,El Grande Drive,San Jose,Santa Clara,,,,,
10645,Cordova Road,Cupertino,Santa Clara,,,,,
16110,Matilija Driv e,Los Altos,Santa Clara,,,,510-23-009,
19450,Beardsley Road,Los Altos,CA,,,,,
10400,Miguelita Road,San Jose,Santa Clara,,,,612-08-054,
22891,Longdown Road,Cupertino,Santa Clara,,,,,
26970,Taaffe Road,Los Altos Hills,Santa Clara,,,,,
14300,Long Ridge Road,Los Gatos,Santa Clara,,,,,
15887,Ravine Road,Los Gatos,Santa Clara,,,,,
880,Sth Bascom Avenue,San Jose,Santa Clara,,,,,
3543,Meadlowlands Lane,San Jose,Santa Clara,,,,660-43-001,
13740,Pierce Road,Saratoga,Santa Clara,,,,,
,Pine Avenue,Los Gatos,Santa Clara,,,,529-20-055,
3450,Ambra Way,San Jose,Santa Clara,,,,,
385,Anita Avenue,Los Altos,Santa Clara,,,,,
560,Whiiskey Hill Road,Woodside,San Mateo,,,,,
140,Corte Madera Road,Portola Valley,San Mateo,,,,,
8709,Lomas Azules Place,San Jose,Santa Clara,,,,,
4105,Sierra Road,San Jose,Santa Clara,,,,595-33-005,
1082,Seth Court,San Jose,Santa Clara,,,,,
,Noble Avenue and Bayo Vista,San Jose,Santa Clara,,,,595-26-044,
231,Vista Del Mar,Los Gatos,Santa Clara,,,,,
10625,Olive Drive,San Jose,Santa Clara,,,,,
4396,Enterprise Place,Fremont,Alameda,,,,,
1655,Canyon View Drive,San Jose,Santa Clara,,,,,
210,Baypointe Parkway,San Jose,Santa Clara,,,,,
990A,Kiely Boulevard,Santa Clara,Santa Clara,,,,,
,Various projects,,,,,,,
12630,Viscaino Court,,,,,,,
333,Crest Drive,San Jose,Santa Clara,,,,,
1115,Nevada Avenue,San Jose,Santa Clara,,,,429-29-024,
18620,Overlook Road,Los Gatos,Santa Clara,,,,510-38-017,
132,,Los Gatos,Santa Clara,,,,Teresita Way,
16370,Lucky Road,Monte Sereno,Santa Clara,,,,,
19,Highland Avenue,Los Gatos,Santa Clara,,,,529-37-033,
24103,Congress Springs Road,Saratoga,Santa Clara,,,,,
16,Nashua Drive,Scotts Valley,Santa Cruz,,,,,
3859,Perie Lane,San Jose,Santa Clara,,,,,
,Prevost Court,San Jose,Santa Clara,,,,,
13931,Damon Lane,Saratoga,Santa Clara,,,,,
10974,Edgemont Drive,San Jose,Santa Clara,,,,612-11-032,
20060,Orchard Meadow Drive,Saratoga,Santa Clara,,,,,
844,Madonna Way,Los Altos,Santa Clara,,,,,
4363,Branciforte Drive,,Santa Cruz,,,,,
881,Boulder Drive,San Jose,Santa Clara,,,,,
16600,Englewood Avenue,Los Gatos,Santa Clara,,,,,
16084,Greenridge Terrace,Los Gatos,,,,,,
16084,Greenridge Terrace,Los Gatos,Santa Clara,,,,,
16084,Greenridge Terrace,Los Gatos,Santa Clara,,,,,
4,Maple Square,Felton,Santa Cruz,,,,,
,Fern Flat Road,Aptos,Santa Cruz,,,,105-511-03,
15775,E. Alta Vista Way,,Santa Clara,,,,,
16981,Bohlman Road,Saratoga,Santa Clara,,,,,
857,Nevada Avenue,San Jose,Santa Clara,,,,,
,,,,,,,,
,,,,,,,,
,,,,,,,,
